{"type":"FeatureCollection","features":[{"type":"Feature","geometry":{"type":"Polygon","coordinates":[[[-70.0172,-33.2369],[-70.25,-33.1239],[-70.4828,-33.2369],[-70.4828,-33.4631],[-70.25,-33.5761],[-70.0172,-33.4631],[-70.0172,-33.2369]]]},"properties":{"dummy":true,"nombre":"Zona de abundancia (ilustrativa)","abundancia_relativa":5}},{"type":"Feature","geometry":{"type":"Polygon","coordinates":[[[-70.2148,-34.0869],[-70.45,-33.9739],[-70.6852,-34.0869],[-70.6852,-34.3131],[-70.45,-34.4261],[-70.2148,-34.3131],[-70.2148,-34.0869]]]},"properties":{"dummy":true,"nombre":"Zona de abundancia (ilustrativa)","abundancia_relativa":4}},{"type":"Feature","geometry":{"type":"Polygon","coordinates":[[[-70.3123,-34.9869],[-70.55,-34.8739],[-70.7877,-34.9869],[-70.7877,-35.2131],[-70.55,-35.3261],[-70.3123,-35.2131],[-70.3123,-34.9869]]]},"properties":{"dummy":true,"nombre":"Zona de abundancia (ilustrativa)","abundancia_relativa":3}},{"type":"Feature","geometry":{"type":"Polygon","coordinates":[[[-70.7587,-36.1869],[-71.0,-36.0739],[-71.2413,-36.1869],[-71.2413,-36.4131],[-71.0,-36.5261],[-70.7587,-36.4131],[-70.7587,-36.1869]]]},"properties":{"dummy":true,"nombre":"Zona de abundancia (ilustrativa)","abundancia_relativa":2}},{"type":"Feature","geometry":{"type":"Polygon","coordinates":[[[-70.6717,-31.4869],[-70.9,-31.3739],[-71.1283,-31.4869],[-71.1283,-31.7131],[-70.9,-31.8261],[-70.6717,-31.7131],[-70.6717,-31.4869]]]},"properties":{"dummy":true,"nombre":"Zona de abundancia (ilustrativa)","abundancia_relativa":2}},{"type":"Feature","geometry":{"type":"Polygon","coordinates":[[[-70.175,-30.0869],[-70.4,-29.9739],[-70.625,-30.0869],[-70.625,-30.3131],[-70.4,-30.4261],[-70.175,-30.3131],[-70.175,-30.0869]]]},"properties":{"dummy":true,"nombre":"Zona de abundancia (ilustrativa)","abundancia_relativa":1}},{"type":"Feature","geometry":{"type":"Polygon","coordinates":[[[-71.1549,-37.3869],[-71.4,-37.2739],[-71.6451,-37.3869],[-71.6451,-37.6131],[-71.4,-37.7261],[-71.1549,-37.6131],[-71.1549,-37.3869]]]},"properties":{"dummy":true,"nombre":"Zona de abundancia (ilustrativa)","abundancia_relativa":3}},{"type":"Feature","geometry":{"type":"Polygon","coordinates":[[[-71.3511,-38.4869],[-71.6,-38.3739],[-71.8489,-38.4869],[-71.8489,-38.7131],[-71.6,-38.8261],[-71.3511,-38.7131],[-71.3511,-38.4869]]]},"properties":{"dummy":true,"nombre":"Zona de abundancia (ilustrativa)","abundancia_relativa":2}},{"type":"Feature","geometry":{"type":"Polygon","coordinates":[[[-72.691,-50.8869],[-73.0,-50.7739],[-73.309,-50.8869],[-73.309,-51.1131],[-73.0,-51.2261],[-72.691,-51.1131],[-72.691,-50.8869]]]},"properties":{"dummy":true,"nombre":"Zona de abundancia (ilustrativa)","abundancia_relativa":4}},{"type":"Feature","geometry":{"type":"Polygon","coordinates":[[[-72.0175,-46.3869],[-72.3,-46.2739],[-72.5825,-46.3869],[-72.5825,-46.6131],[-72.3,-46.7261],[-72.0175,-46.6131],[-72.0175,-46.3869]]]},"properties":{"dummy":true,"nombre":"Zona de abundancia (ilustrativa)","abundancia_relativa":2}}]}