{"type":"FeatureCollection","features":[{"type":"Feature","geometry":{"type":"Point","coordinates":[-70.6,-29.8]},"properties":{"dummy":true,"nombre":"Dormidero 1 (ilustrativo)"}},{"type":"Feature","geometry":{"type":"Point","coordinates":[-70.9,-31.2]},"properties":{"dummy":true,"nombre":"Dormidero 2 (ilustrativo)"}},{"type":"Feature","geometry":{"type":"Point","coordinates":[-70.3,-33.1]},"properties":{"dummy":true,"nombre":"Dormidero 3 (ilustrativo)"}},{"type":"Feature","geometry":{"type":"Point","coordinates":[-70.5,-33.9]},"properties":{"dummy":true,"nombre":"Dormidero 4 (ilustrativo)"}},{"type":"Feature","geometry":{"type":"Point","coordinates":[-70.6,-34.8]},"properties":{"dummy":true,"nombre":"Dormidero 5 (ilustrativo)"}},{"type":"Feature","geometry":{"type":"Point","coordinates":[-70.8,-35.6]},"properties":{"dummy":true,"nombre":"Dormidero 6 (ilustrativo)"}},{"type":"Feature","geometry":{"type":"Point","coordinates":[-71.1,-36.4]},"properties":{"dummy":true,"nombre":"Dormidero 7 (ilustrativo)"}},{"type":"Feature","geometry":{"type":"Point","coordinates":[-71.5,-37.4]},"properties":{"dummy":true,"nombre":"Dormidero 8 (ilustrativo)"}},{"type":"Feature","geometry":{"type":"Point","coordinates":[-71.7,-38.5]},"properties":{"dummy":true,"nombre":"Dormidero 9 (ilustrativo)"}},{"type":"Feature","geometry":{"type":"Point","coordinates":[-72.0,-46.0]},"properties":{"dummy":true,"nombre":"Dormidero 10 (ilustrativo)"}},{"type":"Feature","geometry":{"type":"Point","coordinates":[-73.05,-50.9]},"properties":{"dummy":true,"nombre":"Dormidero 11 (ilustrativo)"}},{"type":"Feature","geometry":{"type":"Point","coordinates":[-72.9,-51.2]},"properties":{"dummy":true,"nombre":"Dormidero 12 (ilustrativo)"}}]}