{"type":"FeatureCollection","features":[{"type":"Feature","geometry":{"type":"Point","coordinates":[-69.8,-23.6]},"properties":{"dummy":true,"nombre":"Velocidad media de viento (ilustrativa)","velocidad_ms":8.1}},{"type":"Feature","geometry":{"type":"Point","coordinates":[-70.4,-25.2]},"properties":{"dummy":true,"nombre":"Velocidad media de viento (ilustrativa)","velocidad_ms":7.4}},{"type":"Feature","geometry":{"type":"Point","coordinates":[-70.9,-28.6]},"properties":{"dummy":true,"nombre":"Velocidad media de viento (ilustrativa)","velocidad_ms":6.9}},{"type":"Feature","geometry":{"type":"Point","coordinates":[-71.3,-30.6]},"properties":{"dummy":true,"nombre":"Velocidad media de viento (ilustrativa)","velocidad_ms":7.8}},{"type":"Feature","geometry":{"type":"Point","coordinates":[-71.6,-32.4]},"properties":{"dummy":true,"nombre":"Velocidad media de viento (ilustrativa)","velocidad_ms":6.2}},{"type":"Feature","geometry":{"type":"Point","coordinates":[-72.2,-34.4]},"properties":{"dummy":true,"nombre":"Velocidad media de viento (ilustrativa)","velocidad_ms":5.8}},{"type":"Feature","geometry":{"type":"Point","coordinates":[-72.6,-37.6]},"properties":{"dummy":true,"nombre":"Velocidad media de viento (ilustrativa)","velocidad_ms":6.5}},{"type":"Feature","geometry":{"type":"Point","coordinates":[-72.9,-39.2]},"properties":{"dummy":true,"nombre":"Velocidad media de viento (ilustrativa)","velocidad_ms":5.9}},{"type":"Feature","geometry":{"type":"Point","coordinates":[-72.6,-41.6]},"properties":{"dummy":true,"nombre":"Velocidad media de viento (ilustrativa)","velocidad_ms":6.1}},{"type":"Feature","geometry":{"type":"Point","coordinates":[-69.0,-52.5]},"properties":{"dummy":true,"nombre":"Velocidad media de viento (ilustrativa)","velocidad_ms":9.2}},{"type":"Feature","geometry":{"type":"Point","coordinates":[-70.0,-52.7]},"properties":{"dummy":true,"nombre":"Velocidad media de viento (ilustrativa)","velocidad_ms":8.7}},{"type":"Feature","geometry":{"type":"Point","coordinates":[-68.6,-53.4]},"properties":{"dummy":true,"nombre":"Velocidad media de viento (ilustrativa)","velocidad_ms":9.5}}]}