{"type":"FeatureCollection","features":[{"type":"Feature","properties":{"nombre":"Área predictiva del cóndor andino (eBird S&T 2023)","producto":"prediction_area","temporada":"resident","anio":2023,"fuente":"Fink et al. 2025, eBird Status and Trends, Data Version: 2023. Cornell Lab of Ornithology."},"geometry":{"type":"MultiPolygon","coordinates":[[[[-71.3,-13.0],[-70.975,-13.266],[-70.844,-13.36],[-70.731,-13.424],[-70.426,-13.562],[-70.299,-13.625],[-70.209,-13.679],[-70.076,-13.771],[-69.999,-13.814],[-69.946,-13.836],[-69.875,-13.859],[-69.779,-13.882],[-69.657,-13.906],[-69.223,-13.977],[-69.108,-14.001],[-69.019,-14.024],[-68.952,-14.047],[-68.901,-14.07],[-68.824,-14.117],[-68.758,-14.167],[-68.658,-14.252],[-68.589,-14.319],[-68.554,-14.357],[-68.482,-14.454],[-68.33,-14.7],[-68.293,-14.753],[-68.221,-14.839],[-68.108,-14.945],[-67.688,-15.304],[-67.613,-15.375],[-67.577,-15.414],[-67.505,-15.508],[-67.355,-15.754],[-67.318,-15.809],[-67.248,-15.897],[-67.178,-15.967],[-67.106,-16.03],[-67.03,-16.09],[-66.942,-16.15],[-66.829,-16.212],[-66.686,-16.275],[-66.291,-16.439],[-65.954,-16.569],[-65.56,-16.731],[-65.418,-16.793],[-65.358,-16.823],[-65.262,-16.878],[-65.082,-17.0],[-65.037,-17.025],[-64.979,-17.05],[-64.905,-17.076],[-64.813,-17.103],[-64.482,-17.184],[-64.315,-17.231],[-64.197,-17.273],[-63.949,-17.372],[-63.808,-17.432],[-63.745,-17.463],[-63.642,-17.524],[-63.56,-17.583],[-63.455,-17.67],[-63.393,-17.73],[-63.335,-17.8],[-63.307,-17.845],[-63.281,-17.902],[-63.257,-17.973],[-63.235,-18.054],[-63.181,-18.287],[-63.166,-18.34],[-63.151,-18.382],[-63.109,-18.478],[-63.096,-18.516],[-63.084,-18.565],[-63.075,-18.629],[-63.07,-18.709],[-63.068,-18.807],[-63.078,-19.14],[-63.075,-19.319],[-63.069,-19.382],[-63.06,-19.429],[-63.05,-19.464],[-63.007,-19.559],[-62.997,-19.591],[-62.987,-19.633],[-62.98,-19.69],[-62.975,-19.765],[-62.975,-19.856],[-62.98,-19.957],[-62.989,-20.06],[-63.043,-20.46],[-63.053,-20.565],[-63.06,-20.671],[-63.061,-20.771],[-63.057,-20.857],[-63.049,-20.925],[-63.038,-20.978],[-62.993,-21.114],[-62.987,-21.149],[-62.984,-21.187],[-62.986,-21.23],[-62.993,-21.273],[-63.005,-21.315],[-63.02,-21.354],[-63.055,-21.414],[-63.114,-21.489],[-63.138,-21.526],[-63.169,-21.581],[-63.206,-21.658],[-63.249,-21.757],[-63.292,-21.868],[-63.331,-21.981],[-63.364,-22.089],[-63.415,-22.294],[-63.674,-23.498],[-63.712,-23.702],[-63.726,-23.809],[-63.737,-23.92],[-63.744,-24.03],[-63.746,-24.129],[-63.744,-24.206],[-63.739,-24.261],[-63.724,-24.322],[-63.697,-24.378],[-63.689,-24.404],[-63.682,-24.441],[-63.679,-24.491],[-63.68,-24.56],[-63.69,-24.647],[-63.708,-24.747],[-63.735,-24.85],[-63.766,-24.944],[-63.799,-25.022],[-63.829,-25.082],[-63.882,-25.162],[-63.978,-25.276],[-64.006,-25.319],[-64.039,-25.377],[-64.076,-25.452],[-64.116,-25.543],[-64.155,-25.645],[-64.269,-25.98],[-64.35,-26.196],[-64.391,-26.29],[-64.431,-26.369],[-64.466,-26.43],[-64.526,-26.513],[-64.603,-26.606],[-64.63,-26.646],[-64.659,-26.698],[-64.687,-26.763],[-64.712,-26.838],[-64.732,-26.919],[-64.743,-26.996],[-64.746,-27.063],[-64.743,-27.119],[-64.734,-27.164],[-64.699,-27.288],[-64.687,-27.341],[-64.669,-27.481],[-64.647,-27.709],[-64.628,-27.809],[-64.585,-27.947],[-64.577,-27.995],[-64.573,-28.057],[-64.575,-28.137],[-64.582,-28.235],[-64.624,-28.587],[-64.635,-28.696],[-64.639,-28.789],[-64.636,-28.863],[-64.629,-28.921],[-64.618,-28.967],[-64.606,-29.007],[-64.519,-29.229],[-64.471,-29.343],[-64.443,-29.395],[-64.414,-29.44],[-64.384,-29.479],[-64.353,-29.512],[-64.32,-29.539],[-64.288,-29.56],[-64.255,-29.577],[-64.222,-29.589],[-64.19,-29.596],[-64.159,-29.598],[-64.128,-29.596],[-63.959,-29.555],[-63.771,-29.519],[-63.634,-29.5],[-63.475,-29.484],[-63.309,-29.471],[-63.152,-29.462],[-62.882,-29.455],[-62.096,-29.452],[-61.831,-29.446],[-61.522,-29.428],[-61.372,-29.415],[-61.241,-29.399],[-61.062,-29.369],[-60.963,-29.343],[-60.847,-29.305],[-60.722,-29.275],[-60.195,-29.168],[-59.912,-29.094],[-59.85,-29.08],[-59.784,-29.07],[-59.717,-29.065],[-59.651,-29.063],[-59.59,-29.067],[-59.536,-29.074],[-59.49,-29.084],[-59.316,-29.139],[-59.249,-29.155],[-59.159,-29.172],[-59.046,-29.188],[-58.913,-29.202],[-58.77,-29.212],[-58.069,-29.239],[-57.921,-29.249],[-57.775,-29.264],[-57.644,-29.282],[-57.536,-29.303],[-57.454,-29.324],[-57.394,-29.345],[-57.35,-29.366],[-57.316,-29.387],[-57.259,-29.431],[-57.147,-29.534],[-57.089,-29.593],[-57.035,-29.66],[-57.01,-29.703],[-56.987,-29.756],[-56.966,-29.822],[-56.948,-29.904],[-56.904,-30.173],[-56.89,-30.243],[-56.858,-30.351],[-56.733,-30.66],[-56.686,-30.757],[-56.663,-30.794],[-56.618,-30.851],[-56.564,-30.895],[-56.527,-30.915],[-56.478,-30.936],[-56.41,-30.957],[-56.319,-30.977],[-56.2,-30.995],[-56.054,-31.008],[-55.89,-31.015],[-55.718,-31.014],[-55.553,-31.006],[-55.407,-30.992],[-55.286,-30.974],[-55.193,-30.955],[-55.07,-30.92],[-54.999,-30.888],[-54.924,-30.843],[-54.873,-30.799],[-54.843,-30.765],[-54.807,-30.717],[-54.765,-30.649],[-54.717,-30.561],[-54.668,-30.455],[-54.621,-30.34],[-54.58,-30.226],[-54.518,-30.021],[-54.472,-29.836],[-54.432,-29.639],[-54.415,-29.528],[-54.403,-29.412],[-54.397,-29.3],[-54.399,-29.2],[-54.408,-29.121],[-54.422,-29.061],[-54.439,-29.017],[-54.458,-28.984],[-54.502,-28.931],[-54.555,-28.88],[-54.656,-28.791],[-54.734,-28.729],[-54.815,-28.677],[-54.854,-28.659],[-54.892,-28.646],[-54.929,-28.639],[-54.966,-28.638],[-55.003,-28.641],[-55.219,-28.693],[-55.314,-28.711],[-55.435,-28.73],[-55.576,-28.746],[-55.731,-28.758],[-55.89,-28.764],[-56.049,-28.766],[-56.206,-28.762],[-56.359,-28.752],[-56.5,-28.738],[-56.621,-28.721],[-56.717,-28.702],[-56.788,-28.683],[-56.84,-28.665],[-56.877,-28.648],[-56.926,-28.615],[-56.962,-28.579],[-56.978,-28.556],[-56.994,-28.528],[-57.01,-28.491],[-57.022,-28.442],[-57.031,-28.378],[-57.033,-28.299],[-57.027,-28.208],[-57.01,-28.112],[-56.983,-28.018],[-56.946,-27.933],[-56.899,-27.86],[-56.841,-27.8],[-56.773,-27.751],[-56.693,-27.713],[-56.601,-27.683],[-56.299,-27.61],[-56.127,-27.563],[-56.059,-27.538],[-56.0,-27.513],[-55.899,-27.46],[-55.712,-27.344],[-55.572,-27.246],[-55.479,-27.171],[-55.274,-26.98],[-55.21,-26.931],[-55.137,-26.885],[-55.053,-26.845],[-54.959,-26.81],[-54.653,-26.718],[-54.559,-26.684],[-54.475,-26.644],[-54.403,-26.599],[-54.34,-26.551],[-54.286,-26.502],[-54.152,-26.373],[-54.076,-26.31],[-53.999,-26.259],[-53.954,-26.236],[-53.9,-26.212],[-53.831,-26.188],[-53.743,-26.162],[-53.635,-26.135],[-53.27,-26.054],[-53.091,-26.007],[-52.659,-25.859],[-52.493,-25.796],[-52.419,-25.764],[-52.291,-25.701],[-52.126,-25.602],[-51.497,-25.192],[-51.286,-25.05],[-51.219,-24.994],[-51.184,-24.957],[-51.147,-24.908],[-51.107,-24.842],[-51.064,-24.758],[-51.022,-24.657],[-50.983,-24.547],[-50.949,-24.436],[-50.849,-24.025],[-50.821,-23.919],[-50.788,-23.814],[-50.754,-23.716],[-50.72,-23.633],[-50.688,-23.568],[-50.635,-23.481],[-50.566,-23.394],[-50.512,-23.314],[-50.359,-23.031],[-50.283,-22.901],[-50.25,-22.852],[-50.16,-22.732],[-50.092,-22.626],[-49.926,-22.321],[-49.889,-22.258],[-49.856,-22.207],[-49.733,-22.039],[-49.697,-21.981],[-49.509,-21.655],[-49.462,-21.584],[-49.418,-21.528],[-49.377,-21.483],[-49.302,-21.415],[-49.189,-21.328],[-49.105,-21.256],[-49.006,-21.158],[-48.779,-20.91],[-48.727,-20.857],[-48.628,-20.772],[-48.482,-20.664],[-48.166,-20.451],[-48.01,-20.354],[-47.893,-20.292],[-47.826,-20.261],[-47.673,-20.201],[-47.299,-20.067],[-47.179,-20.033],[-47.097,-20.016],[-46.992,-19.999],[-46.864,-19.984],[-46.239,-19.923],[-46.108,-19.905],[-46.0,-19.886],[-46.0,-24.201],[-46.07,-24.192],[-46.155,-24.188],[-46.244,-24.191],[-46.33,-24.203],[-46.408,-24.222],[-46.478,-24.246],[-46.54,-24.273],[-46.65,-24.334],[-46.757,-24.401],[-47.382,-24.816],[-47.484,-24.887],[-47.582,-24.962],[-47.682,-25.052],[-47.783,-25.16],[-48.032,-25.453],[-48.061,-25.494],[-48.093,-25.547],[-48.127,-25.616],[-48.165,-25.702],[-48.202,-25.803],[-48.235,-25.91],[-48.265,-26.018],[-48.289,-26.122],[-48.327,-26.323],[-48.352,-26.533],[-48.358,-26.636],[-48.36,-26.73],[-48.357,-26.807],[-48.351,-26.866],[-48.334,-26.939],[-48.296,-27.021],[-48.286,-27.049],[-48.278,-27.088],[-48.271,-27.142],[-48.267,-27.216],[-48.268,-27.307],[-48.274,-27.412],[-48.297,-27.624],[-48.346,-27.901],[-48.384,-28.075],[-48.407,-28.166],[-48.435,-28.262],[-48.469,-28.36],[-48.509,-28.456],[-48.555,-28.544],[-48.605,-28.618],[-48.656,-28.676],[-48.706,-28.719],[-48.756,-28.752],[-48.964,-28.853],[-49.019,-28.887],[-49.073,-28.928],[-49.177,-29.024],[-49.479,-29.348],[-49.651,-29.552],[-49.786,-29.706],[-49.82,-29.75],[-49.856,-29.805],[-49.895,-29.876],[-49.937,-29.966],[-49.982,-30.072],[-50.121,-30.432],[-50.166,-30.537],[-50.209,-30.624],[-50.248,-30.694],[-50.284,-30.747],[-50.318,-30.791],[-50.683,-31.206],[-50.997,-31.542],[-51.115,-31.661],[-51.172,-31.711],[-51.279,-31.795],[-51.386,-31.868],[-51.74,-32.1],[-51.825,-32.166],[-51.868,-32.206],[-51.914,-32.258],[-51.964,-32.325],[-52.019,-32.411],[-52.079,-32.518],[-52.257,-32.857],[-52.306,-32.941],[-52.349,-33.006],[-52.389,-33.058],[-52.708,-33.403],[-52.821,-33.512],[-52.922,-33.597],[-53.141,-33.757],[-53.186,-33.796],[-53.235,-33.844],[-53.29,-33.905],[-53.352,-33.983],[-53.564,-34.274],[-53.63,-34.357],[-53.688,-34.424],[-53.742,-34.477],[-53.84,-34.556],[-53.995,-34.659],[-54.355,-34.883],[-54.475,-34.953],[-54.598,-35.017],[-54.665,-35.045],[-54.738,-35.071],[-54.818,-35.092],[-54.9,-35.106],[-54.982,-35.114],[-55.057,-35.114],[-55.122,-35.109],[-55.178,-35.099],[-55.381,-35.038],[-55.458,-35.021],[-55.556,-35.003],[-55.827,-34.971],[-56.151,-34.942],[-56.433,-34.91],[-56.539,-34.893],[-56.621,-34.875],[-56.827,-34.813],[-56.877,-34.802],[-56.935,-34.795],[-56.998,-34.794],[-57.064,-34.799],[-57.124,-34.812],[-57.174,-34.831],[-57.208,-34.855],[-57.227,-34.882],[-57.231,-34.911],[-57.224,-34.941],[-57.208,-34.972],[-57.186,-35.002],[-57.085,-35.122],[-57.062,-35.155],[-57.04,-35.192],[-57.021,-35.236],[-57.006,-35.293],[-56.996,-35.365],[-56.993,-35.454],[-56.998,-35.774],[-56.99,-35.87],[-56.97,-35.95],[-56.937,-36.014],[-56.894,-36.065],[-56.844,-36.104],[-56.79,-36.137],[-56.603,-36.237],[-56.541,-36.282],[-56.495,-36.331],[-56.475,-36.362],[-56.458,-36.4],[-56.445,-36.45],[-56.439,-36.517],[-56.443,-36.606],[-56.46,-36.714],[-56.491,-36.835],[-56.534,-36.954],[-56.581,-37.06],[-56.629,-37.145],[-56.674,-37.211],[-56.756,-37.307],[-57.256,-37.827],[-57.353,-37.941],[-57.542,-38.182],[-57.617,-38.265],[-57.696,-38.337],[-57.777,-38.397],[-57.859,-38.445],[-57.939,-38.483],[-58.017,-38.515],[-58.359,-38.639],[-59.005,-38.85],[-59.14,-38.888],[-59.232,-38.906],[-59.348,-38.925],[-59.488,-38.942],[-60.155,-39.0],[-60.405,-39.031],[-60.56,-39.062],[-60.751,-39.12],[-60.876,-39.149],[-61.062,-39.177],[-61.175,-39.188],[-61.401,-39.201],[-61.501,-39.201],[-61.586,-39.195],[-61.658,-39.183],[-61.715,-39.16],[-61.759,-39.125],[-61.789,-39.074],[-61.805,-39.006],[-61.808,-38.924],[-61.797,-38.832],[-61.778,-38.738],[-61.753,-38.643],[-61.693,-38.459],[-61.476,-37.856],[-61.38,-37.57],[-61.316,-37.337],[-61.289,-37.216],[-61.27,-37.105],[-61.26,-37.013],[-61.256,-36.943],[-61.258,-36.892],[-61.264,-36.855],[-61.294,-36.74],[-61.3,-36.697],[-61.304,-36.639],[-61.312,-36.316],[-61.319,-36.246],[-61.329,-36.187],[-61.342,-36.136],[-61.427,-35.87],[-61.472,-35.75],[-61.524,-35.651],[-61.55,-35.611],[-61.658,-35.469],[-61.685,-35.429],[-61.737,-35.331],[-61.785,-35.207],[-61.993,-34.621],[-62.039,-34.525],[-62.062,-34.487],[-62.088,-34.456],[-62.116,-34.428],[-62.151,-34.402],[-62.196,-34.377],[-62.255,-34.35],[-62.336,-34.322],[-62.437,-34.292],[-62.783,-34.196],[-62.871,-34.166],[-62.938,-34.138],[-62.988,-34.113],[-63.026,-34.088],[-63.084,-34.043],[-63.177,-33.963],[-63.205,-33.944],[-63.239,-33.925],[-63.287,-33.904],[-63.355,-33.883],[-63.448,-33.862],[-63.57,-33.842],[-63.714,-33.824],[-63.867,-33.811],[-64.017,-33.802],[-64.288,-33.795],[-64.668,-33.797],[-64.959,-33.808],[-65.115,-33.819],[-65.265,-33.834],[-65.395,-33.85],[-65.5,-33.868],[-65.581,-33.885],[-65.696,-33.918],[-66.084,-34.049],[-66.257,-34.112],[-66.335,-34.145],[-66.471,-34.209],[-66.646,-34.307],[-66.813,-34.411],[-66.928,-34.493],[-66.99,-34.543],[-67.123,-34.661],[-67.484,-35.006],[-67.785,-35.308],[-67.922,-35.44],[-68.002,-35.537],[-68.052,-35.611],[-68.111,-35.706],[-68.173,-35.818],[-68.233,-35.938],[-68.288,-36.054],[-68.376,-36.262],[-68.515,-36.622],[-68.586,-36.817],[-68.657,-37.045],[-68.687,-37.163],[-68.71,-37.271],[-68.724,-37.361],[-68.73,-37.429],[-68.73,-37.48],[-68.726,-37.516],[-68.707,-37.602],[-68.698,-37.684],[-68.701,-37.817],[-68.71,-37.986],[-68.711,-38.129],[-68.706,-38.183],[-68.685,-38.314],[-68.677,-38.428],[-68.69,-38.761],[-68.69,-38.831],[-68.687,-38.888],[-68.661,-39.07],[-68.659,-39.13],[-68.66,-39.203],[-68.676,-39.456],[-68.678,-39.584],[-68.674,-39.629],[-68.656,-39.736],[-68.652,-39.779],[-68.654,-39.834],[-68.662,-39.906],[-68.679,-39.996],[-68.706,-40.106],[-68.814,-40.483],[-68.843,-40.593],[-68.862,-40.685],[-68.873,-40.758],[-68.876,-40.813],[-68.875,-40.855],[-68.856,-40.987],[-68.856,-41.036],[-68.863,-41.1],[-68.876,-41.186],[-68.948,-41.537],[-68.966,-41.648],[-68.976,-41.738],[-68.98,-41.808],[-68.976,-41.938],[-68.979,-41.969],[-68.987,-41.998],[-69.003,-42.029],[-69.025,-42.061],[-69.18,-42.245],[-69.224,-42.309],[-69.262,-42.377],[-69.291,-42.444],[-69.309,-42.508],[-69.318,-42.567],[-69.33,-42.732],[-69.341,-42.79],[-69.36,-42.85],[-69.387,-42.909],[-69.42,-42.965],[-69.456,-43.015],[-69.495,-43.061],[-69.628,-43.199],[-69.682,-43.262],[-69.742,-43.344],[-69.809,-43.447],[-69.876,-43.568],[-69.936,-43.698],[-69.981,-43.822],[-70.01,-43.927],[-70.025,-44.009],[-70.035,-44.162],[-70.04,-44.197],[-70.051,-44.231],[-70.069,-44.265],[-70.093,-44.301],[-70.19,-44.419],[-70.218,-44.461],[-70.239,-44.504],[-70.25,-44.547],[-70.251,-44.59],[-70.242,-44.633],[-70.227,-44.674],[-70.136,-44.843],[-70.113,-44.893],[-70.092,-44.95],[-70.073,-45.016],[-70.024,-45.238],[-70.006,-45.304],[-69.987,-45.361],[-69.945,-45.453],[-69.858,-45.608],[-69.838,-45.654],[-69.819,-45.708],[-69.803,-45.769],[-69.79,-45.837],[-69.721,-46.277],[-69.693,-46.536],[-69.653,-46.822],[-69.634,-47.054],[-69.618,-47.184],[-69.616,-47.229],[-69.618,-47.284],[-69.629,-47.353],[-69.65,-47.441],[-69.684,-47.551],[-69.73,-47.679],[-69.889,-48.092],[-69.927,-48.206],[-69.952,-48.3],[-69.966,-48.373],[-69.971,-48.431],[-69.97,-48.479],[-69.941,-48.794],[-69.922,-48.918],[-69.908,-48.971],[-69.89,-49.016],[-69.867,-49.055],[-69.839,-49.089],[-69.803,-49.119],[-69.756,-49.146],[-69.699,-49.169],[-69.629,-49.186],[-69.551,-49.196],[-69.471,-49.199],[-69.392,-49.196],[-69.319,-49.186],[-69.252,-49.173],[-69.047,-49.12],[-68.958,-49.101],[-68.847,-49.081],[-68.714,-49.063],[-68.561,-49.049],[-68.395,-49.039],[-68.229,-49.037],[-68.07,-49.042],[-67.927,-49.057],[-67.806,-49.08],[-67.709,-49.112],[-67.637,-49.151],[-67.589,-49.196],[-67.559,-49.244],[-67.542,-49.294],[-67.528,-49.393],[-67.518,-49.534],[-67.518,-49.583],[-67.525,-49.638],[-67.541,-49.699],[-67.568,-49.766],[-67.609,-49.837],[-67.659,-49.907],[-67.716,-49.972],[-67.776,-50.028],[-67.836,-50.075],[-67.897,-50.116],[-67.959,-50.153],[-68.096,-50.219],[-68.473,-50.376],[-68.58,-50.429],[-68.678,-50.49],[-68.762,-50.557],[-68.826,-50.628],[-68.87,-50.697],[-68.894,-50.762],[-68.902,-50.82],[-68.899,-50.872],[-68.889,-50.918],[-68.873,-50.959],[-68.797,-51.113],[-68.78,-51.157],[-68.748,-51.261],[-68.717,-51.392],[-68.695,-51.463],[-68.663,-51.533],[-68.619,-51.598],[-68.565,-51.656],[-68.506,-51.706],[-68.345,-51.824],[-68.306,-51.858],[-68.274,-51.892],[-68.248,-51.928],[-68.226,-51.968],[-68.208,-52.015],[-68.194,-52.071],[-68.182,-52.137],[-68.154,-52.372],[-68.142,-52.444],[-68.126,-52.508],[-68.107,-52.564],[-68.062,-52.66],[-67.948,-52.842],[-67.495,-53.524],[-67.409,-53.647],[-67.346,-53.719],[-67.306,-53.753],[-67.253,-53.788],[-67.183,-53.823],[-67.09,-53.859],[-66.977,-53.896],[-66.629,-53.999],[-66.545,-54.029],[-66.479,-54.057],[-66.258,-54.168],[-66.067,-54.258],[-65.902,-54.343],[-65.78,-54.398],[-65.697,-54.427],[-65.593,-54.459],[-65.231,-54.563],[-65.135,-54.594],[-64.955,-54.662],[-64.914,-54.675],[-64.874,-54.682],[-64.833,-54.684],[-64.788,-54.68],[-64.738,-54.671],[-64.527,-54.618],[-64.427,-54.598],[-64.309,-54.58],[-64.18,-54.568],[-64.049,-54.567],[-63.932,-54.578],[-63.837,-54.6],[-63.77,-54.63],[-63.729,-54.667],[-63.711,-54.707],[-63.711,-54.748],[-63.728,-54.79],[-63.759,-54.831],[-63.807,-54.872],[-63.874,-54.911],[-63.962,-54.948],[-64.074,-54.982],[-64.207,-55.01],[-64.356,-55.033],[-64.515,-55.05],[-65.206,-55.091],[-65.392,-55.108],[-65.57,-55.129],[-65.728,-55.154],[-65.858,-55.182],[-65.962,-55.209],[-66.044,-55.237],[-66.112,-55.265],[-66.224,-55.325],[-66.274,-55.358],[-66.321,-55.393],[-66.364,-55.432],[-66.402,-55.474],[-66.433,-55.519],[-66.458,-55.565],[-66.514,-55.713],[-66.538,-55.762],[-66.571,-55.81],[-66.613,-55.857],[-66.665,-55.901],[-66.726,-55.944],[-66.795,-55.985],[-66.872,-56.023],[-66.959,-56.059],[-67.054,-56.089],[-67.156,-56.114],[-67.259,-56.13],[-67.359,-56.136],[-67.448,-56.134],[-67.524,-56.123],[-67.589,-56.106],[-67.78,-56.035],[-67.868,-56.005],[-68.337,-55.868],[-68.562,-55.789],[-68.613,-55.773],[-68.662,-55.764],[-68.712,-55.762],[-68.766,-55.766],[-68.824,-55.775],[-69.006,-55.815],[-69.062,-55.825],[-69.113,-55.829],[-69.16,-55.827],[-69.204,-55.819],[-69.248,-55.806],[-69.363,-55.765],[-69.449,-55.74],[-69.564,-55.712],[-69.708,-55.684],[-70.179,-55.604],[-70.293,-55.58],[-70.378,-55.558],[-70.441,-55.536],[-70.576,-55.474],[-70.7,-55.427],[-71.02,-55.335],[-71.135,-55.299],[-71.232,-55.263],[-71.308,-55.229],[-71.363,-55.196],[-71.404,-55.164],[-71.435,-55.134],[-71.533,-55.014],[-71.563,-54.984],[-71.602,-54.952],[-71.655,-54.919],[-71.729,-54.884],[-71.826,-54.846],[-72.297,-54.695],[-72.486,-54.623],[-72.529,-54.61],[-72.572,-54.603],[-72.617,-54.602],[-72.666,-54.607],[-72.938,-54.667],[-73.025,-54.68],[-73.113,-54.686],[-73.198,-54.68],[-73.272,-54.661],[-73.331,-54.627],[-73.374,-54.582],[-73.405,-54.528],[-73.457,-54.408],[-73.49,-54.349],[-73.533,-54.294],[-73.585,-54.244],[-73.754,-54.116],[-73.839,-54.042],[-73.873,-54.007],[-73.989,-53.867],[-74.024,-53.831],[-74.068,-53.792],[-74.123,-53.75],[-74.188,-53.706],[-74.405,-53.568],[-74.466,-53.523],[-74.515,-53.481],[-74.556,-53.44],[-74.622,-53.358],[-74.736,-53.178],[-75.148,-52.497],[-75.199,-52.408],[-75.242,-52.315],[-75.259,-52.263],[-75.273,-52.203],[-75.284,-52.135],[-75.301,-51.896],[-75.308,-51.821],[-75.318,-51.755],[-75.331,-51.7],[-75.346,-51.652],[-75.415,-51.491],[-75.444,-51.401],[-75.455,-51.347],[-75.485,-51.157],[-75.502,-51.093],[-75.526,-51.034],[-75.557,-50.982],[-75.595,-50.936],[-75.676,-50.85],[-75.709,-50.801],[-75.732,-50.741],[-75.742,-50.667],[-75.738,-50.579],[-75.692,-50.288],[-75.683,-50.208],[-75.683,-50.143],[-75.689,-50.089],[-75.701,-50.044],[-75.735,-49.968],[-75.79,-49.865],[-75.816,-49.801],[-75.82,-49.771],[-75.814,-49.742],[-75.794,-49.713],[-75.755,-49.684],[-75.69,-49.655],[-75.591,-49.626],[-75.454,-49.597],[-74.919,-49.507],[-74.769,-49.478],[-74.657,-49.449],[-74.581,-49.42],[-74.534,-49.391],[-74.508,-49.362],[-74.498,-49.333],[-74.499,-49.304],[-74.508,-49.273],[-74.522,-49.241],[-74.598,-49.104],[-74.615,-49.065],[-74.629,-49.021],[-74.638,-48.967],[-74.64,-48.9],[-74.633,-48.815],[-74.619,-48.715],[-74.563,-48.409],[-74.554,-48.333],[-74.551,-48.27],[-74.571,-47.804],[-74.607,-47.426],[-74.627,-47.288],[-74.643,-47.229],[-74.662,-47.179],[-74.685,-47.137],[-74.713,-47.103],[-74.744,-47.075],[-74.779,-47.054],[-74.819,-47.039],[-74.864,-47.032],[-74.916,-47.032],[-74.975,-47.039],[-75.214,-47.078],[-75.312,-47.088],[-75.41,-47.089],[-75.501,-47.082],[-75.578,-47.067],[-75.639,-47.046],[-75.686,-47.019],[-75.72,-46.989],[-75.744,-46.955],[-75.76,-46.914],[-75.766,-46.866],[-75.76,-46.809],[-75.741,-46.742],[-75.708,-46.669],[-75.663,-46.594],[-75.61,-46.525],[-75.557,-46.463],[-75.431,-46.328],[-75.405,-46.292],[-75.387,-46.259],[-75.376,-46.224],[-75.356,-46.089],[-75.341,-46.019],[-75.313,-45.932],[-75.268,-45.828],[-75.209,-45.719],[-75.141,-45.616],[-75.075,-45.53],[-75.015,-45.462],[-74.895,-45.336],[-74.876,-45.306],[-74.869,-45.276],[-74.877,-45.244],[-74.901,-45.211],[-74.942,-45.174],[-74.997,-45.135],[-75.175,-45.016],[-75.22,-44.978],[-75.254,-44.941],[-75.279,-44.904],[-75.295,-44.867],[-75.3,-44.828],[-75.294,-44.789],[-75.277,-44.748],[-75.247,-44.707],[-75.206,-44.665],[-75.157,-44.625],[-75.102,-44.585],[-74.867,-44.435],[-74.807,-44.394],[-74.744,-44.345],[-74.678,-44.284],[-74.609,-44.207],[-74.541,-44.115],[-74.48,-44.014],[-74.437,-43.917],[-74.416,-43.838],[-74.415,-43.781],[-74.432,-43.747],[-74.461,-43.731],[-74.498,-43.729],[-74.541,-43.734],[-74.639,-43.752],[-74.69,-43.759],[-74.741,-43.759],[-74.79,-43.753],[-74.835,-43.738],[-74.876,-43.716],[-74.911,-43.688],[-74.939,-43.655],[-74.961,-43.62],[-74.974,-43.584],[-74.979,-43.548],[-74.975,-43.514],[-74.962,-43.48],[-74.941,-43.447],[-74.912,-43.411],[-74.772,-43.261],[-74.705,-43.179],[-74.63,-43.077],[-74.555,-42.956],[-74.486,-42.831],[-74.433,-42.714],[-74.397,-42.616],[-74.377,-42.54],[-74.368,-42.484],[-74.366,-42.441],[-74.377,-42.306],[-74.374,-42.258],[-74.363,-42.194],[-74.343,-42.111],[-74.313,-42.008],[-74.146,-41.513],[-74.118,-41.412],[-74.1,-41.332],[-74.092,-41.27],[-74.089,-41.223],[-74.104,-41.09],[-74.104,-41.047],[-74.098,-40.99],[-74.064,-40.815],[-74.009,-40.576],[-73.985,-40.46],[-73.97,-40.362],[-73.964,-40.285],[-73.963,-40.226],[-73.967,-40.146],[-73.967,-40.115],[-73.963,-40.087],[-73.953,-40.06],[-73.938,-40.033],[-73.916,-40.004],[-73.807,-39.885],[-73.755,-39.823],[-73.699,-39.745],[-73.642,-39.653],[-73.592,-39.554],[-73.554,-39.458],[-73.532,-39.375],[-73.523,-39.306],[-73.523,-39.249],[-73.529,-39.2],[-73.586,-38.923],[-73.619,-38.81],[-73.639,-38.763],[-73.662,-38.723],[-73.689,-38.688],[-73.72,-38.655],[-73.758,-38.623],[-73.804,-38.591],[-73.98,-38.484],[-74.033,-38.448],[-74.072,-38.413],[-74.093,-38.38],[-74.099,-38.348],[-74.089,-38.316],[-74.068,-38.282],[-73.96,-38.151],[-73.92,-38.095],[-73.884,-38.035],[-73.857,-37.977],[-73.84,-37.922],[-73.831,-37.872],[-73.829,-37.828],[-73.836,-37.691],[-73.831,-37.627],[-73.817,-37.545],[-73.79,-37.445],[-73.751,-37.333],[-73.702,-37.219],[-73.651,-37.118],[-73.603,-37.035],[-73.561,-36.973],[-73.499,-36.898],[-73.476,-36.877],[-73.405,-36.822],[-73.381,-36.793],[-73.342,-36.736],[-73.278,-36.629],[-73.186,-36.466],[-73.085,-36.278],[-72.953,-36.024],[-72.893,-35.894],[-72.508,-34.92],[-72.113,-33.88],[-71.904,-33.309],[-71.881,-33.234],[-71.833,-33.042],[-71.753,-32.689],[-71.728,-32.552],[-71.717,-32.471],[-71.716,-32.429],[-71.721,-32.406],[-71.744,-32.362],[-71.752,-32.341],[-71.763,-32.267],[-71.77,-31.904],[-71.783,-31.791],[-71.812,-31.666],[-71.827,-31.557],[-71.834,-31.248],[-71.843,-31.138],[-71.85,-31.1],[-71.875,-31.01],[-71.882,-30.973],[-71.885,-30.924],[-71.884,-30.859],[-71.877,-30.777],[-71.862,-30.678],[-71.84,-30.57],[-71.786,-30.354],[-71.701,-30.044],[-71.654,-29.831],[-71.638,-29.734],[-71.63,-29.652],[-71.627,-29.589],[-71.629,-29.544],[-71.639,-29.49],[-71.666,-29.427],[-71.671,-29.354],[-71.659,-29.197],[-71.645,-29.09],[-71.625,-28.977],[-71.603,-28.866],[-71.577,-28.759],[-71.519,-28.554],[-71.149,-27.321],[-71.072,-27.106],[-71.024,-26.992],[-70.969,-26.878],[-70.913,-26.775],[-70.862,-26.695],[-70.822,-26.642],[-70.79,-26.614],[-70.765,-26.603],[-70.743,-26.604],[-70.723,-26.611],[-70.703,-26.624],[-70.638,-26.686],[-70.588,-26.748],[-70.533,-26.837],[-70.414,-27.087],[-70.383,-27.144],[-70.352,-27.193],[-70.319,-27.233],[-70.285,-27.265],[-70.249,-27.291],[-70.209,-27.311],[-70.166,-27.323],[-70.119,-27.328],[-70.068,-27.324],[-70.014,-27.312],[-69.957,-27.292],[-69.897,-27.265],[-69.835,-27.234],[-69.709,-27.162],[-69.325,-26.927],[-68.371,-26.332],[-68.187,-26.215],[-68.078,-26.138],[-67.993,-26.066],[-67.963,-26.032],[-67.942,-25.999],[-67.929,-25.966],[-67.925,-25.933],[-67.927,-25.898],[-67.94,-25.805],[-67.944,-25.741],[-67.941,-25.662],[-67.928,-25.573],[-67.905,-25.481],[-67.873,-25.398],[-67.838,-25.328],[-67.802,-25.271],[-67.765,-25.223],[-67.394,-24.802],[-67.32,-24.712],[-67.284,-24.657],[-67.249,-24.591],[-67.217,-24.513],[-67.192,-24.43],[-67.176,-24.348],[-67.17,-24.275],[-67.172,-24.215],[-67.18,-24.166],[-67.23,-23.994],[-67.287,-23.68],[-67.305,-23.6],[-67.326,-23.532],[-67.35,-23.479],[-67.375,-23.436],[-67.43,-23.368],[-67.491,-23.308],[-67.593,-23.218],[-67.676,-23.158],[-67.784,-23.095],[-67.922,-23.031],[-68.605,-22.738],[-68.731,-22.674],[-68.825,-22.613],[-68.935,-22.523],[-69.029,-22.434],[-69.085,-22.367],[-69.11,-22.325],[-69.134,-22.273],[-69.156,-22.208],[-69.176,-22.129],[-69.236,-21.815],[-69.25,-21.764],[-69.309,-21.593],[-69.323,-21.533],[-69.369,-21.288],[-69.388,-21.207],[-69.41,-21.138],[-69.433,-21.084],[-69.457,-21.041],[-69.507,-20.975],[-69.616,-20.854],[-69.674,-20.773],[-69.703,-20.723],[-69.759,-20.61],[-69.85,-20.412],[-69.887,-20.319],[-69.904,-20.262],[-69.919,-20.193],[-69.972,-19.89],[-69.999,-19.795],[-70.04,-19.69],[-70.052,-19.646],[-70.063,-19.59],[-70.071,-19.517],[-70.076,-19.428],[-70.084,-19.132],[-70.09,-19.056],[-70.098,-18.998],[-70.107,-18.956],[-70.118,-18.923],[-70.162,-18.818],[-70.171,-18.778],[-70.179,-18.723],[-70.184,-18.651],[-70.184,-18.563],[-70.18,-18.463],[-70.158,-18.258],[-70.124,-18.062],[-70.103,-17.963],[-70.047,-17.759],[-70.015,-17.662],[-69.983,-17.577],[-69.927,-17.459],[-69.885,-17.395],[-69.812,-17.306],[-69.764,-17.222],[-69.736,-17.158],[-69.705,-17.077],[-69.674,-16.982],[-69.554,-16.546],[-69.52,-16.437],[-69.483,-16.335],[-69.445,-16.248],[-69.41,-16.179],[-69.316,-16.025],[-69.305,-15.999],[-69.301,-15.974],[-69.303,-15.947],[-69.312,-15.918],[-69.328,-15.888],[-69.35,-15.857],[-69.407,-15.792],[-69.535,-15.659],[-69.596,-15.581],[-69.693,-15.441],[-69.734,-15.394],[-69.786,-15.351],[-69.849,-15.315],[-69.926,-15.289],[-70.013,-15.273],[-70.106,-15.27],[-70.2,-15.279],[-70.289,-15.3],[-70.369,-15.331],[-70.44,-15.37],[-70.5,-15.415],[-70.554,-15.463],[-70.69,-15.6],[-70.733,-15.638],[-70.818,-15.707],[-70.99,-15.827],[-71.121,-15.907],[-71.222,-15.957],[-71.283,-15.981],[-71.355,-16.004],[-71.439,-16.027],[-71.725,-16.095],[-71.814,-16.123],[-71.893,-16.157],[-71.96,-16.2],[-72.017,-16.254],[-72.066,-16.32],[-72.109,-16.398],[-72.226,-16.658],[-72.264,-16.73],[-72.3,-16.786],[-72.332,-16.824],[-72.362,-16.848],[-72.389,-16.86],[-72.415,-16.863],[-72.441,-16.86],[-72.597,-16.804],[-72.671,-16.782],[-72.994,-16.698],[-73.193,-16.641],[-73.263,-16.614],[-73.317,-16.589],[-73.361,-16.565],[-73.54,-16.442],[-73.642,-16.384],[-73.938,-16.248],[-74.069,-16.183],[-74.165,-16.125],[-74.322,-16.016],[-74.425,-15.957],[-74.795,-15.785],[-74.857,-15.752],[-74.959,-15.689],[-75.043,-15.626],[-75.125,-15.558],[-75.921,-14.88],[-76.088,-14.736],[-76.199,-14.631],[-76.268,-14.549],[-76.335,-14.444],[-76.453,-14.217],[-76.495,-14.119],[-76.508,-14.068],[-76.514,-14.014],[-76.511,-13.957],[-76.499,-13.897],[-76.48,-13.84],[-76.456,-13.788],[-76.392,-13.668],[-76.381,-13.636],[-76.376,-13.605],[-76.379,-13.573],[-76.389,-13.538],[-76.405,-13.499],[-76.452,-13.403],[-76.568,-13.175],[-76.666,-13.0],[-71.3,-13.0]],[[-57.701,-34.66],[-57.641,-34.665],[-57.577,-34.664],[-57.516,-34.657],[-57.465,-34.644],[-57.429,-34.628],[-57.409,-34.611],[-57.406,-34.593],[-57.421,-34.576],[-57.454,-34.561],[-57.502,-34.55],[-57.562,-34.545],[-57.626,-34.546],[-57.687,-34.553],[-57.738,-34.566],[-57.774,-34.581],[-57.794,-34.599],[-57.797,-34.617],[-57.782,-34.634],[-57.749,-34.649],[-57.701,-34.66]]],[[[-60.072,-52.349],[-60.153,-52.342],[-60.244,-52.343],[-60.34,-52.351],[-60.433,-52.366],[-60.663,-52.415],[-60.721,-52.425],[-60.774,-52.428],[-60.822,-52.425],[-60.869,-52.415],[-60.919,-52.397],[-60.973,-52.373],[-61.264,-52.226],[-61.397,-52.147],[-61.447,-52.11],[-61.485,-52.074],[-61.514,-52.038],[-61.536,-51.998],[-61.549,-51.952],[-61.553,-51.898],[-61.545,-51.834],[-61.523,-51.761],[-61.487,-51.684],[-61.442,-51.609],[-61.391,-51.542],[-61.261,-51.393],[-61.236,-51.356],[-61.224,-51.321],[-61.228,-51.287],[-61.247,-51.252],[-61.282,-51.217],[-61.328,-51.183],[-61.425,-51.118],[-61.46,-51.09],[-61.48,-51.064],[-61.482,-51.041],[-61.465,-51.018],[-61.424,-50.996],[-61.356,-50.975],[-61.257,-50.956],[-61.127,-50.94],[-60.973,-50.93],[-60.811,-50.928],[-60.66,-50.933],[-60.534,-50.943],[-60.438,-50.957],[-60.369,-50.972],[-60.285,-51.002],[-60.197,-51.044],[-60.154,-51.06],[-60.093,-51.076],[-60.008,-51.093],[-59.893,-51.111],[-59.752,-51.127],[-59.596,-51.14],[-59.283,-51.155],[-58.732,-51.163],[-58.431,-51.173],[-58.267,-51.184],[-58.102,-51.201],[-57.952,-51.221],[-57.83,-51.245],[-57.739,-51.268],[-57.676,-51.291],[-57.633,-51.313],[-57.603,-51.334],[-57.582,-51.356],[-57.549,-51.404],[-57.537,-51.433],[-57.527,-51.468],[-57.523,-51.51],[-57.527,-51.56],[-57.544,-51.618],[-57.577,-51.684],[-57.63,-51.752],[-57.704,-51.819],[-57.794,-51.882],[-57.897,-51.938],[-58.003,-51.987],[-58.37,-52.14],[-58.747,-52.326],[-58.815,-52.356],[-58.895,-52.385],[-58.99,-52.412],[-59.107,-52.437],[-59.242,-52.455],[-59.388,-52.464],[-59.528,-52.463],[-59.649,-52.453],[-59.746,-52.437],[-59.822,-52.417],[-59.942,-52.378],[-60.002,-52.361],[-60.072,-52.349]]],[[[-63.386,-42.562],[-63.399,-42.611],[-63.425,-42.662],[-63.464,-42.71],[-63.513,-42.753],[-63.573,-42.787],[-63.639,-42.812],[-63.709,-42.825],[-63.777,-42.828],[-63.837,-42.823],[-63.886,-42.809],[-63.92,-42.791],[-63.938,-42.769],[-63.941,-42.744],[-63.93,-42.718],[-63.908,-42.692],[-63.876,-42.665],[-63.793,-42.61],[-63.648,-42.527],[-63.557,-42.481],[-63.515,-42.465],[-63.477,-42.457],[-63.444,-42.457],[-63.416,-42.467],[-63.396,-42.488],[-63.386,-42.52],[-63.386,-42.562]]],[[[-68.729,-56.34],[-68.703,-56.343],[-68.689,-56.362],[-68.688,-56.397],[-68.703,-56.446],[-68.732,-56.505],[-68.773,-56.566],[-68.821,-56.622],[-68.869,-56.667],[-68.913,-56.697],[-68.95,-56.711],[-68.976,-56.708],[-68.99,-56.689],[-68.99,-56.654],[-68.975,-56.604],[-68.945,-56.546],[-68.904,-56.484],[-68.857,-56.428],[-68.809,-56.383],[-68.765,-56.354],[-68.729,-56.34]]],[[[-70.753,-17.881],[-70.759,-17.902],[-70.778,-17.923],[-70.81,-17.941],[-70.857,-17.956],[-70.916,-17.967],[-70.983,-17.97],[-71.05,-17.967],[-71.112,-17.956],[-71.164,-17.941],[-71.207,-17.923],[-71.271,-17.881],[-71.349,-17.817],[-71.394,-17.775],[-71.412,-17.754],[-71.424,-17.732],[-71.427,-17.711],[-71.421,-17.69],[-71.402,-17.669],[-71.37,-17.65],[-71.323,-17.635],[-71.264,-17.625],[-71.198,-17.621],[-71.13,-17.625],[-71.069,-17.635],[-71.016,-17.65],[-70.974,-17.669],[-70.909,-17.711],[-70.832,-17.775],[-70.786,-17.817],[-70.768,-17.838],[-70.757,-17.859],[-70.753,-17.881]]]]}}]}