{"type":"FeatureCollection","features":[{"type":"Feature","geometry":{"type":"Point","coordinates":[-71.88891,-36.32687]},"properties":{"nombre":"Andino Suiza","tecnologia":"Eólico","estado":"En Calificación","potencia_mw":115.2,"medio":"-","titular":"Cóndor Los Lagos SpA","region":"Ñuble","comuna":"Ñiquén","categoria":"En SEIA"}},{"type":"Feature","geometry":{"type":"Point","coordinates":[-73.58766,-41.41594]},"properties":{"nombre":"Alto Los Muermos","tecnologia":"Eólico","estado":"En Calificación","potencia_mw":430.0,"medio":"-","titular":"Alto Los Muermos","region":"Los Lagos","comuna":"Los Muermos","categoria":"En SEIA"}},{"type":"Feature","geometry":{"type":"Point","coordinates":[-71.6866,-30.58768]},"properties":{"nombre":"Carica","tecnologia":"Eólico","estado":"En Calificación","potencia_mw":92.4,"medio":"-","titular":"Sonnedix Parque Eolico Carica SpA","region":"Coquimbo","comuna":"Ovalle","categoria":"En SEIA"}},{"type":"Feature","geometry":{"type":"Point","coordinates":[-71.68333,-30.75932]},"properties":{"nombre":"Cerro Los Loros","tecnologia":"Eólico","estado":"En Calificación","potencia_mw":79.2,"medio":"-","titular":"Enel Green Power Chile S.A.","region":"Coquimbo","comuna":"Ovalle","categoria":"En SEIA"}},{"type":"Feature","geometry":{"type":"Point","coordinates":[-73.26553,-41.18428]},"properties":{"nombre":"Cuatro Vientos","tecnologia":"Eólico","estado":"En Calificación","potencia_mw":360.0,"medio":"-","titular":"Colbún S.A.","region":"Los Lagos","comuna":"Llanquihue","categoria":"En SEIA"}},{"type":"Feature","geometry":{"type":"Point","coordinates":[-72.19948,-36.05538]},"properties":{"nombre":"El Parrón","tecnologia":"Eólico","estado":"En Calificación","potencia_mw":184.0,"medio":"-","titular":"Inversiones Bosquemar SpA","region":"Maule","comuna":"Cauquenes","categoria":"En SEIA"}},{"type":"Feature","geometry":{"type":"Point","coordinates":[-72.73002,-40.2168]},"properties":{"nombre":"El Rancho","tecnologia":"Eólico","estado":"En Calificación","potencia_mw":216.0,"medio":"-","titular":"Parque Eólico Pidenco SpA","region":"Los Ríos","comuna":"La Unión","categoria":"En SEIA"}},{"type":"Feature","geometry":{"type":"Point","coordinates":[-72.37978,-36.18336]},"properties":{"nombre":"El Sauzal","tecnologia":"Eólico","estado":"En Calificación","potencia_mw":360.0,"medio":"-","titular":"Inversiones Bosquemar SpA","region":"Ñuble","comuna":"Quirihue","categoria":"En SEIA"}},{"type":"Feature","geometry":{"type":"Point","coordinates":[-70.10252,-52.38697]},"properties":{"nombre":"HNH ENERGY","tecnologia":"Eólico","estado":"En Calificación","potencia_mw":1396.8,"medio":"-","titular":"ASOE Chile Diez SpA","region":"Magallanes","comuna":"San Gregorio","categoria":"En SEIA"}},{"type":"Feature","geometry":{"type":"Point","coordinates":[-72.13128,-37.23945]},"properties":{"nombre":"Las Lilas","tecnologia":"Eólico","estado":"En Calificación","potencia_mw":240.0,"medio":"-","titular":"Parque Eólico Las Lilas SpA","region":"Biobío","comuna":"Los Ángeles","categoria":"En SEIA"}},{"type":"Feature","geometry":{"type":"Point","coordinates":[-69.95207,-25.02116]},"properties":{"nombre":"Llanura Solar","tecnologia":"Eólico","estado":"En Calificación","potencia_mw":152.0,"medio":"-","titular":"CI GMF II Llanura Solar ProjectCo SpA","region":"Antofagasta","comuna":"Taltal","categoria":"En SEIA"}},{"type":"Feature","geometry":{"type":"Point","coordinates":[-73.17957,-41.16135]},"properties":{"nombre":"Loma Verde","tecnologia":"Eólico","estado":"En Calificación","potencia_mw":136.4,"medio":"-","titular":"Engie Energía Chile S.A.","region":"Los Lagos","comuna":"Frutillar","categoria":"En SEIA"}},{"type":"Feature","geometry":{"type":"Point","coordinates":[-73.78952,-41.46594]},"properties":{"nombre":"Mirador del Sur","tecnologia":"Eólico","estado":"En Calificación","potencia_mw":320.0,"medio":"-","titular":"WPD Trumao SpA","region":"Los Lagos","comuna":"Los Muermos","categoria":"En SEIA"}},{"type":"Feature","geometry":{"type":"Point","coordinates":[-69.96213,-24.96229]},"properties":{"nombre":"Thayari","tecnologia":"Eólico","estado":"En Calificación","potencia_mw":264.0,"medio":"-","titular":"Parque Eolico Thayari SpA","region":"Antofagasta","comuna":"Taltal","categoria":"En SEIA"}},{"type":"Feature","geometry":{"type":"Point","coordinates":[-73.10643,-41.16395]},"properties":{"nombre":"Trumao","tecnologia":"Eólico","estado":"En Calificación","potencia_mw":320.0,"medio":"-","titular":"Mirador del Sur SpA","region":"Los Lagos","comuna":"Frutillar","categoria":"En SEIA"}},{"type":"Feature","geometry":{"type":"Point","coordinates":[-72.06,-37.43016]},"properties":{"nombre":"Tulipanes","tecnologia":"Eólico","estado":"En Calificación","potencia_mw":410.4,"medio":"-","titular":"Parque Eolico Tulipanes SpA","region":"Biobío","comuna":"Quilleco","categoria":"En SEIA"}},{"type":"Feature","geometry":{"type":"Point","coordinates":[-69.95947,-24.98352]},"properties":{"nombre":"Vientos de Taltal","tecnologia":"Eólico","estado":"En Calificación","potencia_mw":256.0,"medio":"-","titular":"Vientos de Taltal SpA","region":"Antofagasta","comuna":"Taltal","categoria":"En SEIA"}},{"type":"Feature","geometry":{"type":"Point","coordinates":[-73.29386,-41.11596]},"properties":{"nombre":"Vientos del Lago","tecnologia":"Eólico","estado":"En Calificación","potencia_mw":132.0,"medio":"-","titular":"OPDE Chile SpA","region":"Los Lagos","comuna":"Frutillar","categoria":"En SEIA"}},{"type":"Feature","geometry":{"type":"Point","coordinates":[-72.69797,-37.6974]},"properties":{"nombre":"Almendro","tecnologia":"Eólico","estado":"Aprobado","potencia_mw":144.0,"medio":"-","titular":"Bioenergias Forestales SpA","region":"Araucanía","comuna":"Angol","categoria":"Otros"}},{"type":"Feature","geometry":{"type":"Point","coordinates":[-73.6747,-41.95658]},"properties":{"nombre":"Ancud (Modificación)","tecnologia":"Eólico","estado":"Aprobado","potencia_mw":120.0,"medio":"-","titular":"Viento Austral SpA","region":"Los Lagos","comuna":"Ancud","categoria":"Otros"}},{"type":"Feature","geometry":{"type":"Point","coordinates":[-68.76513,-22.46]},"properties":{"nombre":"Andes Wind Parks","tecnologia":"Eólico","estado":"Aprobado","potencia_mw":65.0,"medio":"-","titular":"Andes Wind Parks S.A.","region":"Antofagasta","comuna":"Calama","categoria":"Otros"}},{"type":"Feature","geometry":{"type":"Point","coordinates":[-69.76805,-24.89625]},"properties":{"nombre":"Antofagasta - Etapa II (Modificación)","tecnologia":"Eólico","estado":"Aprobado","potencia_mw":462.0,"medio":"-","titular":"Parque Eólico Antofagasta SpA","region":"Antofagasta","comuna":"Taltal","categoria":"Otros"}},{"type":"Feature","geometry":{"type":"Point","coordinates":[-73.47088,-37.21619]},"properties":{"nombre":"Arauco","tecnologia":"Eólico","estado":"Aprobado","potencia_mw":125.0,"medio":"-","titular":"Element Power Chile S.A.","region":"Biobío","comuna":"Arauco","categoria":"Otros"}},{"type":"Feature","geometry":{"type":"Point","coordinates":[-72.56229,-37.27307]},"properties":{"nombre":"Buenaventura","tecnologia":"Eólico","estado":"Aprobado","potencia_mw":28.0,"medio":"-","titular":"Eólica La Esperanza S.A.","region":"Biobío","comuna":"Laja","categoria":"Otros"}},{"type":"Feature","geometry":{"type":"Point","coordinates":[-72.32864,-37.04466]},"properties":{"nombre":"Cabrero","tecnologia":"Eólico","estado":"Aprobado","potencia_mw":95.2,"medio":"-","titular":"Wind 3 SpA","region":"Biobío","comuna":"Cabrero","categoria":"Otros"}},{"type":"Feature","geometry":{"type":"Point","coordinates":[-73.22659,-41.68454]},"properties":{"nombre":"Calbuco","tecnologia":"Eólico","estado":"Aprobado","potencia_mw":49.6,"medio":"-","titular":"Energías Calbuco S.A.","region":"Los Lagos","comuna":"Calbuco","categoria":"Otros"}},{"type":"Feature","geometry":{"type":"Point","coordinates":[-73.21026,-36.77642]},"properties":{"nombre":"Chome","tecnologia":"Eólico","estado":"Aprobado","potencia_mw":12.0,"medio":"-","titular":"Ingeniería Seawind Sudamérica Ltda.","region":"Biobío","comuna":"Hualpén","categoria":"Otros"}},{"type":"Feature","geometry":{"type":"Point","coordinates":[-72.63744,-37.63234]},"properties":{"nombre":"Coihue","tecnologia":"Eólico","estado":"Aprobado","potencia_mw":18.4,"medio":"-","titular":"Parque Eólico Coihue SPA","region":"Biobío","comuna":"Negrete","categoria":"Otros"}},{"type":"Feature","geometry":{"type":"Point","coordinates":[-72.2846,-38.04561]},"properties":{"nombre":"Collipulli","tecnologia":"Eólico","estado":"Aprobado","potencia_mw":48.0,"medio":"-","titular":"Ener-Renova S.A.","region":"Araucanía","comuna":"Collipulli","categoria":"Otros"}},{"type":"Feature","geometry":{"type":"Point","coordinates":[-72.29214,-36.30704]},"properties":{"nombre":"Culenco","tecnologia":"Eólico","estado":"Aprobado","potencia_mw":256.0,"medio":"-","titular":"PLAN 8 Energía Infinita Ltda","region":"Ñuble","comuna":"San Carlos","categoria":"Otros"}},{"type":"Feature","geometry":{"type":"Point","coordinates":[-72.16118,-37.03723]},"properties":{"nombre":"Dañicalqui","tecnologia":"Eólico","estado":"Aprobado","potencia_mw":95.2,"medio":"-","titular":"Eolica Dañicalqui SpA","region":"Ñuble","comuna":"Yungay","categoria":"Otros"}},{"type":"Feature","geometry":{"type":"Point","coordinates":[-72.52934,-37.47644]},"properties":{"nombre":"Don Álvaro","tecnologia":"Eólico","estado":"Aprobado","potencia_mw":114.0,"medio":"-","titular":"Energía Eólica Don Álvaro SpA","region":"Biobío","comuna":"Los Ángeles","categoria":"Otros"}},{"type":"Feature","geometry":{"type":"Point","coordinates":[-72.49895,-37.70717]},"properties":{"nombre":"El Alba","tecnologia":"Eólico","estado":"Aprobado","potencia_mw":43.2,"medio":"-","titular":"Acciona Energía Chile SpA","region":"Araucanía","comuna":"Renaico","categoria":"Otros"}},{"type":"Feature","geometry":{"type":"Point","coordinates":[-72.33468,-35.45511]},"properties":{"nombre":"El Guanaco","tecnologia":"Eólico","estado":"Aprobado","potencia_mw":316.8,"medio":"-","titular":"Atlas Energía SpA","region":"Maule","comuna":"Constitución","categoria":"Otros"}},{"type":"Feature","geometry":{"type":"Point","coordinates":[-72.36585,-37.29286]},"properties":{"nombre":"El Rosal","tecnologia":"Eólico","estado":"Aprobado","potencia_mw":184.4,"medio":"-","titular":"Engie Energía Chile S.A.","region":"Biobío","comuna":"Los Ángeles","categoria":"Otros"}},{"type":"Feature","geometry":{"type":"Point","coordinates":[-72.40712,-36.5479]},"properties":{"nombre":"Entre Cerros","tecnologia":"Eólico","estado":"Aprobado","potencia_mw":46.2,"medio":"-","titular":"Inversiones Bosquemar Ltda.","region":"Ñuble","comuna":"Portezuelo","categoria":"Otros"}},{"type":"Feature","geometry":{"type":"Point","coordinates":[-72.42906,-37.60937]},"properties":{"nombre":"Entre Ríos","tecnologia":"Eólico","estado":"Aprobado","potencia_mw":310.5,"medio":"-","titular":"AR Coihue SpA","region":"Biobío","comuna":"Mulchén","categoria":"Otros"}},{"type":"Feature","geometry":{"type":"Point","coordinates":[-69.90529,-24.82702]},"properties":{"nombre":"ERNC Antofagasta","tecnologia":"Eólico","estado":"Aprobado","potencia_mw":496.0,"medio":"-","titular":"Ibereólica ERNC Antofagasta SpA","region":"Antofagasta","comuna":"Taltal","categoria":"Otros"}},{"type":"Feature","geometry":{"type":"Point","coordinates":[-69.73422,-21.44]},"properties":{"nombre":"ERNC Tarapacá","tecnologia":"Eólico","estado":"Aprobado","potencia_mw":91.0,"medio":"-","titular":"ERNC Loa SpA","region":"Tarapacá","comuna":"Pozo Almonte","categoria":"Otros"}},{"type":"Feature","geometry":{"type":"Point","coordinates":[-70.88881,-52.85256]},"properties":{"nombre":"Faro del Sur","tecnologia":"Eólico","estado":"Aprobado","potencia_mw":384.0,"medio":"-","titular":"Eólica Faro del Sur SpA","region":"Magallanes","comuna":"Punta Arenas","categoria":"Otros"}},{"type":"Feature","geometry":{"type":"Point","coordinates":[-72.62241,-37.64947]},"properties":{"nombre":"Fénix","tecnologia":"Eólico","estado":"Aprobado","potencia_mw":144.0,"medio":"-","titular":"Parque Eólico Maqui SpA","region":"Biobío","comuna":"Negrete","categoria":"Otros"}},{"type":"Feature","geometry":{"type":"Point","coordinates":[-72.6332,-37.56081]},"properties":{"nombre":"Fundo Las Marías","tecnologia":"Eólico","estado":"Aprobado","potencia_mw":11.12,"medio":"-","titular":"Windkraft Uno Chile SpA","region":"Biobío","comuna":"Negrete","categoria":"Otros"}},{"type":"Feature","geometry":{"type":"Point","coordinates":[-68.82259,-22.43323]},"properties":{"nombre":"Granja Eólica Calama","tecnologia":"Eólico","estado":"Aprobado","potencia_mw":250.0,"medio":"-","titular":"Codelco Chile, División Chuquicamata","region":"Antofagasta","comuna":"Calama","categoria":"Otros"}},{"type":"Feature","geometry":{"type":"Point","coordinates":[-71.61431,-31.20996]},"properties":{"nombre":"Hacienda Quijote","tecnologia":"Eólico","estado":"Aprobado","potencia_mw":26.0,"medio":"-","titular":"Proyecto Eólico Hacienda Quijote SpA","region":"Coquimbo","comuna":"Canela","categoria":"Otros"}},{"type":"Feature","geometry":{"type":"Point","coordinates":[-71.62829,-31.19222]},"properties":{"nombre":"Híbrido Amolanas","tecnologia":"Eólico","estado":"Aprobado","potencia_mw":117.0,"medio":"-","titular":"Pacific Hydro Chile S.A.","region":"Coquimbo","comuna":"Ovalle","categoria":"Otros"}},{"type":"Feature","geometry":{"type":"Point","coordinates":[-69.77277,-24.98827]},"properties":{"nombre":"Horizonte (Modificación)","tecnologia":"Eólico","estado":"Aprobado","potencia_mw":180.0,"medio":"-","titular":"Colbún S.A.","region":"Antofagasta","comuna":"Taltal","categoria":"Otros"}},{"type":"Feature","geometry":{"type":"Point","coordinates":[-72.35132,-37.65607]},"properties":{"nombre":"Junquillos","tecnologia":"Eólico","estado":"Aprobado","potencia_mw":472.5,"medio":"-","titular":"Colbún S.A.","region":"Biobío","comuna":"Mulchén","categoria":"Otros"}},{"type":"Feature","geometry":{"type":"Point","coordinates":[-71.63371,-45.46528]},"properties":{"nombre":"Kosten Aike","tecnologia":"Eólico","estado":"Aprobado","potencia_mw":36.0,"medio":"-","titular":"Eólica Kosten Aike SpA","region":"Aysén","comuna":"Coyhaique","categoria":"Otros"}},{"type":"Feature","geometry":{"type":"Point","coordinates":[-71.4999,-31.9323]},"properties":{"nombre":"La Cachina","tecnologia":"Eólico","estado":"Aprobado","potencia_mw":66.0,"medio":"-","titular":"Ener-Renova","region":"Coquimbo","comuna":"Los Vilos","categoria":"Otros"}},{"type":"Feature","geometry":{"type":"Point","coordinates":[-72.55023,-37.5917]},"properties":{"nombre":"La Esperanza II","tecnologia":"Eólico","estado":"Aprobado","potencia_mw":17.5,"medio":"-","titular":"Eólica La Esperanza S.A.","region":"Biobío","comuna":"Negrete","categoria":"Otros"}},{"type":"Feature","geometry":{"type":"Point","coordinates":[-71.62693,-31.09428]},"properties":{"nombre":"La Gorgonia","tecnologia":"Eólico","estado":"Aprobado","potencia_mw":76.0,"medio":"-","titular":"Parque Eólico La Gorgonia S.A.","region":"Coquimbo","comuna":"Punitaqui","categoria":"Otros"}},{"type":"Feature","geometry":{"type":"Point","coordinates":[-72.34959,-37.55674]},"properties":{"nombre":"LA Sur 2","tecnologia":"Eólico","estado":"Aprobado","potencia_mw":11.2,"medio":"-","titular":"Windkraft Cinco Chile SpA","region":"Biobío","comuna":"Los Ángeles","categoria":"Otros"}},{"type":"Feature","geometry":{"type":"Point","coordinates":[-71.51511,-33.31368]},"properties":{"nombre":"Las Dichas","tecnologia":"Eólico","estado":"Aprobado","potencia_mw":16.0,"medio":"-","titular":"Ener-Renova","region":"Valparaíso","comuna":"Casablanca","categoria":"Otros"}},{"type":"Feature","geometry":{"type":"Point","coordinates":[-72.20045,-37.16032]},"properties":{"nombre":"Las Fresias","tecnologia":"Eólico","estado":"Aprobado","potencia_mw":310.0,"medio":"-","titular":"Parque Eólico Las Fresias SpA","region":"Ñuble","comuna":"Yungay","categoria":"Otros"}},{"type":"Feature","geometry":{"type":"Point","coordinates":[-72.53198,-37.74432]},"properties":{"nombre":"Las Viñas","tecnologia":"Eólico","estado":"Aprobado","potencia_mw":58.7,"medio":"-","titular":"Parque Eólico Renaico S.p.A","region":"Araucanía","comuna":"Renaico","categoria":"Otros"}},{"type":"Feature","geometry":{"type":"Point","coordinates":[-72.33748,-37.55344]},"properties":{"nombre":"LASUR 1","tecnologia":"Eólico","estado":"Aprobado","potencia_mw":16.8,"medio":"-","titular":"Windkraft cuatro Chile SpA","region":"Biobío","comuna":"Los Ángeles","categoria":"Otros"}},{"type":"Feature","geometry":{"type":"Point","coordinates":[-73.60233,-37.67831]},"properties":{"nombre":"Lebu 2da Etapa","tecnologia":"Eólico","estado":"Aprobado","potencia_mw":158.0,"medio":"-","titular":"Inversiones BOSQUEMAR Ltda","region":"Biobío","comuna":"Lebu","categoria":"Otros"}},{"type":"Feature","geometry":{"type":"Point","coordinates":[-73.65479,-37.64421]},"properties":{"nombre":"Lebu Sur","tecnologia":"Eólico","estado":"Aprobado","potencia_mw":108.0,"medio":"-","titular":"Inversiones BOSQUEMAR Ltda","region":"Biobío","comuna":"Lebu","categoria":"Otros"}},{"type":"Feature","geometry":{"type":"Point","coordinates":[-71.00307,-32.83044]},"properties":{"nombre":"Llay-Llay","tecnologia":"Eólico","estado":"Aprobado","potencia_mw":33.6,"medio":"-","titular":"Parque Eolico Llay Llay SpA","region":"Valparaíso","comuna":"Llaillay","categoria":"Otros"}},{"type":"Feature","geometry":{"type":"Point","coordinates":[-69.84098,-21.48301]},"properties":{"nombre":"Loa","tecnologia":"Eólico","estado":"Aprobado","potencia_mw":528.0,"medio":"-","titular":"Aprovechamientos Energéticos S.A.","region":"Antofagasta","comuna":"Tocopilla","categoria":"Otros"}},{"type":"Feature","geometry":{"type":"Point","coordinates":[-72.59115,-37.84658]},"properties":{"nombre":"Los Alpes","tecnologia":"Eólico","estado":"Aprobado","potencia_mw":105.6,"medio":"-","titular":"Empresa Eléctrica Alpes SpA","region":"Araucanía","comuna":"Angol","categoria":"Otros"}},{"type":"Feature","geometry":{"type":"Point","coordinates":[-71.96651,-36.94569]},"properties":{"nombre":"Los Coihues","tecnologia":"Eólico","estado":"Aprobado","potencia_mw":338.4,"medio":"-","titular":"Hy2Wind SpA","region":"Ñuble","comuna":"El Carmen","categoria":"Otros"}},{"type":"Feature","geometry":{"type":"Point","coordinates":[-73.30517,-41.26893]},"properties":{"nombre":"Los Lagos del Sur","tecnologia":"Eólico","estado":"Aprobado","potencia_mw":283.8,"medio":"-","titular":"Eólica Los Lagos SpA","region":"Los Lagos","comuna":"Los Muermos","categoria":"Otros"}},{"type":"Feature","geometry":{"type":"Point","coordinates":[-73.2908,-41.67059]},"properties":{"nombre":"Los Portones","tecnologia":"Eólico","estado":"Aprobado","potencia_mw":167.4,"medio":"-","titular":"Engie Energía Chile S.A.","region":"Los Lagos","comuna":"Calbuco","categoria":"Otros"}},{"type":"Feature","geometry":{"type":"Point","coordinates":[-72.26415,-38.1203]},"properties":{"nombre":"Los Trigales","tecnologia":"Eólico","estado":"Aprobado","potencia_mw":154.8,"medio":"-","titular":"Parque Eólico Los Trigales SpA.","region":"Araucanía","comuna":"Ercilla","categoria":"Otros"}},{"type":"Feature","geometry":{"type":"Point","coordinates":[-69.98676,-23.73766]},"properties":{"nombre":"Morros","tecnologia":"Eólico","estado":"Aprobado","potencia_mw":192.0,"medio":"-","titular":"Andes Mainstream SpA","region":"Antofagasta","comuna":"Antofagasta","categoria":"Otros"}},{"type":"Feature","geometry":{"type":"Point","coordinates":[-72.22264,-37.80514]},"properties":{"nombre":"Newen Küruf","tecnologia":"Eólico","estado":"Aprobado","potencia_mw":168.0,"medio":"-","titular":"Soc. Eolica Valle Verde SpA","region":"Biobío","comuna":"Mulchén","categoria":"Otros"}},{"type":"Feature","geometry":{"type":"Point","coordinates":[-73.6832,-42.1558]},"properties":{"nombre":"Oxypora","tecnologia":"Eólico","estado":"Aprobado","potencia_mw":9.0,"medio":"PMGD","titular":"Oxypora SpA","region":"Los Lagos","comuna":"Ancud","categoria":"Otros"}},{"type":"Feature","geometry":{"type":"Point","coordinates":[-73.03998,-40.16297]},"properties":{"nombre":"Ovejera Sur","tecnologia":"Eólico","estado":"Aprobado","potencia_mw":252.0,"medio":"-","titular":"Parque Eólico Ovejera Sur SpA","region":"Los Ríos","comuna":"La Unión","categoria":"Otros"}},{"type":"Feature","geometry":{"type":"Point","coordinates":[-72.07654,-37.28416]},"properties":{"nombre":"Peñasco Ventoso","tecnologia":"Eólico","estado":"Aprobado","potencia_mw":486.0,"medio":"-","titular":"Quilleco SpA","region":"Biobío","comuna":"Quilleco","categoria":"Otros"}},{"type":"Feature","geometry":{"type":"Point","coordinates":[-72.36714,-37.77411]},"properties":{"nombre":"Piedra Amarilla","tecnologia":"Eólico","estado":"Aprobado","potencia_mw":69.3,"medio":"-","titular":"Sociedad Vientos de Renaico SpA","region":"Biobío","comuna":"Mulchén","categoria":"Otros"}},{"type":"Feature","geometry":{"type":"Point","coordinates":[-73.68291,-41.87851]},"properties":{"nombre":"PMGD Coloane","tecnologia":"Eólico","estado":"Aprobado","potencia_mw":21.6,"medio":"PMGD","titular":"Coloane SpA","region":"Los Lagos","comuna":"Ancud","categoria":"Otros"}},{"type":"Feature","geometry":{"type":"Point","coordinates":[-73.48969,-41.76567]},"properties":{"nombre":"PMGD Dalca","tecnologia":"Eólico","estado":"Aprobado","potencia_mw":21.6,"medio":"PMGD","titular":"Dalca SpA","region":"Los Lagos","comuna":"Calbuco","categoria":"Otros"}},{"type":"Feature","geometry":{"type":"Point","coordinates":[-68.84428,-23.47971]},"properties":{"nombre":"Proyecto Minera Gaby","tecnologia":"Eólico","estado":"Aprobado","potencia_mw":40.0,"medio":"-","titular":"Ingeniería Seawind Sudamérica SpA","region":"Antofagasta","comuna":"Sierra Gorda","categoria":"Otros"}},{"type":"Feature","geometry":{"type":"Point","coordinates":[-72.56135,-37.7373]},"properties":{"nombre":"Puelche","tecnologia":"Eólico","estado":"Aprobado","potencia_mw":86.0,"medio":"-","titular":"Parronal SpA","region":"Araucanía","comuna":"Renaico","categoria":"Otros"}},{"type":"Feature","geometry":{"type":"Point","coordinates":[-69.49161,-21.65671]},"properties":{"nombre":"Quillagua","tecnologia":"Eólico","estado":"Aprobado","potencia_mw":100.0,"medio":"-","titular":"Ingeniería Seawind Sudamérica Ltda.","region":"Antofagasta","comuna":"María Elena","categoria":"Otros"}},{"type":"Feature","geometry":{"type":"Point","coordinates":[-72.6303,-37.43754]},"properties":{"nombre":"Rarinco","tecnologia":"Eólico","estado":"Aprobado","potencia_mw":198.0,"medio":"-","titular":"Energia Renovable Verano Tres SpA","region":"Biobío","comuna":"Los Ángeles","categoria":"Otros"}},{"type":"Feature","geometry":{"type":"Point","coordinates":[-72.57115,-37.31183]},"properties":{"nombre":"Rinconada","tecnologia":"Eólico","estado":"Aprobado","potencia_mw":258.0,"medio":"-","titular":"Energía Eólica Rinconada SpA","region":"Biobío","comuna":"Laja","categoria":"Otros"}},{"type":"Feature","geometry":{"type":"Point","coordinates":[-71.96768,-36.31431]},"properties":{"nombre":"San Carlos","tecnologia":"Eólico","estado":"Aprobado","potencia_mw":187.5,"medio":"-","titular":"Wind 5 SpA","region":"Ñuble","comuna":"San Carlos","categoria":"Otros"}},{"type":"Feature","geometry":{"type":"Point","coordinates":[-72.59352,-37.60026]},"properties":{"nombre":"Rihue","tecnologia":"Eólico","estado":"Aprobado","potencia_mw":138.6,"medio":"-","titular":"Rihue SpA","region":"Biobío","comuna":"Negrete","categoria":"Otros"}},{"type":"Feature","geometry":{"type":"Point","coordinates":[-72.44963,-37.51922]},"properties":{"nombre":"San Manuel","tecnologia":"Eólico","estado":"Aprobado","potencia_mw":45.0,"medio":"-","titular":"AM Eólica Chacaico SpA","region":"Biobío","comuna":"Los Ángeles","categoria":"Otros"}},{"type":"Feature","geometry":{"type":"Point","coordinates":[-70.22014,-26.01799]},"properties":{"nombre":"Señora Rosario","tecnologia":"Eólico","estado":"Aprobado","potencia_mw":84.0,"medio":"-","titular":"Acciona Energía Chile S.A.","region":"Atacama","comuna":"Chañaral","categoria":"Otros"}},{"type":"Feature","geometry":{"type":"Point","coordinates":[-71.67375,-30.82307]},"properties":{"nombre":"Talinay II","tecnologia":"Eólico","estado":"Aprobado","potencia_mw":500.0,"medio":"-","titular":"Parque Talinay Sur S.A","region":"Coquimbo","comuna":"Ovalle","categoria":"Otros"}},{"type":"Feature","geometry":{"type":"Point","coordinates":[-70.39092,-24.74678]},"properties":{"nombre":"Terra Energía Renovable","tecnologia":"Eólico","estado":"Aprobado","potencia_mw":350.0,"medio":"-","titular":"Energía Eólica Paposo SpA","region":"Antofagasta","comuna":"Taltal","categoria":"Otros"}},{"type":"Feature","geometry":{"type":"Point","coordinates":[-73.67109,-42.14464]},"properties":{"nombre":"Urospora","tecnologia":"Eólico","estado":"Aprobado","potencia_mw":9.0,"medio":"PMGD","titular":"Parque Eólico Urospora SpA","region":"Los Lagos","comuna":"Ancud","categoria":"Otros"}},{"type":"Feature","geometry":{"type":"Point","coordinates":[-73.55063,-37.28286]},"properties":{"nombre":"Viento Sur","tecnologia":"Eólico","estado":"Aprobado","potencia_mw":215.0,"medio":"-","titular":"Arauco Bioenergía S.A","region":"Biobío","comuna":"Arauco","categoria":"Otros"}},{"type":"Feature","geometry":{"type":"Point","coordinates":[-68.72771,-22.53435]},"properties":{"nombre":"Vientos del Loa","tecnologia":"Eólico","estado":"Aprobado","potencia_mw":204.6,"medio":"-","titular":"ENGIE Energía Chile S.A.","region":"Antofagasta","comuna":"Calama","categoria":"Otros"}},{"type":"Feature","geometry":{"type":"Point","coordinates":[-73.5197,-37.33125]},"properties":{"nombre":"Vientos del Pacífico","tecnologia":"Eólico","estado":"Aprobado","potencia_mw":100.0,"medio":"-","titular":"Parque Eólico Vientos del Pacífico SpA","region":"Biobío","comuna":"Arauco","categoria":"Otros"}},{"type":"Feature","geometry":{"type":"Point","coordinates":[-73.15417,-41.15518]},"properties":{"nombre":"Villa Alegre 1","tecnologia":"Eólico","estado":"Aprobado","potencia_mw":20.4,"medio":"-","titular":"Windkraft _Villa Alegre 1 SPA","region":"Los Lagos","comuna":"Frutillar","categoria":"Otros"}},{"type":"Feature","geometry":{"type":"Point","coordinates":[-73.15681,-41.16403]},"properties":{"nombre":"Villa Alegre 2","tecnologia":"Eólico","estado":"Aprobado","potencia_mw":16.8,"medio":"-","titular":"Windkraft Villa Alegre 2 SPA","region":"Los Lagos","comuna":"Frutillar","categoria":"Otros"}},{"type":"Feature","geometry":{"type":"Point","coordinates":[-70.06591,-24.96285]},"properties":{"nombre":"Wayra","tecnologia":"Eólico","estado":"Aprobado","potencia_mw":384.0,"medio":"-","titular":"EDF en Chile Holding SpA","region":"Antofagasta","comuna":"Taltal","categoria":"Otros"}},{"type":"Feature","geometry":{"type":"Point","coordinates":[-72.09761,-45.50011]},"properties":{"nombre":"Alto Baguales (Ampliación)","tecnologia":"Eólico","estado":"En Construcción","potencia_mw":30.4,"medio":"-","titular":"Empresa Eléctrica de Aysén S.A.","region":"Aysén","comuna":"Coyhaique","categoria":"Otros"}},{"type":"Feature","geometry":{"type":"Point","coordinates":[-72.96831,-39.9716]},"properties":{"nombre":"Caman - Etapa 1","tecnologia":"Eólico","estado":"En Construcción","potencia_mw":145.7,"medio":"-","titular":"AR Caman SpA","region":"Los Ríos","comuna":"Paillaco","categoria":"Otros"}},{"type":"Feature","geometry":{"type":"Point","coordinates":[-72.62298,-37.84923]},"properties":{"nombre":"Cancura","tecnologia":"Eólico","estado":"En Construcción","potencia_mw":33.6,"medio":"-","titular":"PE Cancura SpA","region":"Araucanía","comuna":"Angol","categoria":"Otros"}},{"type":"Feature","geometry":{"type":"Point","coordinates":[-73.73142,-42.14986]},"properties":{"nombre":"CH1 Butalcura","tecnologia":"Eólico","estado":"En Construcción","potencia_mw":9.0,"medio":"PMGD","titular":"WIND 1 SPA","region":"Los Lagos","comuna":"Ancud","categoria":"Otros"}},{"type":"Feature","geometry":{"type":"Point","coordinates":[-73.73325,-42.13178]},"properties":{"nombre":"CH2 Butalcura","tecnologia":"Eólico","estado":"En Construcción","potencia_mw":9.0,"medio":"PMGD","titular":"WIND 2 SPA","region":"Los Lagos","comuna":"Ancud","categoria":"Otros"}},{"type":"Feature","geometry":{"type":"Point","coordinates":[-73.22214,-41.63934]},"properties":{"nombre":"Chara","tecnologia":"Eólico","estado":"En Construcción","potencia_mw":9.0,"medio":"PMGD","titular":"Parque Eólico Chara SpA","region":"Los Lagos","comuna":"Calbuco","categoria":"Otros"}},{"type":"Feature","geometry":{"type":"Point","coordinates":[-73.14035,-39.81322]},"properties":{"nombre":"El Alemán","tecnologia":"Eólico","estado":"En Construcción","potencia_mw":9.0,"medio":"-","titular":"Parque Eólico El Alemán SpA","region":"Los Ríos","comuna":"Valdivia","categoria":"Otros"}},{"type":"Feature","geometry":{"type":"Point","coordinates":[-72.77178,-40.95222]},"properties":{"nombre":"El Cruce","tecnologia":"Eólico","estado":"En Construcción","potencia_mw":2.9,"medio":"PMGD","titular":"El Cruce SpA","region":"Los Lagos","comuna":"Puerto Octay","categoria":"Otros"}},{"type":"Feature","geometry":{"type":"Point","coordinates":[-72.85395,-40.93424]},"properties":{"nombre":"Gaw","tecnologia":"Eólico","estado":"En Construcción","potencia_mw":3.0,"medio":"PMGD","titular":"PE GAW SpA","region":"Los Lagos","comuna":"Puerto Octay","categoria":"Otros"}},{"type":"Feature","geometry":{"type":"Point","coordinates":[-73.57301,-37.50855]},"properties":{"nombre":"Lebu Norte","tecnologia":"Eólico","estado":"En Construcción","potencia_mw":9.0,"medio":"PMGD","titular":"Parque Eólico Lebu Norte SpA","region":"Biobío","comuna":"Lebu","categoria":"Otros"}},{"type":"Feature","geometry":{"type":"Point","coordinates":[-72.8963,-40.95793]},"properties":{"nombre":"Ochs","tecnologia":"Eólico","estado":"En Construcción","potencia_mw":2.9,"medio":"PMGD","titular":"OCHS SpA","region":"Los Lagos","comuna":"Puerto Octay","categoria":"Otros"}},{"type":"Feature","geometry":{"type":"Point","coordinates":[-69.95959,-24.94808]},"properties":{"nombre":"Pampas","tecnologia":"Eólico","estado":"En Construcción","potencia_mw":128.0,"medio":"-","titular":"Energía Eólica Pampas SpA","region":"Antofagasta","comuna":"Taltal","categoria":"Otros"}},{"type":"Feature","geometry":{"type":"Point","coordinates":[-73.13216,-40.92267]},"properties":{"nombre":"Purranque 1","tecnologia":"Eólico","estado":"En Construcción","potencia_mw":9.0,"medio":"-","titular":"Windkraft Purranque 1 SPA","region":"Los Lagos","comuna":"Purranque","categoria":"Otros"}},{"type":"Feature","geometry":{"type":"Point","coordinates":[-73.13539,-40.93049]},"properties":{"nombre":"Purranque 2","tecnologia":"Eólico","estado":"En Construcción","potencia_mw":9.0,"medio":"-","titular":"Windkraft Purranque 2 SPA","region":"Los Lagos","comuna":"Purranque","categoria":"Otros"}},{"type":"Feature","geometry":{"type":"Point","coordinates":[-69.64419,-24.93906]},"properties":{"nombre":"Pampa Fidelia Etapa 1","tecnologia":"Eólico","estado":"En Pruebas","potencia_mw":126.0,"medio":"-","titular":"Engie Energía Chile S.A.","region":"Antofagasta","comuna":"Taltal","categoria":"OPC"}},{"type":"Feature","geometry":{"type":"Point","coordinates":[-69.64419,-24.93906]},"properties":{"nombre":"Pampa Fidelia Etapa 2","tecnologia":"Eólico","estado":"En Pruebas","potencia_mw":180.0,"medio":"-","titular":"Engie Energía Chile S.A.","region":"Antofagasta","comuna":"Taltal","categoria":"OPC"}},{"type":"Feature","geometry":{"type":"Point","coordinates":[-72.14985,-36.96224]},"properties":{"nombre":"Pemuco","tecnologia":"Eólico","estado":"En Pruebas","potencia_mw":165.0,"medio":"-","titular":"Engie Energía Chile S.A.","region":"Ñuble","comuna":"Pemuco","categoria":"OPC"}},{"type":"Feature","geometry":{"type":"Point","coordinates":[-72.57705,-37.41865]},"properties":{"nombre":"San Matías - Etapa 2","tecnologia":"Eólico","estado":"En Pruebas","potencia_mw":4.3,"medio":"-","titular":"Energía Eólica San Matías SpA","region":"Biobío","comuna":"Los Ángeles","categoria":"OPC"}},{"type":"Feature","geometry":{"type":"Point","coordinates":[-72.55878,-37.52422]},"properties":{"nombre":"Alena","tecnologia":"Eólico","estado":"En Operación","potencia_mw":83.92,"medio":"-","titular":"AR Alena SpA","region":"Biobío","comuna":"Los Ángeles","categoria":"OPC"}},{"type":"Feature","geometry":{"type":"Point","coordinates":[-72.10304,-45.52567]},"properties":{"nombre":"Alto Baguales 2","tecnologia":"Eólico","estado":"En Operación","potencia_mw":1.8,"medio":"-","titular":"Empresa Eléctrica de Aysén S.A.","region":"Aysén","comuna":"Coyhaique","categoria":"OPC"}},{"type":"Feature","geometry":{"type":"Point","coordinates":[-69.76805,-24.89625]},"properties":{"nombre":"Antofagasta","tecnologia":"Eólico","estado":"En Operación","potencia_mw":350.794,"medio":"-","titular":"Parque Eólico Antofagasta SpA","region":"Antofagasta","comuna":"Taltal","categoria":"OPC"}},{"type":"Feature","geometry":{"type":"Point","coordinates":[-71.4921,-28.96297]},"properties":{"nombre":"Atacama","tecnologia":"Eólico","estado":"En Operación","potencia_mw":160.294,"medio":"-","titular":"Parque Eólico Atacama SpA","region":"Atacama","comuna":"Freirina","categoria":"OPC"}},{"type":"Feature","geometry":{"type":"Point","coordinates":[-73.15815,-41.23565]},"properties":{"nombre":"Aurora","tecnologia":"Eólico","estado":"En Operación","potencia_mw":126.6,"medio":"-","titular":"AELA Eólica Lllanquihue SpA","region":"Los Lagos","comuna":"Llanquihue","categoria":"OPC"}},{"type":"Feature","geometry":{"type":"Point","coordinates":[-71.46677,-28.91153]},"properties":{"nombre":"Cabo Leones","tecnologia":"Eólico","estado":"En Operación","potencia_mw":175.199,"medio":"-","titular":"Parque Eólico Cabo Leones I S.A.","region":"Atacama","comuna":"Freirina","categoria":"OPC"}},{"type":"Feature","geometry":{"type":"Point","coordinates":[-71.4435,-28.96879]},"properties":{"nombre":"Cabo Leones II","tecnologia":"Eólico","estado":"En Operación","potencia_mw":205.25,"medio":"-","titular":"Ibereólica Cabo Leones II S.A.","region":"Atacama","comuna":"Freirina","categoria":"OPC"}},{"type":"Feature","geometry":{"type":"Point","coordinates":[-71.49175,-28.92731]},"properties":{"nombre":"Cabo Leones III","tecnologia":"Eólico","estado":"En Operación","potencia_mw":188.274,"medio":"-","titular":"Ibereólica Cabo Leones III S.A.","region":"Atacama","comuna":"Freirina","categoria":"OPC"}},{"type":"Feature","geometry":{"type":"Point","coordinates":[-70.82913,-52.94942]},"properties":{"nombre":"Cabo Negro","tecnologia":"Eólico","estado":"En Operación","potencia_mw":2.5,"medio":"-","titular":"Pecket Energy S.A.","region":"Magallanes","comuna":"Punta Arenas","categoria":"OPC"}},{"type":"Feature","geometry":{"type":"Point","coordinates":[-72.49436,-37.41278]},"properties":{"nombre":"Campo Lindo Etapa 1","tecnologia":"Eólico","estado":"En Operación","potencia_mw":62.945,"medio":"-","titular":"Parque Eolico Campo Lindo SpA","region":"Biobío","comuna":"Los Ángeles","categoria":"OPC"}},{"type":"Feature","geometry":{"type":"Point","coordinates":[-71.61069,-31.28669]},"properties":{"nombre":"Canela","tecnologia":"Eólico","estado":"En Operación","potencia_mw":17.968,"medio":"-","titular":"Enel Generación Chile S.A.","region":"Coquimbo","comuna":"Canela","categoria":"OPC"}},{"type":"Feature","geometry":{"type":"Point","coordinates":[-71.61782,-31.30638]},"properties":{"nombre":"Canela II","tecnologia":"Eólico","estado":"En Operación","potencia_mw":59.4,"medio":"-","titular":"Enel Generación Chile S.A.","region":"Coquimbo","comuna":"Canela","categoria":"OPC"}},{"type":"Feature","geometry":{"type":"Point","coordinates":[-71.66781,-34.07718]},"properties":{"nombre":"Cardonal","tecnologia":"Eólico","estado":"En Operación","potencia_mw":30.895,"medio":"-","titular":"Statkraft Eólico S.A.","region":"O'Higgins","comuna":"Litueche","categoria":"OPC"}},{"type":"Feature","geometry":{"type":"Point","coordinates":[-69.92844,-23.76023]},"properties":{"nombre":"Cerro Tigre","tecnologia":"Eólico","estado":"En Operación","potencia_mw":182.05,"medio":"-","titular":"AR Cerro Tigre SpA","region":"Antofagasta","comuna":"Antofagasta","categoria":"OPC"}},{"type":"Feature","geometry":{"type":"Point","coordinates":[-68.58115,-22.10902]},"properties":{"nombre":"Ckhúri","tecnologia":"Eólico","estado":"En Operación","potencia_mw":94.334,"medio":"-","titular":"Huemúl Energía SpA","region":"Antofagasta","comuna":"Calama","categoria":"OPC"}},{"type":"Feature","geometry":{"type":"Point","coordinates":[-72.47897,-37.51407]},"properties":{"nombre":"Cuel","tecnologia":"Eólico","estado":"En Operación","potencia_mw":32.495,"medio":"-","titular":"AELA Eólica Negrete SpA","region":"Biobío","comuna":"Los Ángeles","categoria":"OPC"}},{"type":"Feature","geometry":{"type":"Point","coordinates":[-72.5514,-37.26997]},"properties":{"nombre":"El Maiten","tecnologia":"Eólico","estado":"En Operación","potencia_mw":10.89,"medio":"-","titular":"Parque Eólico El Maitén SpA","region":"Biobío","comuna":"Laja","categoria":"OPC"}},{"type":"Feature","geometry":{"type":"Point","coordinates":[-72.4199,-37.58935]},"properties":{"nombre":"El Nogal","tecnologia":"Eólico","estado":"En Operación","potencia_mw":8.9,"medio":"PMGD","titular":"Parque Eólico El Nogal SpA","region":"Biobío","comuna":"Mulchén","categoria":"OPC"}},{"type":"Feature","geometry":{"type":"Point","coordinates":[-71.96777,-45.02482]},"properties":{"nombre":"El Toqui","tecnologia":"Eólico","estado":"En Operación","potencia_mw":1.4,"medio":"-","titular":"Empresa Eléctrica de Aysén S.A.","region":"Aysén","comuna":"Coyhaique","categoria":"OPC"}},{"type":"Feature","geometry":{"type":"Point","coordinates":[-71.70101,-30.58317]},"properties":{"nombre":"Eólica El Arrayán","tecnologia":"Eólico","estado":"En Operación","potencia_mw":114.989,"medio":"-","titular":"Parque Eólico El Arrayán SpA","region":"Coquimbo","comuna":"Ovalle","categoria":"OPC"}},{"type":"Feature","geometry":{"type":"Point","coordinates":[-73.42633,-37.25716]},"properties":{"nombre":"Eólica Las Peñas","tecnologia":"Eólico","estado":"En Operación","potencia_mw":8.35,"medio":"PMGD","titular":"Eólico Las Peñas SpA","region":"Biobío","comuna":"Arauco","categoria":"OPC"}},{"type":"Feature","geometry":{"type":"Point","coordinates":[-73.64417,-37.6822]},"properties":{"nombre":"Eolica Lebu III","tecnologia":"Eólico","estado":"En Operación","potencia_mw":5.15,"medio":"PMGD","titular":"Parque Eólico Lebu-Toro SpA","region":"Biobío","comuna":"Lebu","categoria":"OPC"}},{"type":"Feature","geometry":{"type":"Point","coordinates":[-72.50834,-37.53942]},"properties":{"nombre":"Eólica Los Buenos Aires","tecnologia":"Eólico","estado":"En Operación","potencia_mw":23.85,"medio":"-","titular":"Enel Green Power Chile S.A.","region":"Biobío","comuna":"Los Ángeles","categoria":"OPC"}},{"type":"Feature","geometry":{"type":"Point","coordinates":[-71.63223,-31.02937]},"properties":{"nombre":"Eólica Los Cururos","tecnologia":"Eólico","estado":"En Operación","potencia_mw":107.7,"medio":"-","titular":"Parque Eólico Los Cururos SpA","region":"Coquimbo","comuna":"Ovalle","categoria":"OPC"}},{"type":"Feature","geometry":{"type":"Point","coordinates":[-71.04014,-29.36754]},"properties":{"nombre":"Eólica Punta Colorada","tecnologia":"Eólico","estado":"En Operación","potencia_mw":19.998,"medio":"-","titular":"Compañía Barrick Chile Generación SpA","region":"Coquimbo","comuna":"La Higuera","categoria":"OPC"}},{"type":"Feature","geometry":{"type":"Point","coordinates":[-71.62508,-31.23603]},"properties":{"nombre":"Eólica Punta Palmeras","tecnologia":"Eólico","estado":"En Operación","potencia_mw":44.705,"medio":"-","titular":"Punta Palmeras S.A.","region":"Coquimbo","comuna":"Canela","categoria":"OPC"}},{"type":"Feature","geometry":{"type":"Point","coordinates":[-71.46823,-28.88147]},"properties":{"nombre":"Eólica San Juan","tecnologia":"Eólico","estado":"En Operación","potencia_mw":189.4,"medio":"-","titular":"San Juan S.A.","region":"Atacama","comuna":"Freirina","categoria":"OPC"}},{"type":"Feature","geometry":{"type":"Point","coordinates":[-73.92411,-42.27541]},"properties":{"nombre":"Eólica San Pedro","tecnologia":"Eólico","estado":"En Operación","potencia_mw":35.996,"medio":"-","titular":"Alba SpA","region":"Los Lagos","comuna":"Dalcahue","categoria":"OPC"}},{"type":"Feature","geometry":{"type":"Point","coordinates":[-73.91878,-42.2812]},"properties":{"nombre":"Eólica San Pedro II","tecnologia":"Eólico","estado":"En Operación","potencia_mw":64.993,"medio":"-","titular":"Río Alto Generación S.A.","region":"Los Lagos","comuna":"Dalcahue","categoria":"OPC"}},{"type":"Feature","geometry":{"type":"Point","coordinates":[-71.56972,-30.84637]},"properties":{"nombre":"Eólica Talinay Oriente","tecnologia":"Eólico","estado":"En Operación","potencia_mw":89.55,"medio":"-","titular":"Parque Talinay Oriente S.A.","region":"Coquimbo","comuna":"Ovalle","categoria":"OPC"}},{"type":"Feature","geometry":{"type":"Point","coordinates":[-71.65297,-30.81116]},"properties":{"nombre":"Eólica Talinay Poniente","tecnologia":"Eólico","estado":"En Operación","potencia_mw":60.098,"medio":"-","titular":"Enel Generación Chile S.A.","region":"Coquimbo","comuna":"Ovalle","categoria":"OPC"}},{"type":"Feature","geometry":{"type":"Point","coordinates":[-69.85721,-25.08005]},"properties":{"nombre":"Eólica Taltal","tecnologia":"Eólico","estado":"En Operación","potencia_mw":98.109,"medio":"-","titular":"Enel Green Power Chile S.A.","region":"Antofagasta","comuna":"Taltal","categoria":"OPC"}},{"type":"Feature","geometry":{"type":"Point","coordinates":[-71.60186,-31.34849]},"properties":{"nombre":"Eólica Totoral","tecnologia":"Eólico","estado":"En Operación","potencia_mw":45.54,"medio":"-","titular":"Norvind S.A.","region":"Coquimbo","comuna":"Canela","categoria":"OPC"}},{"type":"Feature","geometry":{"type":"Point","coordinates":[-69.869,-24.96227]},"properties":{"nombre":"Horizonte Norte","tecnologia":"Eólico","estado":"En Operación","potencia_mw":366.599,"medio":"-","titular":"Colbún S.A.","region":"Antofagasta","comuna":"Taltal","categoria":"OPC"}},{"type":"Feature","geometry":{"type":"Point","coordinates":[-69.869,-24.96227]},"properties":{"nombre":"Horizonte Sur","tecnologia":"Eólico","estado":"En Operación","potencia_mw":364.445,"medio":"-","titular":"Colbún S.A.","region":"Antofagasta","comuna":"Taltal","categoria":"OPC"}},{"type":"Feature","geometry":{"type":"Point","coordinates":[-73.56849,-37.74617]},"properties":{"nombre":"Huajache","tecnologia":"Eólico","estado":"En Operación","potencia_mw":5.987,"medio":"PMGD","titular":"Huajache SpA","region":"Biobío","comuna":"Lebu","categoria":"OPC"}},{"type":"Feature","geometry":{"type":"Point","coordinates":[-69.98948,-24.91856]},"properties":{"nombre":"Kallpa","tecnologia":"Eólico","estado":"En Operación","potencia_mw":335.596,"medio":"-","titular":"ENGIE Energía Chile S.A.","region":"Antofagasta","comuna":"Taltal","categoria":"OPC"}},{"type":"Feature","geometry":{"type":"Point","coordinates":[-72.57693,-37.79203]},"properties":{"nombre":"La Cabaña","tecnologia":"Eólico","estado":"En Operación","potencia_mw":105.23,"medio":"-","titular":"Enel Green Power Chile S.A.","region":"Araucanía","comuna":"Renaico","categoria":"OPC"}},{"type":"Feature","geometry":{"type":"Point","coordinates":[-72.53435,-37.60584]},"properties":{"nombre":"La Esperanza","tecnologia":"Eólico","estado":"En Operación","potencia_mw":9.0,"medio":"PMG","titular":"Eólica La Esperanza S.A.","region":"Biobío","comuna":"Negrete","categoria":"OPC"}},{"type":"Feature","geometry":{"type":"Point","coordinates":[-71.60601,-34.15274]},"properties":{"nombre":"La Estrella","tecnologia":"Eólico","estado":"En Operación","potencia_mw":49.1,"medio":"-","titular":"Eólica La Estrella SpA","region":"O'Higgins","comuna":"La Estrella","categoria":"OPC"}},{"type":"Feature","geometry":{"type":"Point","coordinates":[-72.5975,-37.66789]},"properties":{"nombre":"La Flor","tecnologia":"Eólico","estado":"En Operación","potencia_mw":31.5,"medio":"-","titular":"Vientos de Renaico SpA","region":"Araucanía","comuna":"Renaico","categoria":"OPC"}},{"type":"Feature","geometry":{"type":"Point","coordinates":[-73.64912,-37.68611]},"properties":{"nombre":"Lebu","tecnologia":"Eólico","estado":"En Operación","potencia_mw":9.34,"medio":"PMG","titular":"Parque Eólico Lebu-Toro SpA","region":"Biobío","comuna":"Lebu","categoria":"OPC"}},{"type":"Feature","geometry":{"type":"Point","coordinates":[-69.97066,-23.77166]},"properties":{"nombre":"Llanos del Viento","tecnologia":"Eólico","estado":"En Operación","potencia_mw":157.011,"medio":"-","titular":"AR Llanos del Viento SpA","region":"Antofagasta","comuna":"Antofagasta","categoria":"OPC"}},{"type":"Feature","geometry":{"type":"Point","coordinates":[-72.39094,-37.52592]},"properties":{"nombre":"Lomas de Duqueco","tecnologia":"Eólico","estado":"En Operación","potencia_mw":58.0,"medio":"-","titular":"WPD Chile SpA","region":"Biobío","comuna":"Los Ángeles","categoria":"OPC"}},{"type":"Feature","geometry":{"type":"Point","coordinates":[-71.62825,-34.12929]},"properties":{"nombre":"Los Cerrillos","tecnologia":"Eólico","estado":"En Operación","potencia_mw":44.681,"medio":"-","titular":"Statkraft Eólico S.A.","region":"O'Higgins","comuna":"Litueche","categoria":"OPC"}},{"type":"Feature","geometry":{"type":"Point","coordinates":[-72.45741,-37.66677]},"properties":{"nombre":"Los Olmos","tecnologia":"Eólico","estado":"En Operación","potencia_mw":109.13,"medio":"-","titular":"Energía Eólica Los Olmos SpA","region":"Biobío","comuna":"Mulchén","categoria":"OPC"}},{"type":"Feature","geometry":{"type":"Point","coordinates":[-72.25795,-38.00555]},"properties":{"nombre":"Malleco Norte","tecnologia":"Eólico","estado":"En Operación","potencia_mw":133.9,"medio":"-","titular":"WPD Malleco SpA","region":"Araucanía","comuna":"Collipulli","categoria":"OPC"}},{"type":"Feature","geometry":{"type":"Point","coordinates":[-72.25795,-38.00555]},"properties":{"nombre":"Malleco Sur","tecnologia":"Eólico","estado":"En Operación","potencia_mw":131.86,"medio":"-","titular":"WPD Malleco SpA","region":"Araucanía","comuna":"Collipulli","categoria":"OPC"}},{"type":"Feature","geometry":{"type":"Point","coordinates":[-71.63294,-34.10127]},"properties":{"nombre":"Manantiales","tecnologia":"Eólico","estado":"En Operación","potencia_mw":26.472,"medio":"-","titular":"Statkraft Eólico S.A.","region":"O'Higgins","comuna":"Litueche","categoria":"OPC"}},{"type":"Feature","geometry":{"type":"Point","coordinates":[-72.46626,-37.51842]},"properties":{"nombre":"Mesamávida","tecnologia":"Eólico","estado":"En Operación","potencia_mw":60.0,"medio":"-","titular":"Energía Eólica Mesamávida SpA","region":"Biobío","comuna":"Los Ángeles","categoria":"OPC"}},{"type":"Feature","geometry":{"type":"Point","coordinates":[-71.63711,-31.07259]},"properties":{"nombre":"Monte Redondo","tecnologia":"Eólico","estado":"En Operación","potencia_mw":47.52,"medio":"-","titular":"Eólica Monte Redondo S.A.","region":"Coquimbo","comuna":"Ovalle","categoria":"OPC"}},{"type":"Feature","geometry":{"type":"Point","coordinates":[-72.54552,-37.59701]},"properties":{"nombre":"Negrete","tecnologia":"Eólico","estado":"En Operación","potencia_mw":35.34,"medio":"-","titular":"WPD Negrete SpA","region":"Biobío","comuna":"Negrete","categoria":"OPC"}},{"type":"Feature","geometry":{"type":"Point","coordinates":[-68.77024,-22.47352]},"properties":{"nombre":"Parque Eólico Calama","tecnologia":"Eólico","estado":"En Operación","potencia_mw":160.696,"medio":"-","titular":"Engie Energía Chile S.A.","region":"Antofagasta","comuna":"Calama","categoria":"OPC"}},{"type":"Feature","geometry":{"type":"Point","coordinates":[-70.95497,-52.85062]},"properties":{"nombre":"Piloto H2V HIF","tecnologia":"Eólico","estado":"En Operación","potencia_mw":3.4,"medio":"-","titular":"HIF CHILE 1 SpA","region":"Magallanes","comuna":"Punta Arenas","categoria":"OPC"}},{"type":"Feature","geometry":{"type":"Point","coordinates":[-73.59225,-37.54045]},"properties":{"nombre":"PMGD El Arrebol","tecnologia":"Eólico","estado":"En Operación","potencia_mw":9.0,"medio":"PMGD","titular":"Empresa Eléctrica El Arrebol SpA","region":"Biobío","comuna":"Lebu","categoria":"OPC"}},{"type":"Feature","geometry":{"type":"Point","coordinates":[-72.99971,-41.03077]},"properties":{"nombre":"Puelche Sur","tecnologia":"Eólico","estado":"En Operación","potencia_mw":156.859,"medio":"-","titular":"AR Puelche Sur SpA","region":"Los Lagos","comuna":"Frutillar","categoria":"OPC"}},{"type":"Feature","geometry":{"type":"Point","coordinates":[-71.64504,-30.90455]},"properties":{"nombre":"Punta de Talca","tecnologia":"Eólico","estado":"En Operación","potencia_mw":79.243,"medio":"-","titular":"Parque Eólico Punta de Talca SpA","region":"Coquimbo","comuna":"Ovalle","categoria":"OPC"}},{"type":"Feature","geometry":{"type":"Point","coordinates":[-71.63304,-31.13486]},"properties":{"nombre":"Punta Sierra","tecnologia":"Eólico","estado":"En Operación","potencia_mw":81.185,"medio":"-","titular":"Pacific Hydro Punta Sierra SpA","region":"Coquimbo","comuna":"Ovalle","categoria":"OPC"}},{"type":"Feature","geometry":{"type":"Point","coordinates":[-73.57341,-37.74283]},"properties":{"nombre":"Raki","tecnologia":"Eólico","estado":"En Operación","potencia_mw":8.98,"medio":"PMGD","titular":"Raki SpA","region":"Biobío","comuna":"Lebu","categoria":"OPC"}},{"type":"Feature","geometry":{"type":"Point","coordinates":[-72.58114,-37.72064]},"properties":{"nombre":"Renaico I","tecnologia":"Eólico","estado":"En Operación","potencia_mw":87.5,"medio":"-","titular":"Enel Generación Chile S.A.","region":"Araucanía","comuna":"Renaico","categoria":"OPC"}},{"type":"Feature","geometry":{"type":"Point","coordinates":[-72.56135,-37.7373]},"properties":{"nombre":"Renaico II","tecnologia":"Eólico","estado":"En Operación","potencia_mw":141.412,"medio":"-","titular":"Enel Green Power Chile S.A.","region":"Araucanía","comuna":"Renaico","categoria":"OPC"}},{"type":"Feature","geometry":{"type":"Point","coordinates":[-72.51131,-37.69399]},"properties":{"nombre":"San Gabriel (Modificación)","tecnologia":"Eólico","estado":"En Operación","potencia_mw":180.0,"medio":"-","titular":"Parque Eólico San Gabriel SpA","region":"Araucanía","comuna":"Renaico","categoria":"OPC"}},{"type":"Feature","geometry":{"type":"Point","coordinates":[-72.57705,-37.41865]},"properties":{"nombre":"San Matías","tecnologia":"Eólico","estado":"En Operación","potencia_mw":79.433,"medio":"-","titular":"Energía Eólica San Matías SpA","region":"Biobío","comuna":"Los Ángeles","categoria":"OPC"}},{"type":"Feature","geometry":{"type":"Point","coordinates":[-71.42237,-28.86163]},"properties":{"nombre":"Sarco","tecnologia":"Eólico","estado":"En Operación","potencia_mw":167.56,"medio":"-","titular":"AELA Eólica Sarco SpA","region":"Atacama","comuna":"Freirina","categoria":"OPC"}},{"type":"Feature","geometry":{"type":"Point","coordinates":[-68.97469,-22.87768]},"properties":{"nombre":"Sierra Gorda Este","tecnologia":"Eólico","estado":"En Operación","potencia_mw":110.619,"medio":"-","titular":"Enel Green Power Chile S.A.","region":"Antofagasta","comuna":"Sierra Gorda","categoria":"OPC"}},{"type":"Feature","geometry":{"type":"Point","coordinates":[-69.08436,-22.49847]},"properties":{"nombre":"Tchamma","tecnologia":"Eólico","estado":"En Operación","potencia_mw":171.777,"medio":"-","titular":"AR Tchamma SpA","region":"Antofagasta","comuna":"Calama","categoria":"OPC"}},{"type":"Feature","geometry":{"type":"Point","coordinates":[-72.59948,-37.68573]},"properties":{"nombre":"Tolpán Sur","tecnologia":"Eólico","estado":"En Operación","potencia_mw":80.9,"medio":"-","titular":"Acciona Energía Chile Holdings S.A.","region":"Araucanía","comuna":"Renaico","categoria":"OPC"}},{"type":"Feature","geometry":{"type":"Point","coordinates":[-71.60981,-34.04421]},"properties":{"nombre":"Ucuquer","tecnologia":"Eólico","estado":"En Operación","potencia_mw":7.072,"medio":"PMGD","titular":"Energías Ucuquer S.A.","region":"O'Higgins","comuna":"Litueche","categoria":"OPC"}},{"type":"Feature","geometry":{"type":"Point","coordinates":[-71.62139,-34.04515]},"properties":{"nombre":"Ucuquer II","tecnologia":"Eólico","estado":"En Operación","potencia_mw":10.503,"medio":"-","titular":"Energías Ucuquer Dos S.A.","region":"O'Higgins","comuna":"Litueche","categoria":"OPC"}},{"type":"Feature","geometry":{"type":"Point","coordinates":[-68.81711,-22.51783]},"properties":{"nombre":"Valle de los Vientos","tecnologia":"Eólico","estado":"En Operación","potencia_mw":88.9,"medio":"-","titular":"Enel Green Power Chile S.A.","region":"Antofagasta","comuna":"Calama","categoria":"OPC"}},{"type":"Feature","geometry":{"type":"Point","coordinates":[-70.83498,-52.93722]},"properties":{"nombre":"Vientos Patagónicos","tecnologia":"Eólico","estado":"En Operación","potencia_mw":10.35,"medio":"-","titular":"Vientos Patagónicos SpA","region":"Magallanes","comuna":"Punta Arenas","categoria":"OPC"}}]}