{"type":"FeatureCollection","features":[{"type":"Feature","properties":{"nombre":"Rango estimado del cóndor andino (eBird S&T 2023)","producto":"range","temporada":"resident","anio":2023,"fuente":"Fink et al. 2025, eBird Status and Trends, Data Version: 2023. Cornell Lab of Ornithology."},"geometry":{"type":"MultiPolygon","coordinates":[[[[-71.528,-13.0],[-71.152,-13.169],[-71.045,-13.227],[-70.849,-13.36],[-70.748,-13.417],[-70.684,-13.449],[-70.383,-13.581],[-70.268,-13.641],[-70.183,-13.696],[-70.07,-13.774],[-69.976,-13.831],[-69.846,-13.893],[-69.614,-13.995],[-69.489,-14.059],[-69.394,-14.119],[-69.231,-14.247],[-69.066,-14.385],[-68.952,-14.486],[-68.882,-14.557],[-68.848,-14.598],[-68.78,-14.697],[-68.551,-15.114],[-68.46,-15.285],[-68.396,-15.389],[-68.333,-15.468],[-68.211,-15.594],[-68.148,-15.667],[-68.114,-15.712],[-68.008,-15.87],[-67.973,-15.917],[-67.937,-15.952],[-67.902,-15.975],[-67.867,-15.986],[-67.83,-15.988],[-67.79,-15.983],[-67.622,-15.948],[-67.547,-15.94],[-67.466,-15.937],[-67.385,-15.943],[-67.31,-15.955],[-67.245,-15.973],[-67.19,-15.995],[-67.144,-16.019],[-66.949,-16.149],[-66.846,-16.206],[-66.711,-16.266],[-66.498,-16.352],[-65.97,-16.572],[-65.854,-16.633],[-65.765,-16.692],[-65.689,-16.751],[-65.583,-16.843],[-65.515,-16.912],[-65.481,-16.953],[-65.447,-16.999],[-65.34,-17.16],[-65.304,-17.206],[-65.269,-17.241],[-65.234,-17.264],[-65.199,-17.275],[-65.162,-17.276],[-65.121,-17.271],[-64.96,-17.234],[-64.89,-17.223],[-64.817,-17.217],[-64.743,-17.216],[-64.676,-17.221],[-64.615,-17.231],[-64.561,-17.244],[-64.389,-17.297],[-64.308,-17.319],[-63.988,-17.394],[-63.886,-17.421],[-63.801,-17.448],[-63.734,-17.474],[-63.682,-17.499],[-63.603,-17.549],[-63.537,-17.6],[-63.418,-17.701],[-63.367,-17.75],[-63.344,-17.777],[-63.322,-17.808],[-63.301,-17.848],[-63.283,-17.901],[-63.268,-17.97],[-63.257,-18.056],[-63.253,-18.155],[-63.255,-18.261],[-63.262,-18.368],[-63.287,-18.683],[-63.289,-18.78],[-63.286,-18.867],[-63.28,-18.938],[-63.27,-18.993],[-63.258,-19.035],[-63.206,-19.153],[-63.18,-19.24],[-63.12,-19.583],[-63.096,-19.67],[-63.046,-19.782],[-63.034,-19.821],[-63.024,-19.872],[-63.017,-19.94],[-63.014,-20.024],[-63.016,-20.12],[-63.024,-20.222],[-63.035,-20.322],[-63.066,-20.51],[-63.108,-20.7],[-63.135,-20.8],[-63.167,-20.9],[-63.2,-20.993],[-63.233,-21.071],[-63.263,-21.133],[-63.311,-21.212],[-63.385,-21.297],[-63.429,-21.361],[-63.487,-21.476],[-63.52,-21.558],[-63.553,-21.653],[-63.677,-22.071],[-63.711,-22.176],[-63.748,-22.274],[-63.786,-22.361],[-63.823,-22.433],[-63.857,-22.489],[-63.887,-22.532],[-64.039,-22.704],[-64.193,-22.891],[-64.301,-23.015],[-64.335,-23.059],[-64.368,-23.111],[-64.401,-23.176],[-64.43,-23.254],[-64.451,-23.342],[-64.462,-23.43],[-64.462,-23.51],[-64.452,-23.576],[-64.435,-23.628],[-64.415,-23.669],[-64.392,-23.702],[-64.255,-23.855],[-64.234,-23.886],[-64.214,-23.925],[-64.197,-23.974],[-64.184,-24.04],[-64.18,-24.124],[-64.187,-24.225],[-64.205,-24.335],[-64.233,-24.442],[-64.266,-24.535],[-64.3,-24.61],[-64.333,-24.668],[-64.363,-24.712],[-64.472,-24.845],[-64.5,-24.888],[-64.527,-24.942],[-64.552,-25.006],[-64.571,-25.078],[-64.581,-25.153],[-64.577,-25.223],[-64.56,-25.286],[-64.531,-25.337],[-64.493,-25.378],[-64.449,-25.413],[-64.359,-25.477],[-64.321,-25.513],[-64.291,-25.552],[-64.272,-25.596],[-64.266,-25.643],[-64.27,-25.689],[-64.283,-25.733],[-64.302,-25.773],[-64.325,-25.809],[-64.442,-25.952],[-64.478,-26.005],[-64.518,-26.072],[-64.702,-26.436],[-64.751,-26.519],[-64.801,-26.589],[-64.851,-26.643],[-64.901,-26.685],[-64.951,-26.717],[-65.001,-26.742],[-65.15,-26.809],[-65.2,-26.84],[-65.25,-26.881],[-65.298,-26.935],[-65.344,-27.004],[-65.386,-27.086],[-65.42,-27.18],[-65.445,-27.278],[-65.461,-27.371],[-65.466,-27.453],[-65.464,-27.522],[-65.456,-27.576],[-65.445,-27.621],[-65.385,-27.773],[-65.309,-28.0],[-65.255,-28.136],[-65.245,-28.178],[-65.237,-28.232],[-65.235,-28.302],[-65.238,-28.388],[-65.249,-28.487],[-65.267,-28.594],[-65.291,-28.704],[-65.321,-28.813],[-65.356,-28.922],[-65.397,-29.029],[-65.441,-29.129],[-65.485,-29.215],[-65.526,-29.283],[-65.563,-29.331],[-65.594,-29.361],[-65.62,-29.374],[-65.642,-29.374],[-65.663,-29.362],[-65.682,-29.339],[-65.7,-29.304],[-65.787,-29.098],[-65.813,-29.05],[-65.84,-29.007],[-65.868,-28.972],[-65.897,-28.942],[-65.926,-28.917],[-65.957,-28.898],[-65.99,-28.885],[-66.027,-28.881],[-66.067,-28.887],[-66.111,-28.904],[-66.16,-28.934],[-66.211,-28.974],[-66.263,-29.02],[-66.501,-29.258],[-66.536,-29.301],[-66.575,-29.356],[-66.618,-29.425],[-66.663,-29.512],[-66.708,-29.616],[-66.75,-29.73],[-66.784,-29.85],[-66.808,-29.964],[-66.82,-30.066],[-66.82,-30.148],[-66.811,-30.207],[-66.793,-30.246],[-66.77,-30.268],[-66.743,-30.276],[-66.711,-30.275],[-66.677,-30.268],[-66.558,-30.236],[-66.515,-30.229],[-66.473,-30.227],[-66.432,-30.231],[-66.395,-30.24],[-66.36,-30.254],[-66.329,-30.271],[-66.301,-30.292],[-66.276,-30.315],[-66.254,-30.343],[-66.234,-30.376],[-66.217,-30.419],[-66.205,-30.476],[-66.199,-30.548],[-66.202,-30.637],[-66.214,-30.74],[-66.236,-30.849],[-66.267,-30.958],[-66.305,-31.062],[-66.35,-31.158],[-66.4,-31.243],[-66.453,-31.316],[-66.51,-31.374],[-66.567,-31.42],[-66.625,-31.455],[-66.799,-31.539],[-66.854,-31.57],[-66.905,-31.607],[-66.95,-31.65],[-66.986,-31.698],[-67.011,-31.748],[-67.025,-31.798],[-67.03,-31.844],[-67.026,-31.888],[-67.017,-31.928],[-66.953,-32.098],[-66.93,-32.147],[-66.901,-32.198],[-66.863,-32.246],[-66.815,-32.286],[-66.758,-32.317],[-66.694,-32.335],[-66.628,-32.343],[-66.564,-32.341],[-66.504,-32.333],[-66.447,-32.32],[-66.186,-32.246],[-65.731,-32.143],[-65.634,-32.116],[-65.563,-32.09],[-65.516,-32.066],[-65.49,-32.041],[-65.478,-32.017],[-65.478,-31.991],[-65.485,-31.962],[-65.549,-31.788],[-65.66,-31.461],[-65.669,-31.414],[-65.674,-31.355],[-65.67,-31.28],[-65.656,-31.186],[-65.629,-31.078],[-65.591,-30.966],[-65.545,-30.866],[-65.498,-30.786],[-65.453,-30.73],[-65.413,-30.695],[-65.378,-30.676],[-65.346,-30.671],[-65.316,-30.673],[-65.231,-30.702],[-65.199,-30.709],[-65.163,-30.711],[-65.123,-30.703],[-65.075,-30.684],[-65.021,-30.65],[-64.96,-30.604],[-64.708,-30.388],[-64.6,-30.312],[-64.549,-30.283],[-64.5,-30.26],[-64.451,-30.244],[-64.404,-30.233],[-64.359,-30.23],[-64.317,-30.233],[-64.279,-30.242],[-64.245,-30.256],[-64.215,-30.273],[-64.163,-30.315],[-64.142,-30.341],[-64.122,-30.373],[-64.106,-30.415],[-64.094,-30.47],[-64.087,-30.543],[-64.088,-30.633],[-64.097,-30.738],[-64.114,-30.849],[-64.206,-31.293],[-64.222,-31.395],[-64.232,-31.485],[-64.235,-31.559],[-64.233,-31.617],[-64.228,-31.659],[-64.22,-31.692],[-64.193,-31.771],[-64.185,-31.804],[-64.181,-31.848],[-64.182,-31.907],[-64.191,-31.984],[-64.211,-32.079],[-64.241,-32.185],[-64.279,-32.292],[-64.322,-32.388],[-64.364,-32.467],[-64.403,-32.528],[-64.439,-32.575],[-64.567,-32.714],[-64.603,-32.758],[-64.807,-33.032],[-64.874,-33.109],[-64.947,-33.178],[-65.024,-33.236],[-65.104,-33.283],[-65.185,-33.321],[-65.265,-33.353],[-65.475,-33.427],[-65.586,-33.459],[-65.634,-33.467],[-65.678,-33.47],[-65.719,-33.468],[-65.758,-33.461],[-65.864,-33.431],[-65.899,-33.426],[-65.936,-33.428],[-65.976,-33.443],[-66.023,-33.474],[-66.077,-33.523],[-66.137,-33.591],[-66.317,-33.823],[-66.363,-33.878],[-66.4,-33.916],[-66.43,-33.938],[-66.455,-33.946],[-66.474,-33.942],[-66.49,-33.924],[-66.5,-33.892],[-66.505,-33.843],[-66.503,-33.778],[-66.496,-33.698],[-66.474,-33.516],[-66.467,-33.429],[-66.468,-33.35],[-66.481,-33.284],[-66.508,-33.23],[-66.548,-33.187],[-66.602,-33.154],[-66.666,-33.128],[-66.893,-33.064],[-66.965,-33.037],[-67.027,-33.005],[-67.078,-32.966],[-67.117,-32.922],[-67.146,-32.875],[-67.168,-32.827],[-67.25,-32.613],[-67.284,-32.518],[-67.371,-32.242],[-67.47,-31.99],[-67.494,-31.937],[-67.52,-31.891],[-67.548,-31.855],[-67.579,-31.832],[-67.612,-31.82],[-67.647,-31.817],[-67.686,-31.823],[-67.774,-31.85],[-68.007,-31.929],[-68.073,-31.954],[-68.14,-31.984],[-68.207,-32.021],[-68.273,-32.07],[-68.337,-32.133],[-68.398,-32.209],[-68.455,-32.296],[-68.505,-32.39],[-68.551,-32.488],[-68.683,-32.798],[-68.734,-32.909],[-68.79,-33.016],[-68.847,-33.112],[-68.9,-33.193],[-68.946,-33.255],[-69.066,-33.393],[-69.082,-33.417],[-69.093,-33.442],[-69.098,-33.469],[-69.098,-33.497],[-69.093,-33.53],[-69.068,-33.613],[-69.028,-33.722],[-69.004,-33.781],[-68.978,-33.834],[-68.95,-33.877],[-68.919,-33.907],[-68.886,-33.924],[-68.85,-33.929],[-68.81,-33.926],[-68.658,-33.89],[-68.593,-33.878],[-68.524,-33.872],[-68.453,-33.874],[-68.388,-33.889],[-68.335,-33.917],[-68.301,-33.958],[-68.288,-34.008],[-68.294,-34.064],[-68.316,-34.119],[-68.346,-34.171],[-68.443,-34.299],[-68.465,-34.335],[-68.479,-34.371],[-68.484,-34.406],[-68.48,-34.441],[-68.468,-34.477],[-68.449,-34.513],[-68.425,-34.549],[-68.344,-34.657],[-68.29,-34.741],[-68.265,-34.79],[-68.243,-34.845],[-68.131,-35.213],[-68.123,-35.255],[-68.12,-35.309],[-68.122,-35.378],[-68.133,-35.465],[-68.152,-35.566],[-68.18,-35.677],[-68.215,-35.791],[-68.257,-35.907],[-68.305,-36.023],[-68.361,-36.14],[-68.421,-36.253],[-68.483,-36.355],[-68.541,-36.441],[-68.592,-36.507],[-68.636,-36.558],[-68.724,-36.652],[-68.757,-36.7],[-68.765,-36.723],[-68.769,-36.749],[-68.769,-36.776],[-68.75,-36.894],[-68.74,-37.033],[-68.739,-37.39],[-68.734,-37.454],[-68.715,-37.596],[-68.714,-37.642],[-68.72,-37.691],[-68.733,-37.745],[-68.754,-37.8],[-68.782,-37.854],[-68.816,-37.905],[-68.852,-37.951],[-68.975,-38.089],[-69.022,-38.149],[-69.07,-38.222],[-69.116,-38.308],[-69.156,-38.4],[-69.186,-38.49],[-69.203,-38.569],[-69.21,-38.635],[-69.209,-38.69],[-69.203,-38.782],[-69.205,-38.83],[-69.214,-38.883],[-69.233,-38.942],[-69.264,-39.004],[-69.305,-39.067],[-69.354,-39.126],[-69.408,-39.179],[-69.464,-39.226],[-69.52,-39.267],[-69.784,-39.443],[-69.824,-39.476],[-69.854,-39.509],[-69.87,-39.543],[-69.87,-39.577],[-69.85,-39.613],[-69.812,-39.649],[-69.759,-39.687],[-69.585,-39.79],[-69.541,-39.82],[-69.505,-39.848],[-69.477,-39.875],[-69.453,-39.904],[-69.433,-39.937],[-69.417,-39.977],[-69.406,-40.029],[-69.399,-40.096],[-69.398,-40.177],[-69.414,-40.518],[-69.412,-40.572],[-69.39,-40.728],[-69.389,-40.777],[-69.393,-40.84],[-69.405,-40.922],[-69.501,-41.358],[-69.516,-41.445],[-69.523,-41.514],[-69.523,-41.566],[-69.503,-41.721],[-69.502,-41.771],[-69.511,-41.911],[-69.541,-42.162],[-69.546,-42.227],[-69.544,-42.317],[-69.528,-42.409],[-69.526,-42.446],[-69.528,-42.496],[-69.537,-42.562],[-69.555,-42.648],[-69.584,-42.751],[-69.621,-42.864],[-69.71,-43.093],[-69.851,-43.418],[-69.897,-43.535],[-69.941,-43.657],[-69.979,-43.777],[-70.006,-43.885],[-70.023,-43.974],[-70.03,-44.042],[-70.027,-44.189],[-70.031,-44.215],[-70.04,-44.24],[-70.056,-44.267],[-70.079,-44.296],[-70.23,-44.453],[-70.274,-44.506],[-70.311,-44.565],[-70.338,-44.627],[-70.349,-44.687],[-70.343,-44.744],[-70.32,-44.796],[-70.285,-44.842],[-70.202,-44.928],[-70.169,-44.975],[-70.15,-45.028],[-70.148,-45.085],[-70.163,-45.146],[-70.192,-45.206],[-70.231,-45.262],[-70.274,-45.313],[-70.386,-45.429],[-70.407,-45.461],[-70.417,-45.493],[-70.411,-45.525],[-70.388,-45.56],[-70.348,-45.596],[-70.294,-45.633],[-70.118,-45.744],[-70.073,-45.777],[-70.037,-45.81],[-70.008,-45.844],[-69.983,-45.881],[-69.962,-45.923],[-69.944,-45.973],[-69.928,-46.033],[-69.887,-46.246],[-69.872,-46.313],[-69.855,-46.371],[-69.815,-46.463],[-69.751,-46.575],[-69.71,-46.656],[-69.692,-46.704],[-69.676,-46.759],[-69.654,-46.886],[-69.635,-47.063],[-69.616,-47.19],[-69.614,-47.235],[-69.616,-47.288],[-69.627,-47.357],[-69.648,-47.444],[-69.682,-47.551],[-69.727,-47.675],[-69.884,-48.075],[-69.924,-48.189],[-69.951,-48.284],[-69.966,-48.359],[-69.972,-48.418],[-69.972,-48.465],[-69.956,-48.634],[-69.951,-48.847],[-69.933,-49.046],[-69.935,-49.093],[-69.945,-49.156],[-69.965,-49.237],[-69.998,-49.339],[-70.043,-49.457],[-70.098,-49.583],[-70.219,-49.827],[-70.403,-50.177],[-70.464,-50.302],[-70.523,-50.429],[-70.572,-50.55],[-70.609,-50.655],[-70.633,-50.74],[-70.646,-50.805],[-70.65,-50.855],[-70.65,-50.896],[-70.639,-51.017],[-70.633,-51.197],[-70.621,-51.33],[-70.609,-51.39],[-70.593,-51.443],[-70.574,-51.49],[-70.529,-51.574],[-70.479,-51.652],[-70.423,-51.728],[-70.352,-51.804],[-70.307,-51.843],[-70.25,-51.883],[-70.184,-51.926],[-69.964,-52.058],[-69.904,-52.099],[-69.856,-52.14],[-69.82,-52.179],[-69.794,-52.218],[-69.778,-52.258],[-69.772,-52.298],[-69.777,-52.34],[-69.794,-52.384],[-69.825,-52.428],[-69.868,-52.473],[-69.921,-52.518],[-69.983,-52.562],[-70.265,-52.738],[-70.338,-52.787],[-70.411,-52.841],[-70.482,-52.903],[-70.549,-52.971],[-70.605,-53.042],[-70.645,-53.11],[-70.663,-53.167],[-70.659,-53.207],[-70.637,-53.229],[-70.599,-53.235],[-70.551,-53.227],[-70.495,-53.21],[-70.373,-53.157],[-70.129,-53.036],[-70.003,-52.98],[-69.927,-52.952],[-69.835,-52.925],[-69.722,-52.899],[-69.584,-52.874],[-69.425,-52.853],[-69.253,-52.838],[-69.08,-52.831],[-68.915,-52.831],[-68.764,-52.84],[-68.633,-52.857],[-68.525,-52.881],[-68.442,-52.913],[-68.383,-52.95],[-68.344,-52.991],[-68.32,-53.035],[-68.276,-53.178],[-68.252,-53.226],[-68.216,-53.273],[-68.169,-53.317],[-68.114,-53.36],[-67.944,-53.474],[-67.898,-53.509],[-67.828,-53.576],[-67.721,-53.701],[-67.691,-53.731],[-67.653,-53.762],[-67.603,-53.794],[-67.535,-53.827],[-67.445,-53.862],[-67.334,-53.897],[-66.988,-53.996],[-66.905,-54.024],[-66.84,-54.051],[-66.632,-54.159],[-66.389,-54.272],[-66.202,-54.37],[-66.144,-54.394],[-66.067,-54.417],[-65.965,-54.441],[-65.833,-54.466],[-65.358,-54.545],[-65.231,-54.572],[-65.133,-54.598],[-65.062,-54.622],[-64.93,-54.675],[-64.895,-54.684],[-64.859,-54.688],[-64.819,-54.687],[-64.776,-54.681],[-64.514,-54.614],[-64.413,-54.593],[-64.296,-54.575],[-64.167,-54.564],[-64.038,-54.563],[-63.922,-54.573],[-63.829,-54.595],[-63.762,-54.624],[-63.721,-54.659],[-63.7,-54.698],[-63.696,-54.737],[-63.706,-54.776],[-63.729,-54.815],[-63.765,-54.853],[-63.818,-54.89],[-63.891,-54.927],[-63.989,-54.961],[-64.113,-54.992],[-64.258,-55.019],[-64.416,-55.039],[-64.576,-55.053],[-64.729,-55.062],[-65.011,-55.069],[-65.558,-55.075],[-65.887,-55.088],[-66.067,-55.101],[-66.243,-55.118],[-66.399,-55.139],[-66.528,-55.16],[-66.627,-55.181],[-66.765,-55.219],[-67.156,-55.354],[-67.351,-55.43],[-67.454,-55.478],[-67.555,-55.532],[-67.845,-55.707],[-67.941,-55.759],[-68.037,-55.802],[-68.132,-55.833],[-68.221,-55.851],[-68.301,-55.858],[-68.37,-55.855],[-68.428,-55.845],[-68.476,-55.831],[-68.606,-55.772],[-68.665,-55.75],[-68.744,-55.727],[-68.849,-55.703],[-68.982,-55.679],[-69.432,-55.612],[-69.548,-55.591],[-69.635,-55.571],[-69.697,-55.552],[-69.743,-55.534],[-69.842,-55.482],[-69.883,-55.465],[-69.939,-55.446],[-70.018,-55.428],[-70.123,-55.409],[-70.257,-55.391],[-70.768,-55.341],[-70.935,-55.32],[-71.08,-55.297],[-71.195,-55.271],[-71.28,-55.243],[-71.341,-55.216],[-71.384,-55.188],[-71.415,-55.161],[-71.44,-55.134],[-71.505,-55.048],[-71.56,-54.983],[-71.597,-54.947],[-71.644,-54.909],[-71.77,-54.823],[-71.917,-54.733],[-71.984,-54.69],[-72.039,-54.648],[-72.084,-54.609],[-72.12,-54.572],[-72.237,-54.432],[-72.272,-54.396],[-72.314,-54.358],[-72.365,-54.32],[-72.495,-54.24],[-72.698,-54.127],[-72.867,-54.027],[-73.137,-53.876],[-73.201,-53.836],[-73.256,-53.795],[-73.301,-53.756],[-73.339,-53.716],[-73.371,-53.677],[-73.429,-53.594],[-74.25,-52.264],[-74.303,-52.175],[-74.35,-52.088],[-74.389,-51.994],[-74.404,-51.938],[-74.415,-51.873],[-74.439,-51.565],[-74.448,-51.499],[-74.461,-51.442],[-74.493,-51.351],[-74.546,-51.234],[-74.563,-51.191],[-74.577,-51.142],[-74.589,-51.087],[-74.597,-51.024],[-74.601,-50.955],[-74.607,-50.645],[-74.605,-50.536],[-74.597,-50.468],[-74.58,-50.385],[-74.506,-50.084],[-74.488,-49.995],[-74.477,-49.922],[-74.473,-49.861],[-74.485,-49.511],[-74.498,-49.378],[-74.509,-49.321],[-74.523,-49.272],[-74.539,-49.23],[-74.609,-49.089],[-74.624,-49.052],[-74.636,-49.009],[-74.643,-48.957],[-74.643,-48.89],[-74.635,-48.806],[-74.619,-48.706],[-74.577,-48.496],[-74.561,-48.406],[-74.552,-48.333],[-74.55,-48.273],[-74.56,-48.073],[-74.562,-47.857],[-74.578,-47.681],[-74.574,-47.637],[-74.563,-47.576],[-74.541,-47.494],[-74.506,-47.388],[-74.457,-47.264],[-74.4,-47.133],[-74.34,-47.005],[-74.225,-46.782],[-73.822,-46.038],[-73.712,-45.817],[-73.655,-45.691],[-73.603,-45.562],[-73.56,-45.441],[-73.529,-45.337],[-73.51,-45.256],[-73.501,-45.197],[-73.499,-45.153],[-73.503,-45.059],[-73.5,-45.024],[-73.49,-44.983],[-73.473,-44.936],[-73.447,-44.883],[-73.414,-44.828],[-73.375,-44.774],[-73.332,-44.724],[-73.137,-44.526],[-73.08,-44.457],[-73.021,-44.374],[-72.965,-44.28],[-72.917,-44.183],[-72.883,-44.092],[-72.863,-44.015],[-72.855,-43.951],[-72.854,-43.899],[-72.878,-43.704],[-72.894,-43.533],[-72.922,-43.34],[-72.925,-43.286],[-72.924,-43.222],[-72.917,-43.143],[-72.881,-42.871],[-72.874,-42.795],[-72.871,-42.733],[-72.873,-42.683],[-72.886,-42.555],[-72.886,-42.501],[-72.882,-42.435],[-72.837,-42.104],[-72.831,-42.04],[-72.832,-41.952],[-72.847,-41.865],[-72.849,-41.83],[-72.846,-41.782],[-72.837,-41.717],[-72.818,-41.633],[-72.789,-41.529],[-72.752,-41.414],[-72.664,-41.187],[-72.493,-40.799],[-72.407,-40.597],[-72.325,-40.37],[-72.292,-40.26],[-72.268,-40.165],[-72.254,-40.089],[-72.248,-40.033],[-72.247,-39.993],[-72.25,-39.963],[-72.267,-39.895],[-72.27,-39.867],[-72.271,-39.828],[-72.266,-39.776],[-72.253,-39.706],[-72.232,-39.617],[-72.203,-39.511],[-72.093,-39.151],[-72.065,-39.043],[-72.046,-38.953],[-72.036,-38.881],[-72.034,-38.825],[-72.036,-38.782],[-72.055,-38.682],[-72.061,-38.592],[-72.054,-38.453],[-72.033,-38.215],[-72.033,-38.11],[-72.038,-38.075],[-72.057,-37.991],[-72.061,-37.955],[-72.06,-37.907],[-72.054,-37.841],[-72.039,-37.756],[-72.015,-37.653],[-71.984,-37.541],[-71.948,-37.429],[-71.873,-37.223],[-71.729,-36.852],[-71.657,-36.64],[-71.625,-36.529],[-71.6,-36.424],[-71.583,-36.335],[-71.574,-36.264],[-71.572,-36.213],[-71.574,-36.176],[-71.579,-36.15],[-71.598,-36.089],[-71.605,-36.026],[-71.603,-35.977],[-71.595,-35.911],[-71.58,-35.827],[-71.557,-35.728],[-71.528,-35.621],[-71.424,-35.284],[-71.393,-35.173],[-71.368,-35.067],[-71.35,-34.972],[-71.34,-34.893],[-71.338,-34.832],[-71.341,-34.785],[-71.347,-34.749],[-71.37,-34.657],[-71.38,-34.565],[-71.376,-34.252],[-71.379,-34.178],[-71.385,-34.116],[-71.395,-34.064],[-71.444,-33.887],[-71.492,-33.689],[-71.537,-33.539],[-71.545,-33.497],[-71.549,-33.445],[-71.548,-33.377],[-71.54,-33.292],[-71.523,-33.19],[-71.451,-32.83],[-71.434,-32.717],[-71.425,-32.62],[-71.426,-32.542],[-71.434,-32.482],[-71.447,-32.436],[-71.463,-32.4],[-71.499,-32.346],[-71.559,-32.274],[-71.6,-32.219],[-71.62,-32.185],[-71.638,-32.143],[-71.654,-32.09],[-71.667,-32.022],[-71.675,-31.941],[-71.688,-31.682],[-71.694,-31.617],[-71.702,-31.566],[-71.733,-31.447],[-71.749,-31.345],[-71.761,-31.025],[-71.766,-30.953],[-71.774,-30.894],[-71.801,-30.76],[-71.805,-30.716],[-71.803,-30.669],[-71.794,-30.618],[-71.778,-30.565],[-71.754,-30.513],[-71.726,-30.465],[-71.694,-30.421],[-71.587,-30.289],[-71.547,-30.233],[-71.507,-30.164],[-71.469,-30.085],[-71.438,-29.999],[-71.417,-29.916],[-71.407,-29.844],[-71.405,-29.785],[-71.41,-29.738],[-71.439,-29.621],[-71.456,-29.515],[-71.472,-29.203],[-71.478,-29.138],[-71.487,-29.085],[-71.518,-28.966],[-71.525,-28.923],[-71.527,-28.87],[-71.521,-28.803],[-71.503,-28.722],[-71.474,-28.634],[-71.434,-28.546],[-71.388,-28.468],[-71.341,-28.404],[-71.294,-28.353],[-71.248,-28.311],[-71.156,-28.244],[-70.792,-28.013],[-70.632,-27.903],[-70.518,-27.809],[-70.193,-27.501],[-70.081,-27.408],[-69.978,-27.336],[-69.878,-27.271],[-69.67,-27.15],[-69.551,-27.092],[-69.245,-26.964],[-69.164,-26.926],[-69.088,-26.885],[-69.018,-26.84],[-68.836,-26.701],[-68.776,-26.658],[-68.713,-26.619],[-68.433,-26.477],[-68.365,-26.435],[-68.3,-26.389],[-68.24,-26.339],[-68.136,-26.239],[-68.011,-26.108],[-67.941,-26.02],[-67.912,-25.971],[-67.887,-25.918],[-67.87,-25.862],[-67.862,-25.806],[-67.861,-25.753],[-67.866,-25.704],[-67.891,-25.563],[-67.892,-25.511],[-67.885,-25.456],[-67.87,-25.4],[-67.847,-25.345],[-67.817,-25.294],[-67.783,-25.246],[-67.489,-24.906],[-67.353,-24.759],[-67.287,-24.674],[-67.25,-24.615],[-67.209,-24.539],[-67.166,-24.447],[-67.03,-24.106],[-66.983,-23.995],[-66.937,-23.896],[-66.893,-23.815],[-66.853,-23.752],[-66.75,-23.607],[-66.738,-23.581],[-66.733,-23.555],[-66.733,-23.529],[-66.74,-23.503],[-66.753,-23.476],[-66.771,-23.45],[-66.795,-23.424],[-66.823,-23.398],[-66.859,-23.372],[-66.905,-23.347],[-66.965,-23.32],[-67.044,-23.292],[-67.144,-23.264],[-67.484,-23.174],[-67.571,-23.147],[-67.638,-23.12],[-67.69,-23.095],[-67.766,-23.048],[-67.932,-22.924],[-68.024,-22.87],[-68.203,-22.771],[-68.259,-22.73],[-68.304,-22.684],[-68.333,-22.634],[-68.345,-22.584],[-68.341,-22.538],[-68.325,-22.498],[-68.302,-22.468],[-68.275,-22.448],[-68.246,-22.437],[-68.217,-22.433],[-68.187,-22.437],[-68.066,-22.473],[-68.001,-22.488],[-67.915,-22.503],[-67.811,-22.512],[-67.697,-22.515],[-67.587,-22.509],[-67.496,-22.495],[-67.429,-22.478],[-67.386,-22.457],[-67.363,-22.436],[-67.354,-22.413],[-67.355,-22.389],[-67.365,-22.361],[-67.421,-22.243],[-67.544,-21.97],[-67.67,-21.726],[-67.7,-21.677],[-67.732,-21.635],[-67.767,-21.604],[-67.802,-21.586],[-67.839,-21.579],[-67.876,-21.583],[-67.915,-21.595],[-67.954,-21.613],[-68.038,-21.667],[-68.084,-21.702],[-68.186,-21.793],[-68.355,-21.953],[-68.407,-21.993],[-68.453,-22.022],[-68.493,-22.038],[-68.53,-22.043],[-68.565,-22.04],[-68.637,-22.017],[-68.825,-21.935],[-68.879,-21.908],[-68.932,-21.875],[-68.979,-21.835],[-69.018,-21.783],[-69.047,-21.719],[-69.066,-21.64],[-69.075,-21.551],[-69.085,-21.274],[-69.092,-21.201],[-69.102,-21.142],[-69.114,-21.095],[-69.15,-20.982],[-69.156,-20.941],[-69.156,-20.895],[-69.148,-20.844],[-69.133,-20.79],[-69.11,-20.736],[-69.084,-20.687],[-69.01,-20.577],[-68.996,-20.549],[-68.991,-20.524],[-68.995,-20.499],[-69.011,-20.475],[-69.039,-20.45],[-69.173,-20.362],[-69.223,-20.321],[-69.268,-20.271],[-69.305,-20.209],[-69.334,-20.138],[-69.355,-20.061],[-69.402,-19.856],[-69.418,-19.806],[-69.512,-19.6],[-69.573,-19.452],[-69.651,-19.283],[-69.669,-19.237],[-69.686,-19.182],[-69.702,-19.115],[-69.747,-18.872],[-69.78,-18.743],[-69.798,-18.695],[-69.875,-18.529],[-69.955,-18.341],[-70.026,-18.192],[-70.04,-18.147],[-70.052,-18.091],[-70.058,-18.02],[-70.057,-17.932],[-70.047,-17.832],[-70.028,-17.729],[-70.003,-17.635],[-69.976,-17.557],[-69.95,-17.497],[-69.925,-17.451],[-69.902,-17.418],[-69.818,-17.314],[-69.794,-17.277],[-69.767,-17.228],[-69.737,-17.163],[-69.706,-17.082],[-69.675,-16.988],[-69.646,-16.888],[-69.566,-16.576],[-69.537,-16.473],[-69.505,-16.376],[-69.472,-16.289],[-69.439,-16.218],[-69.409,-16.162],[-69.382,-16.12],[-69.313,-16.03],[-69.293,-16.001],[-69.276,-15.968],[-69.264,-15.931],[-69.258,-15.889],[-69.261,-15.844],[-69.275,-15.798],[-69.302,-15.755],[-69.34,-15.714],[-69.388,-15.677],[-69.494,-15.605],[-69.547,-15.565],[-69.595,-15.52],[-69.638,-15.471],[-69.677,-15.418],[-69.775,-15.273],[-69.84,-15.2],[-69.874,-15.171],[-69.909,-15.146],[-69.947,-15.126],[-69.986,-15.111],[-70.028,-15.103],[-70.071,-15.101],[-70.115,-15.107],[-70.159,-15.119],[-70.204,-15.138],[-70.248,-15.162],[-70.293,-15.192],[-70.34,-15.228],[-70.388,-15.272],[-70.44,-15.324],[-70.66,-15.565],[-70.711,-15.615],[-70.804,-15.695],[-70.932,-15.789],[-71.086,-15.889],[-71.16,-15.932],[-71.258,-15.973],[-71.327,-15.993],[-71.417,-16.013],[-71.53,-16.032],[-71.661,-16.047],[-71.802,-16.059],[-71.946,-16.066],[-72.088,-16.068],[-72.363,-16.061],[-72.607,-16.041],[-72.775,-16.016],[-72.868,-15.992],[-72.978,-15.948],[-73.017,-15.936],[-73.143,-15.911],[-73.351,-15.886],[-73.479,-15.876],[-73.893,-15.855],[-74.172,-15.834],[-74.298,-15.818],[-74.405,-15.8],[-74.488,-15.78],[-74.551,-15.76],[-74.597,-15.74],[-74.634,-15.721],[-74.811,-15.594],[-74.9,-15.54],[-75.027,-15.478],[-75.256,-15.377],[-75.323,-15.344],[-75.428,-15.283],[-75.547,-15.195],[-75.651,-15.103],[-75.714,-15.034],[-75.741,-14.994],[-75.763,-14.947],[-75.778,-14.894],[-75.783,-14.834],[-75.776,-14.771],[-75.76,-14.71],[-75.738,-14.655],[-75.653,-14.505],[-75.644,-14.478],[-75.64,-14.453],[-75.642,-14.427],[-75.69,-14.288],[-75.706,-14.226],[-75.721,-14.147],[-75.764,-13.742],[-75.776,-13.665],[-75.791,-13.605],[-75.808,-13.558],[-75.825,-13.519],[-75.884,-13.409],[-75.976,-13.217],[-76.024,-13.127],[-76.099,-13.0],[-71.528,-13.0]],[[-66.421,-28.234],[-66.403,-28.161],[-66.394,-28.095],[-66.395,-28.044],[-66.405,-28.012],[-66.421,-27.998],[-66.443,-28.002],[-66.47,-28.026],[-66.499,-28.068],[-66.528,-28.127],[-66.554,-28.198],[-66.572,-28.271],[-66.581,-28.337],[-66.581,-28.388],[-66.571,-28.42],[-66.554,-28.434],[-66.532,-28.43],[-66.506,-28.406],[-66.477,-28.364],[-66.447,-28.305],[-66.421,-28.234]],[[-67.136,-21.636],[-67.061,-21.639],[-66.985,-21.634],[-66.915,-21.622],[-66.854,-21.606],[-66.803,-21.587],[-66.724,-21.548],[-66.66,-21.507],[-66.596,-21.456],[-66.563,-21.421],[-66.529,-21.376],[-66.495,-21.319],[-66.464,-21.248],[-66.439,-21.169],[-66.424,-21.089],[-66.419,-21.016],[-66.422,-20.955],[-66.432,-20.907],[-66.446,-20.869],[-66.516,-20.744],[-66.597,-20.549],[-66.646,-20.452],[-66.7,-20.379],[-66.872,-20.203],[-66.897,-20.173],[-66.917,-20.142],[-66.93,-20.111],[-66.934,-20.079],[-66.929,-20.047],[-66.915,-20.016],[-66.894,-19.985],[-66.825,-19.896],[-66.809,-19.869],[-66.8,-19.843],[-66.798,-19.818],[-66.803,-19.795],[-66.812,-19.771],[-66.856,-19.68],[-66.871,-19.634],[-66.883,-19.574],[-66.891,-19.501],[-66.894,-19.417],[-66.892,-19.151],[-66.895,-19.077],[-66.902,-19.016],[-66.912,-18.969],[-66.925,-18.933],[-66.939,-18.905],[-66.982,-18.836],[-66.996,-18.807],[-67.009,-18.77],[-67.021,-18.722],[-67.031,-18.661],[-67.056,-18.442],[-67.066,-18.38],[-67.079,-18.33],[-67.093,-18.291],[-67.108,-18.261],[-67.155,-18.184],[-67.17,-18.151],[-67.183,-18.109],[-67.196,-18.054],[-67.229,-17.831],[-67.243,-17.758],[-67.26,-17.696],[-67.28,-17.646],[-67.303,-17.608],[-67.327,-17.576],[-67.352,-17.55],[-67.406,-17.505],[-67.435,-17.485],[-67.467,-17.468],[-67.501,-17.454],[-67.538,-17.446],[-67.577,-17.444],[-67.616,-17.448],[-67.656,-17.457],[-67.771,-17.495],[-67.806,-17.503],[-67.84,-17.505],[-67.871,-17.499],[-67.9,-17.483],[-67.928,-17.457],[-67.954,-17.422],[-68.008,-17.334],[-68.042,-17.289],[-68.082,-17.247],[-68.132,-17.21],[-68.189,-17.178],[-68.369,-17.101],[-68.466,-17.053],[-68.541,-17.005],[-68.735,-16.854],[-68.797,-16.815],[-68.829,-16.803],[-68.861,-16.799],[-68.892,-16.804],[-68.923,-16.821],[-68.952,-16.85],[-68.976,-16.889],[-68.992,-16.936],[-69.0,-16.986],[-68.998,-17.033],[-68.989,-17.076],[-68.974,-17.113],[-68.896,-17.256],[-68.815,-17.453],[-68.794,-17.497],[-68.693,-17.664],[-68.632,-17.792],[-68.606,-17.839],[-68.573,-17.884],[-68.532,-17.924],[-68.483,-17.959],[-68.429,-17.988],[-68.276,-18.055],[-68.243,-18.075],[-68.223,-18.094],[-68.216,-18.113],[-68.224,-18.133],[-68.247,-18.153],[-68.285,-18.174],[-68.528,-18.27],[-68.578,-18.296],[-68.613,-18.321],[-68.632,-18.346],[-68.638,-18.371],[-68.633,-18.395],[-68.62,-18.419],[-68.577,-18.465],[-68.521,-18.512],[-68.454,-18.558],[-68.369,-18.601],[-68.213,-18.66],[-68.161,-18.683],[-68.115,-18.71],[-68.076,-18.744],[-68.046,-18.787],[-68.025,-18.838],[-68.013,-18.898],[-68.008,-18.965],[-68.015,-19.178],[-68.014,-19.247],[-68.008,-19.31],[-67.994,-19.366],[-67.972,-19.413],[-67.943,-19.45],[-67.908,-19.478],[-67.868,-19.501],[-67.736,-19.557],[-67.697,-19.581],[-67.663,-19.61],[-67.639,-19.646],[-67.626,-19.687],[-67.625,-19.732],[-67.635,-19.776],[-67.654,-19.815],[-67.68,-19.846],[-67.709,-19.867],[-67.74,-19.879],[-67.77,-19.881],[-67.8,-19.877],[-67.828,-19.867],[-67.908,-19.825],[-67.935,-19.815],[-67.962,-19.81],[-67.991,-19.812],[-68.022,-19.825],[-68.054,-19.85],[-68.086,-19.892],[-68.117,-19.951],[-68.143,-20.024],[-68.16,-20.104],[-68.166,-20.182],[-68.161,-20.25],[-68.148,-20.305],[-68.13,-20.348],[-68.109,-20.383],[-68.085,-20.411],[-68.06,-20.436],[-68.005,-20.479],[-67.975,-20.498],[-67.942,-20.513],[-67.906,-20.524],[-67.868,-20.529],[-67.828,-20.527],[-67.788,-20.52],[-67.633,-20.472],[-67.599,-20.469],[-67.569,-20.474],[-67.543,-20.49],[-67.525,-20.519],[-67.516,-20.559],[-67.519,-20.609],[-67.533,-20.663],[-67.556,-20.714],[-67.585,-20.761],[-67.669,-20.864],[-67.689,-20.891],[-67.702,-20.917],[-67.708,-20.943],[-67.708,-20.969],[-67.701,-20.996],[-67.628,-21.14],[-67.533,-21.36],[-67.508,-21.407],[-67.459,-21.477],[-67.434,-21.504],[-67.381,-21.55],[-67.349,-21.572],[-67.311,-21.592],[-67.264,-21.611],[-67.205,-21.626],[-67.136,-21.636]],[[-67.129,-31.135],[-67.151,-31.209],[-67.162,-31.276],[-67.163,-31.328],[-67.155,-31.361],[-67.138,-31.375],[-67.116,-31.371],[-67.088,-31.347],[-67.057,-31.304],[-67.025,-31.244],[-66.996,-31.172],[-66.975,-31.098],[-66.963,-31.031],[-66.963,-30.979],[-66.971,-30.946],[-66.988,-30.932],[-67.01,-30.937],[-67.038,-30.96],[-67.069,-31.003],[-67.1,-31.063],[-67.129,-31.135]],[[-68.135,-30.945],[-68.113,-30.87],[-68.101,-30.804],[-68.101,-30.752],[-68.109,-30.719],[-68.125,-30.704],[-68.148,-30.709],[-68.176,-30.733],[-68.207,-30.775],[-68.238,-30.835],[-68.267,-30.907],[-68.289,-30.981],[-68.301,-31.048],[-68.302,-31.1],[-68.293,-31.133],[-68.277,-31.147],[-68.254,-31.143],[-68.227,-31.119],[-68.195,-31.076],[-68.163,-31.016],[-68.135,-30.945]],[[-68.243,-16.617],[-68.259,-16.595],[-68.279,-16.585],[-68.301,-16.587],[-68.325,-16.601],[-68.348,-16.627],[-68.367,-16.663],[-68.381,-16.705],[-68.387,-16.75],[-68.385,-16.791],[-68.375,-16.824],[-68.359,-16.846],[-68.339,-16.856],[-68.316,-16.854],[-68.293,-16.84],[-68.27,-16.814],[-68.251,-16.778],[-68.237,-16.735],[-68.231,-16.691],[-68.233,-16.65],[-68.243,-16.617]],[[-68.656,-16.187],[-68.714,-16.153],[-68.743,-16.144],[-68.772,-16.142],[-68.802,-16.149],[-68.831,-16.165],[-68.858,-16.19],[-68.881,-16.224],[-68.897,-16.265],[-68.903,-16.309],[-68.897,-16.352],[-68.879,-16.391],[-68.847,-16.423],[-68.804,-16.446],[-68.751,-16.46],[-68.692,-16.465],[-68.634,-16.462],[-68.582,-16.452],[-68.539,-16.437],[-68.508,-16.418],[-68.49,-16.397],[-68.483,-16.375],[-68.487,-16.353],[-68.5,-16.329],[-68.543,-16.282],[-68.656,-16.187]],[[-69.269,-35.574],[-69.239,-35.577],[-69.206,-35.57],[-69.169,-35.549],[-69.128,-35.513],[-69.083,-35.458],[-69.04,-35.385],[-69.002,-35.3],[-68.975,-35.212],[-68.962,-35.133],[-68.961,-35.067],[-68.97,-35.015],[-68.984,-34.974],[-69.002,-34.942],[-69.043,-34.889],[-69.086,-34.845],[-69.134,-34.811],[-69.16,-34.802],[-69.189,-34.799],[-69.222,-34.806],[-69.259,-34.826],[-69.3,-34.863],[-69.344,-34.917],[-69.387,-34.99],[-69.425,-35.075],[-69.451,-35.163],[-69.465,-35.242],[-69.466,-35.308],[-69.458,-35.36],[-69.444,-35.401],[-69.426,-35.434],[-69.385,-35.487],[-69.342,-35.531],[-69.295,-35.564],[-69.269,-35.574]]],[[[-66.009,-29.805],[-66.035,-29.819],[-66.059,-29.822],[-66.079,-29.811],[-66.092,-29.788],[-66.098,-29.753],[-66.095,-29.71],[-66.082,-29.663],[-66.062,-29.618],[-66.037,-29.58],[-66.01,-29.553],[-65.984,-29.539],[-65.96,-29.537],[-65.94,-29.547],[-65.926,-29.57],[-65.921,-29.605],[-65.924,-29.648],[-65.936,-29.695],[-65.956,-29.74],[-65.982,-29.778],[-66.009,-29.805]]],[[[-66.336,-31.851],[-66.364,-31.866],[-66.388,-31.868],[-66.407,-31.857],[-66.42,-31.834],[-66.425,-31.799],[-66.421,-31.755],[-66.407,-31.708],[-66.386,-31.662],[-66.36,-31.624],[-66.332,-31.597],[-66.304,-31.582],[-66.28,-31.58],[-66.261,-31.59],[-66.248,-31.614],[-66.242,-31.649],[-66.247,-31.692],[-66.26,-31.74],[-66.282,-31.785],[-66.308,-31.823],[-66.336,-31.851]]],[[[-67.443,-56.102],[-67.481,-56.121],[-67.511,-56.123],[-67.529,-56.11],[-67.535,-56.08],[-67.526,-56.035],[-67.503,-55.98],[-67.467,-55.919],[-67.422,-55.861],[-67.375,-55.812],[-67.331,-55.777],[-67.292,-55.758],[-67.263,-55.756],[-67.244,-55.769],[-67.238,-55.799],[-67.247,-55.843],[-67.27,-55.899],[-67.306,-55.96],[-67.351,-56.018],[-67.398,-56.067],[-67.443,-56.102]]]]}}]}