{"type": "FeatureCollection", "features": [{"type": "Feature", "geometry": {"type": "Point", "coordinates": [-71.583769, -30.828747]}, "properties": {"caso": "1", "fecha": "Jan-01", "anio": "2019", "proyecto": "Parque Eolico Talinay", "sexo": "H", "edad": "Adulto", "aerogenerador": "TO04", "region": "Coquimbo"}}, {"type": "Feature", "geometry": {"type": "Point", "coordinates": [-71.565325, -30.854773]}, "properties": {"caso": "2", "fecha": "Jan-20", "anio": "2020", "proyecto": "Parque Eolico Talinay", "sexo": "H", "edad": "3 anios", "aerogenerador": "TO32", "region": "Coquimbo"}}, {"type": "Feature", "geometry": {"type": "Point", "coordinates": [-71.601295, -31.313758]}, "properties": {"caso": "3", "fecha": "May-21", "anio": "2021", "proyecto": "Parque Eolico Canela II", "sexo": "H", "edad": "Adulto", "aerogenerador": "I5", "region": "Coquimbo"}}, {"type": "Feature", "geometry": {"type": "Point", "coordinates": [-71.611535, -34.151032]}, "properties": {"caso": "4", "fecha": "Aug-21", "anio": "2021", "proyecto": "La Estrella", "sexo": "H", "edad": "4 anios", "aerogenerador": "E5", "region": "O'Higgins"}}, {"type": "Feature", "geometry": {"type": "Point", "coordinates": [-71.643859, -31.018254]}, "properties": {"caso": "5", "fecha": "Aug-21", "anio": "2021", "proyecto": "Los Cururos", "sexo": "H", "edad": "2 anios", "aerogenerador": "C14", "region": "Coquimbo"}}, {"type": "Feature", "geometry": {"type": "Point", "coordinates": [-71.573988, -30.843661]}, "properties": {"caso": "6", "fecha": "Nov-21", "anio": "2021", "proyecto": "Talinay", "sexo": "H", "edad": "3 anios", "aerogenerador": "TO21", "region": "Coquimbo"}}, {"type": "Feature", "geometry": {"type": "Point", "coordinates": [-71.563254, -30.855103]}, "properties": {"caso": "7", "fecha": "Nov-21", "anio": "2021", "proyecto": "Talinay", "sexo": "H", "edad": "2 anios", "aerogenerador": "TO33", "region": "Coquimbo"}}, {"type": "Feature", "geometry": {"type": "Point", "coordinates": [-71.57598, -30.843125]}, "properties": {"caso": "8", "fecha": "Jan-22", "anio": "2022", "proyecto": "Talinay", "sexo": "H", "edad": "2 anios", "aerogenerador": "TO20", "region": "Coquimbo"}}, {"type": "Feature", "geometry": {"type": "Point", "coordinates": [-71.627817, -31.032398]}, "properties": {"caso": "9", "fecha": "May-22", "anio": "2022", "proyecto": "Los Cururos", "sexo": "H", "edad": "1 anio", "aerogenerador": "C8", "region": "Coquimbo"}}, {"type": "Feature", "geometry": {"type": "Point", "coordinates": [-71.552166, -30.855647]}, "properties": {"caso": "10", "fecha": "Jun-22", "anio": "2022", "proyecto": "Talinay", "sexo": "H", "edad": "Adulto", "aerogenerador": "TO35", "region": "Coquimbo"}}, {"type": "Feature", "geometry": {"type": "Point", "coordinates": [-71.412861, -28.861724]}, "properties": {"caso": "11", "fecha": "Aug-22", "anio": "2022", "proyecto": "Sarco", "sexo": "H", "edad": "3 anios", "aerogenerador": "WTG07", "region": "Atacama"}}, {"type": "Feature", "geometry": {"type": "Point", "coordinates": [-71.638327, -31.136466]}, "properties": {"caso": "12", "fecha": "Aug-22", "anio": "2022", "proyecto": "Punta Sierra", "sexo": "M", "edad": "5 anios", "aerogenerador": "", "region": "Coquimbo"}}, {"type": "Feature", "geometry": {"type": "Point", "coordinates": [-71.597034, -34.153765]}, "properties": {"caso": "13", "fecha": "Sep-22", "anio": "2022", "proyecto": "La Estrella", "sexo": "H", "edad": "4 anios", "aerogenerador": "E8", "region": "O'Higgins"}}, {"type": "Feature", "geometry": {"type": "Point", "coordinates": [-71.598144, -30.869992]}, "properties": {"caso": "14", "fecha": "Sep-22", "anio": "2022", "proyecto": "Talinay", "sexo": "M", "edad": "6 anios", "aerogenerador": "TO41", "region": "Coquimbo"}}, {"type": "Feature", "geometry": {"type": "Point", "coordinates": [-71.571937, -30.844369]}, "properties": {"caso": "15", "fecha": "Feb-23", "anio": "2023", "proyecto": "Talinay", "sexo": "H", "edad": "Adulto", "aerogenerador": "TO22", "region": "Coquimbo"}}, {"type": "Feature", "geometry": {"type": "Point", "coordinates": [-71.585159, -30.838884]}, "properties": {"caso": "16", "fecha": "May-23", "anio": "2023", "proyecto": "Talinay", "sexo": "H", "edad": "2 anios", "aerogenerador": "TO15", "region": "Coquimbo"}}, {"type": "Feature", "geometry": {"type": "Point", "coordinates": [-71.630583, -34.149841]}, "properties": {"caso": "17", "fecha": "Sep-23", "anio": "2023", "proyecto": "La Estrella", "sexo": "H", "edad": "2 anios", "aerogenerador": "E1", "region": "O'Higgins"}}, {"type": "Feature", "geometry": {"type": "Point", "coordinates": [-71.578164, -30.839952]}, "properties": {"caso": "18", "fecha": "Nov-23", "anio": "2023", "proyecto": "Talinay", "sexo": "H", "edad": "3 anios", "aerogenerador": "TO18", "region": "Coquimbo"}}, {"type": "Feature", "geometry": {"type": "Point", "coordinates": [-71.611535, -34.151032]}, "properties": {"caso": "19", "fecha": "May-24", "anio": "2024", "proyecto": "La Estrella", "sexo": "M", "edad": "Adulto", "aerogenerador": "E5", "region": "O'Higgins"}}, {"type": "Feature", "geometry": {"type": "Point", "coordinates": [-71.438846, -28.876854]}, "properties": {"caso": "20", "fecha": "Jun-24", "anio": "2024", "proyecto": "Sarco", "sexo": "H", "edad": "Adulto", "aerogenerador": "WTG25", "region": "Atacama"}}, {"type": "Feature", "geometry": {"type": "Point", "coordinates": [-71.630997, -34.129999]}, "properties": {"caso": "21", "fecha": "Aug-24", "anio": "2024", "proyecto": "Cerrillos", "sexo": "H", "edad": "4 anios", "aerogenerador": "", "region": "O'Higgins"}}, {"type": "Feature", "geometry": {"type": "Point", "coordinates": [-71.430654, -28.91945]}, "properties": {"caso": "22", "fecha": "Sep-24", "anio": "2024", "proyecto": "Parque Eolico Cabo Leones", "sexo": "", "edad": "", "aerogenerador": "64", "region": "Atacama"}}, {"type": "Feature", "geometry": {"type": "Point", "coordinates": [-71.578444, -30.839505]}, "properties": {"caso": "23", "fecha": "Oct-24", "anio": "2024", "proyecto": "Talinay", "sexo": "M", "edad": "Adulto", "aerogenerador": "TO18", "region": "Coquimbo"}}, {"type": "Feature", "geometry": {"type": "Point", "coordinates": [-71.629806, -34.104845]}, "properties": {"caso": "24", "fecha": "Oct-24", "anio": "2024", "proyecto": "Manantiales", "sexo": "H", "edad": "Adulto", "aerogenerador": "", "region": "O'Higgins"}}, {"type": "Feature", "geometry": {"type": "Point", "coordinates": [-71.449007, -28.852122]}, "properties": {"caso": "25", "fecha": "Nov-24", "anio": "2024", "proyecto": "Sarco", "sexo": "H", "edad": "2 anios", "aerogenerador": "WTG40", "region": "Atacama"}}, {"type": "Feature", "geometry": {"type": "Point", "coordinates": [-71.611535, -34.151032]}, "properties": {"caso": "26", "fecha": "Apr-25", "anio": "2025", "proyecto": "La Estrella", "sexo": "", "edad": "Adulto", "aerogenerador": "E5", "region": "O'Higgins"}}, {"type": "Feature", "geometry": {"type": "Point", "coordinates": [-71.596285, -30.870859]}, "properties": {"caso": "27", "fecha": "Sep-25", "anio": "2025", "proyecto": "Talinay", "sexo": "M", "edad": "Adulto", "aerogenerador": "TO42", "region": "Coquimbo"}}, {"type": "Feature", "geometry": {"type": "Point", "coordinates": [-71.613405, -31.025864]}, "properties": {"caso": "28", "fecha": "Oct-25", "anio": "2025", "proyecto": "Los Cururos", "sexo": "H", "edad": "3 anios", "aerogenerador": "A4", "region": "Coquimbo"}}, {"type": "Feature", "geometry": {"type": "Point", "coordinates": [-71.595699, -30.870853]}, "properties": {"caso": "29", "fecha": "Nov-25", "anio": "2025", "proyecto": "Talinay", "sexo": "H", "edad": "3 anios", "aerogenerador": "", "region": "Coquimbo"}}]}