{"type":"FeatureCollection","features":[{"type":"Feature","geometry":{"type":"Polygon","coordinates":[[[-71.58377,-30.73881],[-71.57351,-30.73925],[-71.56336,-30.74054],[-71.55339,-30.74268],[-71.54373,-30.74565],[-71.53444,-30.74942],[-71.52563,-30.75396],[-71.51738,-30.75921],[-71.50976,-30.76513],[-71.50286,-30.77167],[-71.49673,-30.77875],[-71.49145,-30.78632],[-71.48705,-30.7943],[-71.48358,-30.8026],[-71.48107,-30.81116],[-71.47955,-30.81989],[-71.47904,-30.8287],[-71.47953,-30.83752],[-71.48103,-30.84625],[-71.48352,-30.85481],[-71.48698,-30.86313],[-71.49136,-30.87111],[-71.49664,-30.87868],[-71.50276,-30.88577],[-71.50966,-30.89232],[-71.51728,-30.89825],[-71.52554,-30.90351],[-71.53436,-30.90805],[-71.54366,-30.91183],[-71.55334,-30.9148],[-71.56332,-30.91695],[-71.57349,-30.91825],[-71.58377,-30.91868],[-71.59404,-30.91825],[-71.60422,-30.91695],[-71.6142,-30.9148],[-71.62388,-30.91183],[-71.63318,-30.90805],[-71.642,-30.90351],[-71.65026,-30.89825],[-71.65787,-30.89232],[-71.66477,-30.88577],[-71.67089,-30.87868],[-71.67617,-30.87111],[-71.68056,-30.86313],[-71.68402,-30.85481],[-71.68651,-30.84625],[-71.688,-30.83752],[-71.6885,-30.8287],[-71.68799,-30.81989],[-71.68647,-30.81116],[-71.68396,-30.8026],[-71.68049,-30.7943],[-71.67609,-30.78632],[-71.6708,-30.77875],[-71.66468,-30.77167],[-71.65778,-30.76513],[-71.65016,-30.75921],[-71.64191,-30.75396],[-71.6331,-30.74942],[-71.62381,-30.74565],[-71.61414,-30.74268],[-71.60418,-30.74054],[-71.59402,-30.73925],[-71.58377,-30.73881]]]},"properties":{"caso":"1","fecha":"Jan-01","anio":"2019","proyecto":"Parque Eolico Talinay","sexo":"H","edad":"Adulto","aerogenerador":"TO04","region":"Coquimbo","radio_km":10.0}},{"type":"Feature","geometry":{"type":"Polygon","coordinates":[[[-71.56533,-30.76484],[-71.55507,-30.76527],[-71.54491,-30.76657],[-71.53494,-30.76871],[-71.52527,-30.77168],[-71.51598,-30.77545],[-71.50717,-30.77998],[-71.49892,-30.78524],[-71.4913,-30.79116],[-71.48439,-30.7977],[-71.47827,-30.80478],[-71.47298,-30.81235],[-71.46858,-30.82032],[-71.4651,-30.82863],[-71.4626,-30.83719],[-71.46108,-30.84592],[-71.46057,-30.85473],[-71.46106,-30.86355],[-71.46256,-30.87228],[-71.46505,-30.88084],[-71.46851,-30.88915],[-71.4729,-30.89713],[-71.47818,-30.90471],[-71.4843,-30.9118],[-71.4912,-30.91834],[-71.49882,-30.92427],[-71.50708,-30.92954],[-71.5159,-30.93408],[-71.5252,-30.93785],[-71.53489,-30.94083],[-71.54487,-30.94298],[-71.55505,-30.94427],[-71.56533,-30.94471],[-71.5756,-30.94427],[-71.58578,-30.94298],[-71.59576,-30.94083],[-71.60545,-30.93785],[-71.61475,-30.93408],[-71.62357,-30.92954],[-71.63183,-30.92427],[-71.63945,-30.91834],[-71.64635,-30.9118],[-71.65247,-30.90471],[-71.65775,-30.89713],[-71.66214,-30.88915],[-71.6656,-30.88084],[-71.66809,-30.87228],[-71.66959,-30.86355],[-71.67008,-30.85473],[-71.66957,-30.84592],[-71.66805,-30.83719],[-71.66555,-30.82863],[-71.66207,-30.82032],[-71.65767,-30.81235],[-71.65238,-30.80478],[-71.64626,-30.7977],[-71.63935,-30.79116],[-71.63173,-30.78524],[-71.62348,-30.77998],[-71.61467,-30.77545],[-71.60538,-30.77168],[-71.59571,-30.76871],[-71.58574,-30.76657],[-71.57558,-30.76527],[-71.56533,-30.76484]]]},"properties":{"caso":"2","fecha":"Jan-20","anio":"2020","proyecto":"Parque Eolico Talinay","sexo":"H","edad":"3 anios","aerogenerador":"TO32","region":"Coquimbo","radio_km":10.0}},{"type":"Feature","geometry":{"type":"Polygon","coordinates":[[[-71.60129,-31.22383],[-71.59099,-31.22426],[-71.58078,-31.22555],[-71.57077,-31.22769],[-71.56105,-31.23067],[-71.55171,-31.23444],[-71.54286,-31.23897],[-71.53456,-31.24422],[-71.52691,-31.25015],[-71.51997,-31.25668],[-71.51382,-31.26376],[-71.5085,-31.27133],[-71.50408,-31.27931],[-71.50059,-31.28761],[-71.49807,-31.29617],[-71.49655,-31.3049],[-71.49603,-31.31372],[-71.49653,-31.32253],[-71.49803,-31.33126],[-71.50053,-31.33982],[-71.50401,-31.34814],[-71.50842,-31.35612],[-71.51372,-31.36369],[-71.51987,-31.37078],[-71.52681,-31.37733],[-71.53447,-31.38326],[-71.54277,-31.38852],[-71.55163,-31.39306],[-71.56098,-31.39684],[-71.57071,-31.39981],[-71.58074,-31.40196],[-71.59097,-31.40326],[-71.60129,-31.40369],[-71.61162,-31.40326],[-71.62185,-31.40196],[-71.63188,-31.39981],[-71.64161,-31.39684],[-71.65096,-31.39306],[-71.65982,-31.38852],[-71.66812,-31.38326],[-71.67578,-31.37733],[-71.68272,-31.37078],[-71.68887,-31.36369],[-71.69417,-31.35612],[-71.69858,-31.34814],[-71.70206,-31.33982],[-71.70456,-31.33126],[-71.70606,-31.32253],[-71.70656,-31.31372],[-71.70604,-31.3049],[-71.70452,-31.29617],[-71.702,-31.28761],[-71.69851,-31.27931],[-71.69409,-31.27133],[-71.68877,-31.26376],[-71.68262,-31.25668],[-71.67568,-31.25015],[-71.66803,-31.24422],[-71.65973,-31.23897],[-71.65088,-31.23444],[-71.64154,-31.23067],[-71.63182,-31.22769],[-71.62181,-31.22555],[-71.6116,-31.22426],[-71.60129,-31.22383]]]},"properties":{"caso":"3","fecha":"May-21","anio":"2021","proyecto":"Parque Eolico Canela II","sexo":"H","edad":"Adulto","aerogenerador":"I5","region":"Coquimbo","radio_km":10.0}},{"type":"Feature","geometry":{"type":"Polygon","coordinates":[[[-71.61154,-34.0611],[-71.60089,-34.06153],[-71.59036,-34.06283],[-71.58002,-34.06497],[-71.56999,-34.06794],[-71.56036,-34.07171],[-71.55121,-34.07624],[-71.54265,-34.08149],[-71.53475,-34.08742],[-71.52759,-34.09395],[-71.52123,-34.10104],[-71.51574,-34.1086],[-71.51118,-34.11658],[-71.50758,-34.12488],[-71.50497,-34.13344],[-71.5034,-34.14217],[-71.50286,-34.15098],[-71.50338,-34.1598],[-71.50493,-34.16853],[-71.50751,-34.17709],[-71.51109,-34.18541],[-71.51565,-34.19339],[-71.52112,-34.20096],[-71.52747,-34.20806],[-71.53463,-34.2146],[-71.54254,-34.22053],[-71.55111,-34.22579],[-71.56026,-34.23033],[-71.56991,-34.23411],[-71.57996,-34.23709],[-71.59031,-34.23923],[-71.60087,-34.24053],[-71.61154,-34.24096],[-71.6222,-34.24053],[-71.63276,-34.23923],[-71.64311,-34.23709],[-71.65316,-34.23411],[-71.66281,-34.23033],[-71.67196,-34.22579],[-71.68053,-34.22053],[-71.68844,-34.2146],[-71.6956,-34.20806],[-71.70195,-34.20096],[-71.70742,-34.19339],[-71.71198,-34.18541],[-71.71556,-34.17709],[-71.71814,-34.16853],[-71.71969,-34.1598],[-71.72021,-34.15098],[-71.71967,-34.14217],[-71.7181,-34.13344],[-71.71549,-34.12488],[-71.71189,-34.11658],[-71.70733,-34.1086],[-71.70184,-34.10104],[-71.69548,-34.09395],[-71.68832,-34.08742],[-71.68042,-34.08149],[-71.67186,-34.07624],[-71.66271,-34.07171],[-71.65308,-34.06794],[-71.64305,-34.06497],[-71.63271,-34.06283],[-71.62218,-34.06153],[-71.61154,-34.0611]]]},"properties":{"caso":"4","fecha":"Aug-21","anio":"2021","proyecto":"La Estrella","sexo":"H","edad":"4 anios","aerogenerador":"E5","region":"O'Higgins","radio_km":10.0}},{"type":"Feature","geometry":{"type":"Polygon","coordinates":[[[-71.64386,-30.92832],[-71.63358,-30.92875],[-71.62341,-30.93005],[-71.61342,-30.93219],[-71.60374,-30.93516],[-71.59443,-30.93893],[-71.5856,-30.94347],[-71.57734,-30.94872],[-71.56971,-30.95464],[-71.56279,-30.96118],[-71.55665,-30.96826],[-71.55135,-30.97583],[-71.54694,-30.9838],[-71.54347,-30.99211],[-71.54096,-31.00067],[-71.53944,-31.0094],[-71.53892,-31.01821],[-71.53942,-31.02703],[-71.54092,-31.03576],[-71.54341,-31.04432],[-71.54687,-31.05263],[-71.55127,-31.06061],[-71.55656,-31.06819],[-71.56269,-31.07528],[-71.56961,-31.08182],[-71.57724,-31.08776],[-71.58551,-31.09302],[-71.59435,-31.09756],[-71.60367,-31.10133],[-71.61337,-31.10431],[-71.62337,-31.10646],[-71.63356,-31.10775],[-71.64386,-31.10819],[-71.65415,-31.10775],[-71.66435,-31.10646],[-71.67435,-31.10431],[-71.68405,-31.10133],[-71.69337,-31.09756],[-71.70221,-31.09302],[-71.71048,-31.08776],[-71.71811,-31.08182],[-71.72503,-31.07528],[-71.73116,-31.06819],[-71.73645,-31.06061],[-71.74084,-31.05263],[-71.74431,-31.04432],[-71.7468,-31.03576],[-71.7483,-31.02703],[-71.7488,-31.01821],[-71.74828,-31.0094],[-71.74676,-31.00067],[-71.74425,-30.99211],[-71.74077,-30.9838],[-71.73636,-30.97583],[-71.73107,-30.96826],[-71.72493,-30.96118],[-71.71801,-30.95464],[-71.71038,-30.94872],[-71.70211,-30.94347],[-71.69329,-30.93893],[-71.68398,-30.93516],[-71.67429,-30.93219],[-71.66431,-30.93005],[-71.65414,-30.92875],[-71.64386,-30.92832]]]},"properties":{"caso":"5","fecha":"Aug-21","anio":"2021","proyecto":"Los Cururos","sexo":"H","edad":"2 anios","aerogenerador":"C14","region":"Coquimbo","radio_km":10.0}},{"type":"Feature","geometry":{"type":"Polygon","coordinates":[[[-71.57399,-30.75373],[-71.56373,-30.75416],[-71.55357,-30.75546],[-71.54361,-30.7576],[-71.53394,-30.76057],[-71.52465,-30.76434],[-71.51584,-30.76887],[-71.50759,-30.77413],[-71.49997,-30.78005],[-71.49307,-30.78658],[-71.48694,-30.79367],[-71.48165,-30.80123],[-71.47725,-30.80921],[-71.47378,-30.81752],[-71.47127,-30.82608],[-71.46976,-30.8348],[-71.46924,-30.84362],[-71.46974,-30.85243],[-71.47124,-30.86117],[-71.47372,-30.86973],[-71.47718,-30.87804],[-71.48157,-30.88602],[-71.48685,-30.8936],[-71.49297,-30.90069],[-71.49987,-30.90723],[-71.50749,-30.91316],[-71.51575,-30.91842],[-71.52457,-30.92296],[-71.53387,-30.92674],[-71.54355,-30.92972],[-71.55353,-30.93186],[-71.56371,-30.93316],[-71.57399,-30.93359],[-71.58426,-30.93316],[-71.59444,-30.93186],[-71.60442,-30.92972],[-71.61411,-30.92674],[-71.62341,-30.92296],[-71.63223,-30.91842],[-71.64049,-30.91316],[-71.6481,-30.90723],[-71.65501,-30.90069],[-71.66113,-30.8936],[-71.66641,-30.88602],[-71.6708,-30.87804],[-71.67425,-30.86973],[-71.67674,-30.86117],[-71.67824,-30.85243],[-71.67873,-30.84362],[-71.67822,-30.8348],[-71.6767,-30.82608],[-71.6742,-30.81752],[-71.67073,-30.80921],[-71.66633,-30.80123],[-71.66104,-30.79367],[-71.65491,-30.78658],[-71.64801,-30.78005],[-71.64039,-30.77413],[-71.63214,-30.76887],[-71.62332,-30.76434],[-71.61404,-30.76057],[-71.60437,-30.7576],[-71.5944,-30.75546],[-71.58425,-30.75416],[-71.57399,-30.75373]]]},"properties":{"caso":"6","fecha":"Nov-21","anio":"2021","proyecto":"Talinay","sexo":"H","edad":"3 anios","aerogenerador":"TO21","region":"Coquimbo","radio_km":10.0}},{"type":"Feature","geometry":{"type":"Polygon","coordinates":[[[-71.56325,-30.76517],[-71.553,-30.7656],[-71.54284,-30.7669],[-71.53287,-30.76904],[-71.5232,-30.77201],[-71.51391,-30.77578],[-71.5051,-30.78031],[-71.49684,-30.78557],[-71.48923,-30.79149],[-71.48232,-30.79803],[-71.4762,-30.80511],[-71.47091,-30.81268],[-71.4665,-30.82065],[-71.46303,-30.82896],[-71.46053,-30.83752],[-71.45901,-30.84625],[-71.4585,-30.85506],[-71.45899,-30.86388],[-71.46049,-30.87261],[-71.46298,-30.88117],[-71.46643,-30.88948],[-71.47082,-30.89746],[-71.4761,-30.90504],[-71.48223,-30.91213],[-71.48913,-30.91867],[-71.49675,-30.9246],[-71.50501,-30.92987],[-71.51383,-30.93441],[-71.52313,-30.93818],[-71.53282,-30.94116],[-71.5428,-30.94331],[-71.55298,-30.9446],[-71.56325,-30.94504],[-71.57353,-30.9446],[-71.58371,-30.94331],[-71.59369,-30.94116],[-71.60338,-30.93818],[-71.61268,-30.93441],[-71.6215,-30.92987],[-71.62976,-30.9246],[-71.63738,-30.91867],[-71.64428,-30.91213],[-71.6504,-30.90504],[-71.65568,-30.89746],[-71.66007,-30.88948],[-71.66353,-30.88117],[-71.66602,-30.87261],[-71.66752,-30.86388],[-71.66801,-30.85506],[-71.6675,-30.84625],[-71.66598,-30.83752],[-71.66347,-30.82896],[-71.66,-30.82065],[-71.6556,-30.81268],[-71.65031,-30.80511],[-71.64419,-30.79803],[-71.63728,-30.79149],[-71.62966,-30.78557],[-71.62141,-30.78031],[-71.6126,-30.77578],[-71.60331,-30.77201],[-71.59364,-30.76904],[-71.58367,-30.7669],[-71.57351,-30.7656],[-71.56325,-30.76517]]]},"properties":{"caso":"7","fecha":"Nov-21","anio":"2021","proyecto":"Talinay","sexo":"H","edad":"2 anios","aerogenerador":"TO33","region":"Coquimbo","radio_km":10.0}},{"type":"Feature","geometry":{"type":"Polygon","coordinates":[[[-71.57598,-30.75319],[-71.56572,-30.75363],[-71.55556,-30.75492],[-71.5456,-30.75706],[-71.53593,-30.76003],[-71.52664,-30.7638],[-71.51783,-30.76834],[-71.50958,-30.77359],[-71.50196,-30.77951],[-71.49506,-30.78605],[-71.48893,-30.79313],[-71.48364,-30.8007],[-71.47924,-30.80867],[-71.47577,-30.81698],[-71.47327,-30.82554],[-71.47175,-30.83427],[-71.47123,-30.84308],[-71.47173,-30.8519],[-71.47323,-30.86063],[-71.47572,-30.86919],[-71.47917,-30.8775],[-71.48356,-30.88549],[-71.48884,-30.89306],[-71.49496,-30.90015],[-71.50186,-30.9067],[-71.50948,-30.91263],[-71.51774,-30.91789],[-71.52656,-30.92243],[-71.53586,-30.92621],[-71.54555,-30.92918],[-71.55553,-30.93133],[-71.5657,-30.93262],[-71.57598,-30.93306],[-71.58626,-30.93262],[-71.59643,-30.93133],[-71.60641,-30.92918],[-71.6161,-30.92621],[-71.6254,-30.92243],[-71.63422,-30.91789],[-71.64248,-30.91263],[-71.6501,-30.9067],[-71.657,-30.90015],[-71.66312,-30.89306],[-71.6684,-30.88549],[-71.67279,-30.8775],[-71.67624,-30.86919],[-71.67873,-30.86063],[-71.68023,-30.8519],[-71.68073,-30.84308],[-71.68021,-30.83427],[-71.67869,-30.82554],[-71.67619,-30.81698],[-71.67272,-30.80867],[-71.66832,-30.8007],[-71.66303,-30.79313],[-71.6569,-30.78605],[-71.65,-30.77951],[-71.64238,-30.77359],[-71.63413,-30.76834],[-71.62532,-30.7638],[-71.61603,-30.76003],[-71.60636,-30.75706],[-71.5964,-30.75492],[-71.58624,-30.75363],[-71.57598,-30.75319]]]},"properties":{"caso":"8","fecha":"Jan-22","anio":"2022","proyecto":"Talinay","sexo":"H","edad":"2 anios","aerogenerador":"TO20","region":"Coquimbo","radio_km":10.0}},{"type":"Feature","geometry":{"type":"Polygon","coordinates":[[[-71.62782,-30.94247],[-71.61754,-30.9429],[-71.60736,-30.94419],[-71.59738,-30.94633],[-71.58769,-30.94931],[-71.57838,-30.95308],[-71.56955,-30.95761],[-71.56128,-30.96286],[-71.55365,-30.96879],[-71.54674,-30.97532],[-71.5406,-30.98241],[-71.5353,-30.98997],[-71.53089,-30.99795],[-71.52741,-31.00625],[-71.5249,-31.01481],[-71.52338,-31.02354],[-71.52286,-31.03236],[-71.52336,-31.04117],[-71.52486,-31.0499],[-71.52736,-31.05846],[-71.53082,-31.06678],[-71.53522,-31.07476],[-71.54051,-31.08233],[-71.54664,-31.08942],[-71.55355,-31.09597],[-71.56119,-31.1019],[-71.56946,-31.10716],[-71.5783,-31.1117],[-71.58762,-31.11548],[-71.59732,-31.11845],[-71.60732,-31.1206],[-71.61752,-31.1219],[-71.62782,-31.12233],[-71.63811,-31.1219],[-71.64831,-31.1206],[-71.65831,-31.11845],[-71.66802,-31.11548],[-71.67733,-31.1117],[-71.68617,-31.10716],[-71.69445,-31.1019],[-71.70208,-31.09597],[-71.709,-31.08942],[-71.71513,-31.08233],[-71.72042,-31.07476],[-71.72482,-31.06678],[-71.72828,-31.05846],[-71.73077,-31.0499],[-71.73227,-31.04117],[-71.73277,-31.03236],[-71.73226,-31.02354],[-71.73073,-31.01481],[-71.72822,-31.00625],[-71.72475,-30.99795],[-71.72034,-30.98997],[-71.71504,-30.98241],[-71.7089,-30.97532],[-71.70198,-30.96879],[-71.69435,-30.96286],[-71.68608,-30.95761],[-71.67725,-30.95308],[-71.66795,-30.94931],[-71.65826,-30.94633],[-71.64827,-30.94419],[-71.63809,-30.9429],[-71.62782,-30.94247]]]},"properties":{"caso":"9","fecha":"May-22","anio":"2022","proyecto":"Los Cururos","sexo":"H","edad":"1 anio","aerogenerador":"C8","region":"Coquimbo","radio_km":10.0}},{"type":"Feature","geometry":{"type":"Polygon","coordinates":[[[-71.55217,-30.76571],[-71.54191,-30.76615],[-71.53175,-30.76744],[-71.52178,-30.76958],[-71.51211,-30.77255],[-71.50282,-30.77632],[-71.49401,-30.78086],[-71.48576,-30.78611],[-71.47814,-30.79203],[-71.47123,-30.79857],[-71.46511,-30.80565],[-71.45982,-30.81322],[-71.45542,-30.8212],[-71.45194,-30.8295],[-71.44944,-30.83806],[-71.44792,-30.84679],[-71.44741,-30.8556],[-71.4479,-30.86442],[-71.4494,-30.87315],[-71.45189,-30.88171],[-71.45535,-30.89003],[-71.45974,-30.89801],[-71.46502,-30.90558],[-71.47114,-30.91267],[-71.47804,-30.91922],[-71.48566,-30.92515],[-71.49392,-30.93041],[-71.50274,-30.93495],[-71.51204,-30.93873],[-71.52173,-30.9417],[-71.53171,-30.94385],[-71.54189,-30.94515],[-71.55217,-30.94558],[-71.56244,-30.94515],[-71.57262,-30.94385],[-71.5826,-30.9417],[-71.59229,-30.93873],[-71.60159,-30.93495],[-71.61041,-30.93041],[-71.61867,-30.92515],[-71.62629,-30.91922],[-71.63319,-30.91267],[-71.63932,-30.90558],[-71.6446,-30.89801],[-71.64899,-30.89003],[-71.65244,-30.88171],[-71.65493,-30.87315],[-71.65643,-30.86442],[-71.65693,-30.8556],[-71.65641,-30.84679],[-71.65489,-30.83806],[-71.65239,-30.8295],[-71.64892,-30.8212],[-71.64451,-30.81322],[-71.63922,-30.80565],[-71.6331,-30.79857],[-71.62619,-30.79203],[-71.61858,-30.78611],[-71.61032,-30.78086],[-71.60151,-30.77632],[-71.59222,-30.77255],[-71.58255,-30.76958],[-71.57258,-30.76744],[-71.56242,-30.76615],[-71.55217,-30.76571]]]},"properties":{"caso":"10","fecha":"Jun-22","anio":"2022","proyecto":"Talinay","sexo":"H","edad":"Adulto","aerogenerador":"TO35","region":"Coquimbo","radio_km":10.0}},{"type":"Feature","geometry":{"type":"Polygon","coordinates":[[[-71.41286,-28.77179],[-71.4028,-28.77222],[-71.39284,-28.77352],[-71.38308,-28.77566],[-71.3736,-28.77863],[-71.36449,-28.7824],[-71.35585,-28.78694],[-71.34776,-28.79219],[-71.34029,-28.79811],[-71.33353,-28.80465],[-71.32752,-28.81173],[-71.32234,-28.8193],[-71.31802,-28.82728],[-71.31462,-28.83558],[-71.31216,-28.84414],[-71.31068,-28.85287],[-71.31017,-28.86169],[-71.31066,-28.8705],[-71.31213,-28.87923],[-71.31457,-28.88779],[-71.31796,-28.89611],[-71.32226,-28.90409],[-71.32744,-28.91166],[-71.33344,-28.91875],[-71.34021,-28.9253],[-71.34767,-28.93123],[-71.35577,-28.93649],[-71.36442,-28.94103],[-71.37353,-28.9448],[-71.38303,-28.94778],[-71.39281,-28.94993],[-71.40279,-28.95122],[-71.41286,-28.95166],[-71.42293,-28.95122],[-71.43291,-28.94993],[-71.44269,-28.94778],[-71.45219,-28.9448],[-71.4613,-28.94103],[-71.46995,-28.93649],[-71.47805,-28.93123],[-71.48552,-28.9253],[-71.49228,-28.91875],[-71.49828,-28.91166],[-71.50346,-28.90409],[-71.50776,-28.89611],[-71.51115,-28.88779],[-71.51359,-28.87923],[-71.51506,-28.8705],[-71.51555,-28.86169],[-71.51504,-28.85287],[-71.51356,-28.84414],[-71.5111,-28.83558],[-71.5077,-28.82728],[-71.50339,-28.8193],[-71.4982,-28.81173],[-71.4922,-28.80465],[-71.48543,-28.79811],[-71.47796,-28.79219],[-71.46987,-28.78694],[-71.46123,-28.7824],[-71.45213,-28.77863],[-71.44264,-28.77566],[-71.43288,-28.77352],[-71.42292,-28.77222],[-71.41286,-28.77179]]]},"properties":{"caso":"11","fecha":"Aug-22","anio":"2022","proyecto":"Sarco","sexo":"H","edad":"3 anios","aerogenerador":"WTG07","region":"Atacama","radio_km":10.0}},{"type":"Feature","geometry":{"type":"Polygon","coordinates":[[[-71.63833,-31.04653],[-71.62804,-31.04697],[-71.61785,-31.04826],[-71.60785,-31.0504],[-71.59815,-31.05337],[-71.58884,-31.05714],[-71.58,-31.06168],[-71.57172,-31.06693],[-71.56408,-31.07285],[-71.55716,-31.07939],[-71.55101,-31.08647],[-71.54571,-31.09404],[-71.54129,-31.10201],[-71.53781,-31.11032],[-71.5353,-31.11888],[-71.53377,-31.12761],[-71.53326,-31.13642],[-71.53375,-31.14524],[-71.53526,-31.15397],[-71.53776,-31.16253],[-71.54122,-31.17085],[-71.54562,-31.17883],[-71.55092,-31.1864],[-71.55706,-31.19349],[-71.56398,-31.20004],[-71.57162,-31.20597],[-71.57991,-31.21123],[-71.58876,-31.21577],[-71.59808,-31.21955],[-71.6078,-31.22252],[-71.61781,-31.22467],[-71.62802,-31.22596],[-71.63833,-31.2264],[-71.64864,-31.22596],[-71.65884,-31.22467],[-71.66885,-31.22252],[-71.67857,-31.21955],[-71.6879,-31.21577],[-71.69675,-31.21123],[-71.70503,-31.20597],[-71.71267,-31.20004],[-71.71959,-31.19349],[-71.72573,-31.1864],[-71.73103,-31.17883],[-71.73543,-31.17085],[-71.7389,-31.16253],[-71.7414,-31.15397],[-71.7429,-31.14524],[-71.7434,-31.13642],[-71.74288,-31.12761],[-71.74136,-31.11888],[-71.73884,-31.11032],[-71.73536,-31.10201],[-71.73095,-31.09404],[-71.72564,-31.08647],[-71.7195,-31.07939],[-71.71257,-31.07285],[-71.70493,-31.06693],[-71.69665,-31.06168],[-71.68781,-31.05714],[-71.6785,-31.05337],[-71.6688,-31.0504],[-71.65881,-31.04826],[-71.64862,-31.04697],[-71.63833,-31.04653]]]},"properties":{"caso":"12","fecha":"Aug-22","anio":"2022","proyecto":"Punta Sierra","sexo":"M","edad":"5 anios","aerogenerador":"","region":"Coquimbo","radio_km":10.0}},{"type":"Feature","geometry":{"type":"Polygon","coordinates":[[[-71.59703,-34.06383],[-71.58639,-34.06427],[-71.57585,-34.06556],[-71.56552,-34.0677],[-71.55549,-34.07067],[-71.54585,-34.07444],[-71.53671,-34.07897],[-71.52815,-34.08423],[-71.52025,-34.09015],[-71.51308,-34.09668],[-71.50673,-34.10377],[-71.50124,-34.11133],[-71.49667,-34.11931],[-71.49307,-34.12762],[-71.49047,-34.13617],[-71.48889,-34.1449],[-71.48836,-34.15372],[-71.48887,-34.16253],[-71.49043,-34.17126],[-71.49301,-34.17983],[-71.49659,-34.18814],[-71.50114,-34.19612],[-71.50662,-34.2037],[-71.51297,-34.21079],[-71.52013,-34.21733],[-71.52803,-34.22326],[-71.5366,-34.22853],[-71.54576,-34.23307],[-71.5554,-34.23684],[-71.56546,-34.23982],[-71.57581,-34.24197],[-71.58637,-34.24326],[-71.59703,-34.2437],[-71.6077,-34.24326],[-71.61826,-34.24197],[-71.62861,-34.23982],[-71.63866,-34.23684],[-71.64831,-34.23307],[-71.65746,-34.22853],[-71.66603,-34.22326],[-71.67394,-34.21733],[-71.6811,-34.21079],[-71.68745,-34.2037],[-71.69292,-34.19612],[-71.69748,-34.18814],[-71.70106,-34.17983],[-71.70364,-34.17126],[-71.7052,-34.16253],[-71.70571,-34.15372],[-71.70517,-34.1449],[-71.7036,-34.13617],[-71.701,-34.12762],[-71.6974,-34.11931],[-71.69283,-34.11133],[-71.68734,-34.10377],[-71.68098,-34.09668],[-71.67382,-34.09015],[-71.66592,-34.08423],[-71.65736,-34.07897],[-71.64821,-34.07444],[-71.63858,-34.07067],[-71.62855,-34.0677],[-71.61821,-34.06556],[-71.60767,-34.06427],[-71.59703,-34.06383]]]},"properties":{"caso":"13","fecha":"Sep-22","anio":"2022","proyecto":"La Estrella","sexo":"H","edad":"4 anios","aerogenerador":"E8","region":"O'Higgins","radio_km":10.0}},{"type":"Feature","geometry":{"type":"Polygon","coordinates":[[[-71.59814,-30.78006],[-71.58788,-30.78049],[-71.57772,-30.78179],[-71.56776,-30.78393],[-71.55808,-30.7869],[-71.54879,-30.79067],[-71.53998,-30.7952],[-71.53172,-30.80046],[-71.52411,-30.80638],[-71.5172,-30.81291],[-71.51107,-30.82],[-71.50578,-30.82757],[-71.50138,-30.83554],[-71.49791,-30.84385],[-71.4954,-30.85241],[-71.49388,-30.86114],[-71.49337,-30.86995],[-71.49386,-30.87877],[-71.49536,-30.8875],[-71.49785,-30.89606],[-71.50131,-30.90437],[-71.5057,-30.91235],[-71.51098,-30.91993],[-71.5171,-30.92702],[-71.52401,-30.93356],[-71.53163,-30.93949],[-71.53989,-30.94475],[-71.54871,-30.9493],[-71.55801,-30.95307],[-71.5677,-30.95605],[-71.57768,-30.95819],[-71.58786,-30.95949],[-71.59814,-30.95992],[-71.60842,-30.95949],[-71.6186,-30.95819],[-71.62859,-30.95605],[-71.63827,-30.95307],[-71.64758,-30.9493],[-71.6564,-30.94475],[-71.66466,-30.93949],[-71.67228,-30.93356],[-71.67918,-30.92702],[-71.68531,-30.91993],[-71.69059,-30.91235],[-71.69498,-30.90437],[-71.69843,-30.89606],[-71.70092,-30.8875],[-71.70242,-30.87877],[-71.70292,-30.86995],[-71.7024,-30.86114],[-71.70089,-30.85241],[-71.69838,-30.84385],[-71.69491,-30.83554],[-71.69051,-30.82757],[-71.68522,-30.82],[-71.67909,-30.81291],[-71.67218,-30.80638],[-71.66456,-30.80046],[-71.65631,-30.7952],[-71.64749,-30.79067],[-71.63821,-30.7869],[-71.62853,-30.78393],[-71.61857,-30.78179],[-71.6084,-30.78049],[-71.59814,-30.78006]]]},"properties":{"caso":"14","fecha":"Sep-22","anio":"2022","proyecto":"Talinay","sexo":"M","edad":"6 anios","aerogenerador":"TO41","region":"Coquimbo","radio_km":10.0}},{"type":"Feature","geometry":{"type":"Polygon","coordinates":[[[-71.57194,-30.75444],[-71.56168,-30.75487],[-71.55152,-30.75616],[-71.54156,-30.75831],[-71.53189,-30.76128],[-71.5226,-30.76505],[-71.51379,-30.76958],[-71.50553,-30.77483],[-71.49792,-30.78076],[-71.49101,-30.78729],[-71.48489,-30.79438],[-71.4796,-30.80194],[-71.4752,-30.80992],[-71.47173,-30.81822],[-71.46922,-30.82678],[-71.4677,-30.83551],[-71.46719,-30.84433],[-71.46768,-30.85314],[-71.46918,-30.86187],[-71.47167,-30.87044],[-71.47513,-30.87875],[-71.47952,-30.88673],[-71.4848,-30.8943],[-71.49092,-30.9014],[-71.49782,-30.90794],[-71.50544,-30.91387],[-71.5137,-30.91913],[-71.52252,-30.92367],[-71.53182,-30.92745],[-71.5415,-30.93043],[-71.55148,-30.93257],[-71.56166,-30.93387],[-71.57194,-30.9343],[-71.58221,-30.93387],[-71.59239,-30.93257],[-71.60237,-30.93043],[-71.61206,-30.92745],[-71.62136,-30.92367],[-71.63018,-30.91913],[-71.63844,-30.91387],[-71.64605,-30.90794],[-71.65296,-30.9014],[-71.65908,-30.8943],[-71.66436,-30.88673],[-71.66875,-30.87875],[-71.6722,-30.87044],[-71.67469,-30.86187],[-71.67619,-30.85314],[-71.67668,-30.84433],[-71.67617,-30.83551],[-71.67465,-30.82678],[-71.67215,-30.81822],[-71.66868,-30.80992],[-71.66427,-30.80194],[-71.65899,-30.79438],[-71.65286,-30.78729],[-71.64596,-30.78076],[-71.63834,-30.77483],[-71.63009,-30.76958],[-71.62127,-30.76505],[-71.61199,-30.76128],[-71.60232,-30.75831],[-71.59235,-30.75616],[-71.58219,-30.75487],[-71.57194,-30.75444]]]},"properties":{"caso":"15","fecha":"Feb-23","anio":"2023","proyecto":"Talinay","sexo":"H","edad":"Adulto","aerogenerador":"TO22","region":"Coquimbo","radio_km":10.0}},{"type":"Feature","geometry":{"type":"Polygon","coordinates":[[[-71.58516,-30.74895],[-71.5749,-30.74938],[-71.56474,-30.75068],[-71.55478,-30.75282],[-71.54511,-30.75579],[-71.53583,-30.75956],[-71.52701,-30.7641],[-71.51876,-30.76935],[-71.51114,-30.77527],[-71.50424,-30.78181],[-71.49812,-30.78889],[-71.49283,-30.79646],[-71.48843,-30.80443],[-71.48496,-30.81274],[-71.48245,-30.8213],[-71.48093,-30.83003],[-71.48042,-30.83884],[-71.48091,-30.84766],[-71.48241,-30.85639],[-71.4849,-30.86495],[-71.48836,-30.87326],[-71.49274,-30.88124],[-71.49802,-30.88882],[-71.50414,-30.89591],[-71.51105,-30.90245],[-71.51866,-30.90839],[-71.52692,-30.91365],[-71.53574,-30.91819],[-71.54504,-30.92196],[-71.55473,-30.92494],[-71.56471,-30.92709],[-71.57488,-30.92838],[-71.58516,-30.92882],[-71.59544,-30.92838],[-71.60561,-30.92709],[-71.61559,-30.92494],[-71.62528,-30.92196],[-71.63457,-30.91819],[-71.6434,-30.91365],[-71.65165,-30.90839],[-71.65927,-30.90245],[-71.66617,-30.89591],[-71.67229,-30.88882],[-71.67757,-30.88124],[-71.68196,-30.87326],[-71.68542,-30.86495],[-71.68791,-30.85639],[-71.68941,-30.84766],[-71.6899,-30.83884],[-71.68939,-30.83003],[-71.68787,-30.8213],[-71.68536,-30.81274],[-71.68189,-30.80443],[-71.67749,-30.79646],[-71.6722,-30.78889],[-71.66608,-30.78181],[-71.65917,-30.77527],[-71.65156,-30.76935],[-71.6433,-30.7641],[-71.63449,-30.75956],[-71.62521,-30.75579],[-71.61554,-30.75282],[-71.60557,-30.75068],[-71.59542,-30.74938],[-71.58516,-30.74895]]]},"properties":{"caso":"16","fecha":"May-23","anio":"2023","proyecto":"Talinay","sexo":"H","edad":"2 anios","aerogenerador":"TO15","region":"Coquimbo","radio_km":10.0}},{"type":"Feature","geometry":{"type":"Polygon","coordinates":[[[-71.63058,-34.05991],[-71.61994,-34.06034],[-71.6094,-34.06164],[-71.59907,-34.06378],[-71.58904,-34.06675],[-71.5794,-34.07052],[-71.57026,-34.07505],[-71.5617,-34.0803],[-71.5538,-34.08623],[-71.54664,-34.09276],[-71.54028,-34.09984],[-71.53479,-34.10741],[-71.53023,-34.11538],[-71.52662,-34.12369],[-71.52402,-34.13225],[-71.52245,-34.14098],[-71.52191,-34.14979],[-71.52243,-34.15861],[-71.52398,-34.16734],[-71.52656,-34.1759],[-71.53014,-34.18422],[-71.5347,-34.1922],[-71.54017,-34.19977],[-71.54652,-34.20686],[-71.55368,-34.21341],[-71.56159,-34.21934],[-71.57016,-34.2246],[-71.57931,-34.22914],[-71.58896,-34.23292],[-71.59901,-34.2359],[-71.60936,-34.23804],[-71.61992,-34.23934],[-71.63058,-34.23977],[-71.64125,-34.23934],[-71.65181,-34.23804],[-71.66216,-34.2359],[-71.67221,-34.23292],[-71.68186,-34.22914],[-71.69101,-34.2246],[-71.69958,-34.21934],[-71.70748,-34.21341],[-71.71464,-34.20686],[-71.72099,-34.19977],[-71.72647,-34.1922],[-71.73102,-34.18422],[-71.73461,-34.1759],[-71.73719,-34.16734],[-71.73874,-34.15861],[-71.73925,-34.14979],[-71.73872,-34.14098],[-71.73714,-34.13225],[-71.73454,-34.12369],[-71.73094,-34.11538],[-71.72637,-34.10741],[-71.72089,-34.09984],[-71.71453,-34.09276],[-71.70737,-34.08623],[-71.69947,-34.0803],[-71.6909,-34.07505],[-71.68176,-34.07052],[-71.67213,-34.06675],[-71.6621,-34.06378],[-71.65176,-34.06164],[-71.64122,-34.06034],[-71.63058,-34.05991]]]},"properties":{"caso":"17","fecha":"Sep-23","anio":"2023","proyecto":"La Estrella","sexo":"H","edad":"2 anios","aerogenerador":"E1","region":"O'Higgins","radio_km":10.0}},{"type":"Feature","geometry":{"type":"Polygon","coordinates":[[[-71.57816,-30.75002],[-71.56791,-30.75045],[-71.55775,-30.75175],[-71.54779,-30.75389],[-71.53812,-30.75686],[-71.52883,-30.76063],[-71.52002,-30.76516],[-71.51176,-30.77042],[-71.50415,-30.77634],[-71.49725,-30.78287],[-71.49112,-30.78996],[-71.48583,-30.79753],[-71.48143,-30.8055],[-71.47796,-30.81381],[-71.47545,-30.82237],[-71.47394,-30.8311],[-71.47342,-30.83991],[-71.47392,-30.84873],[-71.47542,-30.85746],[-71.4779,-30.86602],[-71.48136,-30.87433],[-71.48575,-30.88231],[-71.49103,-30.88989],[-71.49715,-30.89698],[-71.50405,-30.90352],[-71.51167,-30.90945],[-71.51993,-30.91471],[-71.52875,-30.91926],[-71.53805,-30.92303],[-71.54773,-30.92601],[-71.55771,-30.92815],[-71.56789,-30.92945],[-71.57816,-30.92988],[-71.58844,-30.92945],[-71.59862,-30.92815],[-71.6086,-30.92601],[-71.61828,-30.92303],[-71.62758,-30.91926],[-71.6364,-30.91471],[-71.64466,-30.90945],[-71.65228,-30.90352],[-71.65918,-30.89698],[-71.6653,-30.88989],[-71.67058,-30.88231],[-71.67497,-30.87433],[-71.67842,-30.86602],[-71.68091,-30.85746],[-71.68241,-30.84873],[-71.68291,-30.83991],[-71.68239,-30.8311],[-71.68087,-30.82237],[-71.67837,-30.81381],[-71.6749,-30.8055],[-71.6705,-30.79753],[-71.66521,-30.78996],[-71.65908,-30.78287],[-71.65218,-30.77634],[-71.64456,-30.77042],[-71.63631,-30.76516],[-71.6275,-30.76063],[-71.61821,-30.75686],[-71.60854,-30.75389],[-71.59858,-30.75175],[-71.58842,-30.75045],[-71.57816,-30.75002]]]},"properties":{"caso":"18","fecha":"Nov-23","anio":"2023","proyecto":"Talinay","sexo":"H","edad":"3 anios","aerogenerador":"TO18","region":"Coquimbo","radio_km":10.0}},{"type":"Feature","geometry":{"type":"Polygon","coordinates":[[[-71.61154,-34.0611],[-71.60089,-34.06153],[-71.59036,-34.06283],[-71.58002,-34.06497],[-71.56999,-34.06794],[-71.56036,-34.07171],[-71.55121,-34.07624],[-71.54265,-34.08149],[-71.53475,-34.08742],[-71.52759,-34.09395],[-71.52123,-34.10104],[-71.51574,-34.1086],[-71.51118,-34.11658],[-71.50758,-34.12488],[-71.50497,-34.13344],[-71.5034,-34.14217],[-71.50286,-34.15098],[-71.50338,-34.1598],[-71.50493,-34.16853],[-71.50751,-34.17709],[-71.51109,-34.18541],[-71.51565,-34.19339],[-71.52112,-34.20096],[-71.52747,-34.20806],[-71.53463,-34.2146],[-71.54254,-34.22053],[-71.55111,-34.22579],[-71.56026,-34.23033],[-71.56991,-34.23411],[-71.57996,-34.23709],[-71.59031,-34.23923],[-71.60087,-34.24053],[-71.61154,-34.24096],[-71.6222,-34.24053],[-71.63276,-34.23923],[-71.64311,-34.23709],[-71.65316,-34.23411],[-71.66281,-34.23033],[-71.67196,-34.22579],[-71.68053,-34.22053],[-71.68844,-34.2146],[-71.6956,-34.20806],[-71.70195,-34.20096],[-71.70742,-34.19339],[-71.71198,-34.18541],[-71.71556,-34.17709],[-71.71814,-34.16853],[-71.71969,-34.1598],[-71.72021,-34.15098],[-71.71967,-34.14217],[-71.7181,-34.13344],[-71.71549,-34.12488],[-71.71189,-34.11658],[-71.70733,-34.1086],[-71.70184,-34.10104],[-71.69548,-34.09395],[-71.68832,-34.08742],[-71.68042,-34.08149],[-71.67186,-34.07624],[-71.66271,-34.07171],[-71.65308,-34.06794],[-71.64305,-34.06497],[-71.63271,-34.06283],[-71.62218,-34.06153],[-71.61154,-34.0611]]]},"properties":{"caso":"19","fecha":"May-24","anio":"2024","proyecto":"La Estrella","sexo":"M","edad":"Adulto","aerogenerador":"E5","region":"O'Higgins","radio_km":10.0}},{"type":"Feature","geometry":{"type":"Polygon","coordinates":[[[-71.43885,-28.78692],[-71.42879,-28.78735],[-71.41883,-28.78865],[-71.40906,-28.79079],[-71.39958,-28.79376],[-71.39047,-28.79753],[-71.38183,-28.80207],[-71.37374,-28.80732],[-71.36627,-28.81324],[-71.3595,-28.81978],[-71.35349,-28.82686],[-71.34831,-28.83443],[-71.34399,-28.84241],[-71.34059,-28.85071],[-71.33813,-28.85927],[-71.33665,-28.868],[-71.33614,-28.87682],[-71.33663,-28.88563],[-71.3381,-28.89436],[-71.34054,-28.90292],[-71.34393,-28.91124],[-71.34823,-28.91922],[-71.35341,-28.92679],[-71.35941,-28.93388],[-71.36618,-28.94043],[-71.37365,-28.94636],[-71.38175,-28.95162],[-71.3904,-28.95616],[-71.39951,-28.95993],[-71.40901,-28.96291],[-71.41879,-28.96506],[-71.42877,-28.96635],[-71.43885,-28.96679],[-71.44892,-28.96635],[-71.4589,-28.96506],[-71.46868,-28.96291],[-71.47818,-28.95993],[-71.4873,-28.95616],[-71.49595,-28.95162],[-71.50404,-28.94636],[-71.51151,-28.94043],[-71.51828,-28.93388],[-71.52428,-28.92679],[-71.52946,-28.91922],[-71.53376,-28.91124],[-71.53715,-28.90292],[-71.53959,-28.89436],[-71.54106,-28.88563],[-71.54155,-28.87682],[-71.54104,-28.868],[-71.53956,-28.85927],[-71.5371,-28.85071],[-71.5337,-28.84241],[-71.52938,-28.83443],[-71.5242,-28.82686],[-71.51819,-28.81978],[-71.51142,-28.81324],[-71.50396,-28.80732],[-71.49586,-28.80207],[-71.48722,-28.79753],[-71.47812,-28.79376],[-71.46863,-28.79079],[-71.45887,-28.78865],[-71.4489,-28.78735],[-71.43885,-28.78692]]]},"properties":{"caso":"20","fecha":"Jun-24","anio":"2024","proyecto":"Sarco","sexo":"H","edad":"Adulto","aerogenerador":"WTG25","region":"Atacama","radio_km":10.0}},{"type":"Feature","geometry":{"type":"Polygon","coordinates":[[[-71.631,-34.04007],[-71.62036,-34.0405],[-71.60982,-34.04179],[-71.59949,-34.04394],[-71.58946,-34.04691],[-71.57983,-34.05068],[-71.57069,-34.05521],[-71.56213,-34.06046],[-71.55423,-34.06638],[-71.54707,-34.07292],[-71.54072,-34.08],[-71.53523,-34.08757],[-71.53066,-34.09554],[-71.52706,-34.10385],[-71.52446,-34.11241],[-71.52289,-34.12114],[-71.52235,-34.12995],[-71.52286,-34.13877],[-71.52442,-34.1475],[-71.527,-34.15606],[-71.53058,-34.16437],[-71.53513,-34.17236],[-71.54061,-34.17993],[-71.54696,-34.18702],[-71.55412,-34.19357],[-71.56202,-34.1995],[-71.57058,-34.20476],[-71.57973,-34.2093],[-71.58938,-34.21308],[-71.59943,-34.21605],[-71.60978,-34.2182],[-71.62034,-34.2195],[-71.631,-34.21993],[-71.64166,-34.2195],[-71.65221,-34.2182],[-71.66257,-34.21605],[-71.67261,-34.21308],[-71.68226,-34.2093],[-71.69141,-34.20476],[-71.69998,-34.1995],[-71.70788,-34.19357],[-71.71504,-34.18702],[-71.72138,-34.17993],[-71.72686,-34.17236],[-71.73141,-34.16437],[-71.735,-34.15606],[-71.73758,-34.1475],[-71.73913,-34.13877],[-71.73964,-34.12995],[-71.73911,-34.12114],[-71.73753,-34.11241],[-71.73493,-34.10385],[-71.73133,-34.09554],[-71.72676,-34.08757],[-71.72128,-34.08],[-71.71492,-34.07292],[-71.70776,-34.06638],[-71.69986,-34.06046],[-71.6913,-34.05521],[-71.68216,-34.05068],[-71.67253,-34.04691],[-71.6625,-34.04394],[-71.65217,-34.04179],[-71.64163,-34.0405],[-71.631,-34.04007]]]},"properties":{"caso":"21","fecha":"Aug-24","anio":"2024","proyecto":"Cerrillos","sexo":"H","edad":"4 anios","aerogenerador":"","region":"O'Higgins","radio_km":10.0}},{"type":"Feature","geometry":{"type":"Polygon","coordinates":[[[-71.43065,-28.82952],[-71.42059,-28.82995],[-71.41063,-28.83124],[-71.40085,-28.83339],[-71.39137,-28.83636],[-71.38226,-28.84013],[-71.37361,-28.84466],[-71.36552,-28.84992],[-71.35805,-28.85584],[-71.35128,-28.86237],[-71.34527,-28.86946],[-71.34008,-28.87703],[-71.33576,-28.885],[-71.33236,-28.89331],[-71.3299,-28.90187],[-71.32841,-28.9106],[-71.32791,-28.91941],[-71.3284,-28.92823],[-71.32987,-28.93696],[-71.33231,-28.94552],[-71.3357,-28.95383],[-71.34,-28.96181],[-71.34518,-28.96939],[-71.35119,-28.97648],[-71.35796,-28.98302],[-71.36543,-28.98895],[-71.37353,-28.99421],[-71.38218,-28.99875],[-71.3913,-29.00253],[-71.4008,-29.00551],[-71.41059,-29.00765],[-71.42057,-29.00895],[-71.43065,-29.00938],[-71.44073,-29.00895],[-71.45072,-29.00765],[-71.4605,-29.00551],[-71.47,-29.00253],[-71.47912,-28.99875],[-71.48778,-28.99421],[-71.49588,-28.98895],[-71.50335,-28.98302],[-71.51012,-28.97648],[-71.51612,-28.96939],[-71.5213,-28.96181],[-71.52561,-28.95383],[-71.529,-28.94552],[-71.53144,-28.93696],[-71.53291,-28.92823],[-71.5334,-28.91941],[-71.53289,-28.9106],[-71.53141,-28.90187],[-71.52895,-28.89331],[-71.52555,-28.885],[-71.52123,-28.87703],[-71.51604,-28.86946],[-71.51003,-28.86237],[-71.50326,-28.85584],[-71.49579,-28.84992],[-71.48769,-28.84466],[-71.47905,-28.84013],[-71.46994,-28.83636],[-71.46045,-28.83339],[-71.45068,-28.83124],[-71.44072,-28.82995],[-71.43065,-28.82952]]]},"properties":{"caso":"22","fecha":"Sep-24","anio":"2024","proyecto":"Parque Eolico Cabo Leones","sexo":"","edad":"","aerogenerador":"64","region":"Atacama","radio_km":10.0}},{"type":"Feature","geometry":{"type":"Polygon","coordinates":[[[-71.57844,-30.74957],[-71.56819,-30.75001],[-71.55803,-30.7513],[-71.54807,-30.75344],[-71.5384,-30.75641],[-71.52911,-30.76018],[-71.5203,-30.76472],[-71.51204,-30.76997],[-71.50443,-30.77589],[-71.49753,-30.78243],[-71.4914,-30.78951],[-71.48611,-30.79708],[-71.48171,-30.80505],[-71.47824,-30.81336],[-71.47573,-30.82192],[-71.47422,-30.83065],[-71.4737,-30.83946],[-71.4742,-30.84828],[-71.4757,-30.85701],[-71.47819,-30.86557],[-71.48164,-30.87388],[-71.48603,-30.88187],[-71.49131,-30.88944],[-71.49743,-30.89653],[-71.50433,-30.90308],[-71.51195,-30.90901],[-71.52021,-30.91427],[-71.52903,-30.91881],[-71.53833,-30.92259],[-71.54801,-30.92556],[-71.55799,-30.92771],[-71.56817,-30.929],[-71.57844,-30.92944],[-71.58872,-30.929],[-71.5989,-30.92771],[-71.60888,-30.92556],[-71.61856,-30.92259],[-71.62786,-30.91881],[-71.63668,-30.91427],[-71.64494,-30.90901],[-71.65256,-30.90308],[-71.65946,-30.89653],[-71.66558,-30.88944],[-71.67086,-30.88187],[-71.67525,-30.87388],[-71.6787,-30.86557],[-71.68119,-30.85701],[-71.68269,-30.84828],[-71.68319,-30.83946],[-71.68267,-30.83065],[-71.68115,-30.82192],[-71.67865,-30.81336],[-71.67518,-30.80505],[-71.67078,-30.79708],[-71.66549,-30.78951],[-71.65936,-30.78243],[-71.65246,-30.77589],[-71.64484,-30.76997],[-71.63659,-30.76472],[-71.62778,-30.76018],[-71.61849,-30.75641],[-71.60882,-30.75344],[-71.59886,-30.7513],[-71.5887,-30.75001],[-71.57844,-30.74957]]]},"properties":{"caso":"23","fecha":"Oct-24","anio":"2024","proyecto":"Talinay","sexo":"M","edad":"Adulto","aerogenerador":"TO18","region":"Coquimbo","radio_km":10.0}},{"type":"Feature","geometry":{"type":"Polygon","coordinates":[[[-71.62981,-34.01491],[-71.61917,-34.01535],[-71.60864,-34.01664],[-71.59831,-34.01878],[-71.58828,-34.02175],[-71.57865,-34.02552],[-71.56952,-34.03005],[-71.56096,-34.03531],[-71.55306,-34.04123],[-71.5459,-34.04776],[-71.53955,-34.05485],[-71.53407,-34.06241],[-71.5295,-34.07039],[-71.5259,-34.0787],[-71.5233,-34.08725],[-71.52173,-34.09598],[-71.52119,-34.1048],[-71.52171,-34.11361],[-71.52326,-34.12234],[-71.52584,-34.13091],[-71.52942,-34.13922],[-71.53397,-34.1472],[-71.53945,-34.15478],[-71.54579,-34.16187],[-71.55295,-34.16841],[-71.56085,-34.17434],[-71.56941,-34.17961],[-71.57856,-34.18415],[-71.5882,-34.18792],[-71.59825,-34.1909],[-71.60859,-34.19305],[-71.61915,-34.19434],[-71.62981,-34.19478],[-71.64046,-34.19434],[-71.65102,-34.19305],[-71.66137,-34.1909],[-71.67141,-34.18792],[-71.68105,-34.18415],[-71.6902,-34.17961],[-71.69877,-34.17434],[-71.70666,-34.16841],[-71.71382,-34.16187],[-71.72017,-34.15478],[-71.72564,-34.1472],[-71.73019,-34.13922],[-71.73377,-34.13091],[-71.73635,-34.12234],[-71.73791,-34.11361],[-71.73842,-34.1048],[-71.73788,-34.09598],[-71.73631,-34.08725],[-71.73371,-34.0787],[-71.73011,-34.07039],[-71.72555,-34.06241],[-71.72006,-34.05485],[-71.71371,-34.04776],[-71.70655,-34.04123],[-71.69865,-34.03531],[-71.69009,-34.03005],[-71.68096,-34.02552],[-71.67133,-34.02175],[-71.6613,-34.01878],[-71.65097,-34.01664],[-71.64044,-34.01535],[-71.62981,-34.01491]]]},"properties":{"caso":"24","fecha":"Oct-24","anio":"2024","proyecto":"Manantiales","sexo":"H","edad":"Adulto","aerogenerador":"","region":"O'Higgins","radio_km":10.0}},{"type":"Feature","geometry":{"type":"Polygon","coordinates":[[[-71.44901,-28.76219],[-71.43895,-28.76262],[-71.42899,-28.76392],[-71.41923,-28.76606],[-71.40975,-28.76903],[-71.40064,-28.7728],[-71.392,-28.77733],[-71.38391,-28.78259],[-71.37645,-28.78851],[-71.36968,-28.79505],[-71.36367,-28.80213],[-71.35849,-28.8097],[-71.35418,-28.81767],[-71.35078,-28.82598],[-71.34832,-28.83454],[-71.34683,-28.84327],[-71.34633,-28.85208],[-71.34682,-28.8609],[-71.34829,-28.86963],[-71.35073,-28.87819],[-71.35411,-28.8865],[-71.35842,-28.89449],[-71.36359,-28.90206],[-71.36959,-28.90915],[-71.37636,-28.91569],[-71.38383,-28.92162],[-71.39192,-28.92689],[-71.40057,-28.93143],[-71.40968,-28.9352],[-71.41918,-28.93818],[-71.42896,-28.94032],[-71.43893,-28.94162],[-71.44901,-28.94205],[-71.45908,-28.94162],[-71.46906,-28.94032],[-71.47884,-28.93818],[-71.48833,-28.9352],[-71.49745,-28.93143],[-71.50609,-28.92689],[-71.51419,-28.92162],[-71.52166,-28.91569],[-71.52842,-28.90915],[-71.53442,-28.90206],[-71.5396,-28.89449],[-71.5439,-28.8865],[-71.54729,-28.87819],[-71.54973,-28.86963],[-71.5512,-28.8609],[-71.55168,-28.85208],[-71.55118,-28.84327],[-71.54969,-28.83454],[-71.54724,-28.82598],[-71.54384,-28.81767],[-71.53952,-28.8097],[-71.53434,-28.80213],[-71.52833,-28.79505],[-71.52157,-28.78851],[-71.5141,-28.78259],[-71.50601,-28.77733],[-71.49737,-28.7728],[-71.48827,-28.76903],[-71.47879,-28.76606],[-71.46902,-28.76392],[-71.45906,-28.76262],[-71.44901,-28.76219]]]},"properties":{"caso":"25","fecha":"Nov-24","anio":"2024","proyecto":"Sarco","sexo":"H","edad":"2 anios","aerogenerador":"WTG40","region":"Atacama","radio_km":10.0}},{"type":"Feature","geometry":{"type":"Polygon","coordinates":[[[-71.61154,-34.0611],[-71.60089,-34.06153],[-71.59036,-34.06283],[-71.58002,-34.06497],[-71.56999,-34.06794],[-71.56036,-34.07171],[-71.55121,-34.07624],[-71.54265,-34.08149],[-71.53475,-34.08742],[-71.52759,-34.09395],[-71.52123,-34.10104],[-71.51574,-34.1086],[-71.51118,-34.11658],[-71.50758,-34.12488],[-71.50497,-34.13344],[-71.5034,-34.14217],[-71.50286,-34.15098],[-71.50338,-34.1598],[-71.50493,-34.16853],[-71.50751,-34.17709],[-71.51109,-34.18541],[-71.51565,-34.19339],[-71.52112,-34.20096],[-71.52747,-34.20806],[-71.53463,-34.2146],[-71.54254,-34.22053],[-71.55111,-34.22579],[-71.56026,-34.23033],[-71.56991,-34.23411],[-71.57996,-34.23709],[-71.59031,-34.23923],[-71.60087,-34.24053],[-71.61154,-34.24096],[-71.6222,-34.24053],[-71.63276,-34.23923],[-71.64311,-34.23709],[-71.65316,-34.23411],[-71.66281,-34.23033],[-71.67196,-34.22579],[-71.68053,-34.22053],[-71.68844,-34.2146],[-71.6956,-34.20806],[-71.70195,-34.20096],[-71.70742,-34.19339],[-71.71198,-34.18541],[-71.71556,-34.17709],[-71.71814,-34.16853],[-71.71969,-34.1598],[-71.72021,-34.15098],[-71.71967,-34.14217],[-71.7181,-34.13344],[-71.71549,-34.12488],[-71.71189,-34.11658],[-71.70733,-34.1086],[-71.70184,-34.10104],[-71.69548,-34.09395],[-71.68832,-34.08742],[-71.68042,-34.08149],[-71.67186,-34.07624],[-71.66271,-34.07171],[-71.65308,-34.06794],[-71.64305,-34.06497],[-71.63271,-34.06283],[-71.62218,-34.06153],[-71.61154,-34.0611]]]},"properties":{"caso":"26","fecha":"Apr-25","anio":"2025","proyecto":"La Estrella","sexo":"","edad":"Adulto","aerogenerador":"E5","region":"O'Higgins","radio_km":10.0}},{"type":"Feature","geometry":{"type":"Polygon","coordinates":[[[-71.59628,-30.78093],[-71.58602,-30.78136],[-71.57586,-30.78265],[-71.5659,-30.7848],[-71.55622,-30.78777],[-71.54693,-30.79154],[-71.53812,-30.79607],[-71.52986,-30.80132],[-71.52225,-30.80725],[-71.51534,-30.81378],[-71.50921,-30.82087],[-71.50392,-30.82843],[-71.49952,-30.83641],[-71.49605,-30.84471],[-71.49354,-30.85327],[-71.49202,-30.862],[-71.49151,-30.87082],[-71.492,-30.87963],[-71.4935,-30.88836],[-71.49599,-30.89693],[-71.49945,-30.90524],[-71.50384,-30.91322],[-71.50912,-30.92079],[-71.51524,-30.92789],[-71.52215,-30.93443],[-71.52977,-30.94036],[-71.53803,-30.94562],[-71.54685,-30.95016],[-71.55615,-30.95394],[-71.56584,-30.95692],[-71.57583,-30.95906],[-71.58601,-30.96036],[-71.59628,-30.96079],[-71.60656,-30.96036],[-71.61674,-30.95906],[-71.62673,-30.95692],[-71.63642,-30.95394],[-71.64572,-30.95016],[-71.65454,-30.94562],[-71.6628,-30.94036],[-71.67042,-30.93443],[-71.67733,-30.92789],[-71.68345,-30.92079],[-71.68873,-30.91322],[-71.69312,-30.90524],[-71.69658,-30.89693],[-71.69907,-30.88836],[-71.70057,-30.87963],[-71.70106,-30.87082],[-71.70055,-30.862],[-71.69903,-30.85327],[-71.69652,-30.84471],[-71.69305,-30.83641],[-71.68865,-30.82843],[-71.68336,-30.82087],[-71.67723,-30.81378],[-71.67032,-30.80725],[-71.66271,-30.80132],[-71.65445,-30.79607],[-71.64564,-30.79154],[-71.63635,-30.78777],[-71.62667,-30.7848],[-71.61671,-30.78265],[-71.60655,-30.78136],[-71.59628,-30.78093]]]},"properties":{"caso":"27","fecha":"Sep-25","anio":"2025","proyecto":"Talinay","sexo":"M","edad":"Adulto","aerogenerador":"TO42","region":"Coquimbo","radio_km":10.0}},{"type":"Feature","geometry":{"type":"Polygon","coordinates":[[[-71.61341,-30.93593],[-71.60313,-30.93636],[-71.59295,-30.93766],[-71.58297,-30.9398],[-71.57328,-30.94277],[-71.56397,-30.94654],[-71.55515,-30.95108],[-71.54688,-30.95633],[-71.53925,-30.96225],[-71.53233,-30.96879],[-71.52619,-30.97587],[-71.52089,-30.98344],[-71.51648,-30.99141],[-71.51301,-30.99972],[-71.51049,-31.00828],[-71.50897,-31.01701],[-71.50846,-31.02582],[-71.50895,-31.03464],[-71.51046,-31.04337],[-71.51295,-31.05193],[-71.51641,-31.06024],[-71.52081,-31.06822],[-71.5261,-31.0758],[-71.53223,-31.08289],[-71.53915,-31.08943],[-71.54678,-31.09537],[-71.55505,-31.10063],[-71.56389,-31.10517],[-71.57321,-31.10894],[-71.58291,-31.11192],[-71.59291,-31.11407],[-71.60311,-31.11536],[-71.61341,-31.1158],[-71.6237,-31.11536],[-71.6339,-31.11407],[-71.6439,-31.11192],[-71.6536,-31.10894],[-71.66292,-31.10517],[-71.67176,-31.10063],[-71.68003,-31.09537],[-71.68766,-31.08943],[-71.69458,-31.08289],[-71.70071,-31.0758],[-71.706,-31.06822],[-71.7104,-31.06024],[-71.71386,-31.05193],[-71.71635,-31.04337],[-71.71786,-31.03464],[-71.71835,-31.02582],[-71.71784,-31.01701],[-71.71632,-31.00828],[-71.7138,-30.99972],[-71.71033,-30.99141],[-71.70592,-30.98344],[-71.70062,-30.97587],[-71.69448,-30.96879],[-71.68756,-30.96225],[-71.67993,-30.95633],[-71.67166,-30.95108],[-71.66284,-30.94654],[-71.65353,-30.94277],[-71.64384,-30.9398],[-71.63386,-30.93766],[-71.62368,-30.93636],[-71.61341,-30.93593]]]},"properties":{"caso":"28","fecha":"Oct-25","anio":"2025","proyecto":"Los Cururos","sexo":"H","edad":"3 anios","aerogenerador":"A4","region":"Coquimbo","radio_km":10.0}},{"type":"Feature","geometry":{"type":"Polygon","coordinates":[[[-71.5957,-30.78092],[-71.58544,-30.78135],[-71.57528,-30.78265],[-71.56531,-30.78479],[-71.55564,-30.78776],[-71.54635,-30.79153],[-71.53753,-30.79606],[-71.52928,-30.80132],[-71.52166,-30.80724],[-71.51475,-30.81378],[-71.50863,-30.82086],[-71.50334,-30.82843],[-71.49893,-30.8364],[-71.49546,-30.84471],[-71.49295,-30.85327],[-71.49144,-30.862],[-71.49092,-30.87081],[-71.49142,-30.87963],[-71.49292,-30.88836],[-71.49541,-30.89692],[-71.49886,-30.90523],[-71.50325,-30.91321],[-71.50854,-30.92079],[-71.51466,-30.92788],[-71.52156,-30.93442],[-71.52918,-30.94035],[-71.53744,-30.94562],[-71.54627,-30.95016],[-71.55557,-30.95393],[-71.56526,-30.95691],[-71.57524,-30.95906],[-71.58542,-30.96035],[-71.5957,-30.96079],[-71.60598,-30.96035],[-71.61616,-30.95906],[-71.62614,-30.95691],[-71.63583,-30.95393],[-71.64513,-30.95016],[-71.65395,-30.94562],[-71.66222,-30.94035],[-71.66984,-30.93442],[-71.67674,-30.92788],[-71.68286,-30.92079],[-71.68814,-30.91321],[-71.69253,-30.90523],[-71.69599,-30.89692],[-71.69848,-30.88836],[-71.69998,-30.87963],[-71.70048,-30.87081],[-71.69996,-30.862],[-71.69844,-30.85327],[-71.69594,-30.84471],[-71.69246,-30.8364],[-71.68806,-30.82843],[-71.68277,-30.82086],[-71.67664,-30.81378],[-71.66974,-30.80724],[-71.66212,-30.80132],[-71.65386,-30.79606],[-71.64505,-30.79153],[-71.63576,-30.78776],[-71.62609,-30.78479],[-71.61612,-30.78265],[-71.60596,-30.78135],[-71.5957,-30.78092]]]},"properties":{"caso":"29","fecha":"Nov-25","anio":"2025","proyecto":"Talinay","sexo":"H","edad":"3 anios","aerogenerador":"","region":"Coquimbo","radio_km":10.0}}]}