{"type": "FeatureCollection", "features": [{"type": "Feature", "geometry": {"type": "Point", "coordinates": [-70.301394, -30.264803]}, "properties": {"name": "Laguna El Cepo", "category": "Probable", "codes": "P ", "n_records": 1, "n_observers": 1, "first_date": "2022-11-09", "last_date": "2022-11-09", "state": "Coquimbo", "county": "Paihuano"}}, {"type": "Feature", "geometry": {"type": "Point", "coordinates": [-70.299046, -33.344224]}, "properties": {"name": "Camino a La Parva--Vegas y pastizales", "category": "Probable", "codes": "P ", "n_records": 4, "n_observers": 4, "first_date": "2014-11-07", "last_date": "2014-11-07", "state": "Región Metropolitana de Santiago", "county": "Lo Barnechea"}}, {"type": "Feature", "geometry": {"type": "Point", "coordinates": [-70.280303, -33.370069]}, "properties": {"name": "Camino Valle Nevado", "category": "Probable", "codes": "P ", "n_records": 4, "n_observers": 4, "first_date": "2014-11-07", "last_date": "2014-11-07", "state": "Región Metropolitana de Santiago", "county": "Lo Barnechea"}}, {"type": "Feature", "geometry": {"type": "Point", "coordinates": [-73.122983, -51.11651]}, "properties": {"name": "PN Torres del Paine--Lago Grey (sector sur)", "category": "Probable", "codes": "C ,P ", "n_records": 2, "n_observers": 2, "first_date": "2018-11-05", "last_date": "2021-01-02", "state": "Magallanes", "county": "Torres del Paine"}}, {"type": "Feature", "geometry": {"type": "Point", "coordinates": [-70.037155, -30.218729]}, "properties": {"name": "Embalse La Laguna", "category": "Confirmado", "codes": "ON", "n_records": 2, "n_observers": 2, "first_date": "2014-01-26", "last_date": "2014-01-26", "state": "Coquimbo", "county": "Vicuña"}}, {"type": "Feature", "geometry": {"type": "Point", "coordinates": [-68.964033, -54.447684]}, "properties": {"name": "Bahia Jackson", "category": "Probable", "codes": "C ", "n_records": 1, "n_observers": 1, "first_date": "2023-10-29", "last_date": "2023-10-29", "state": "Magallanes", "county": "Timaukel"}}, {"type": "Feature", "geometry": {"type": "Point", "coordinates": [-70.306596, -33.365983]}, "properties": {"name": "Farellones--Acantilados", "category": "Confirmado", "codes": "FL,ON", "n_records": 5, "n_observers": 5, "first_date": "2012-05-20", "last_date": "2016-10-08", "state": "Región Metropolitana de Santiago", "county": "Lo Barnechea"}}, {"type": "Feature", "geometry": {"type": "Point", "coordinates": [-72.166318, -46.883681]}, "properties": {"name": "PN Patagonia--Valle Aviles", "category": "Probable", "codes": "N ", "n_records": 2, "n_observers": 2, "first_date": "2024-03-16", "last_date": "2024-03-16", "state": "Aisén del General Carlos Ibáñez del Campo", "county": "Cochrane"}}, {"type": "Feature", "geometry": {"type": "Point", "coordinates": [-71.000986, -30.037412]}, "properties": {"name": "Quebrada El Arrayán--Chimbollo", "category": "Probable", "codes": "C ", "n_records": 2, "n_observers": 2, "first_date": "2025-10-04", "last_date": "2025-10-04", "state": "Coquimbo", "county": "Vicuña"}}, {"type": "Feature", "geometry": {"type": "Point", "coordinates": [-70.670135, -32.95832]}, "properties": {"name": "Cuesta de Chacabuco", "category": "Confirmado", "codes": "FY", "n_records": 11, "n_observers": 11, "first_date": "2025-11-09", "last_date": "2025-11-09", "state": "Valparaíso", "county": "Rinconada"}}, {"type": "Feature", "geometry": {"type": "Point", "coordinates": [-70.577781, -35.954665]}, "properties": {"name": "Valle de los Cóndores", "category": "Probable", "codes": "P ", "n_records": 2, "n_observers": 2, "first_date": "2014-09-17", "last_date": "2025-05-02", "state": "Maule", "county": "San Clemente"}}, {"type": "Feature", "geometry": {"type": "Point", "coordinates": [-70.431844, -33.396499]}, "properties": {"name": "Sendero Cerro Provincia", "category": "Confirmado", "codes": "FL", "n_records": 1, "n_observers": 1, "first_date": "2012-01-08", "last_date": "2012-01-08", "state": "Región Metropolitana de Santiago", "county": "Lo Barnechea"}}, {"type": "Feature", "geometry": {"type": "Point", "coordinates": [-72.017328, -46.06629]}, "properties": {"name": "RN Cerro Castillo--Sector Portezuelo", "category": "Probable", "codes": "P ", "n_records": 1, "n_observers": 1, "first_date": "2024-08-01", "last_date": "2024-08-01", "state": "Aisén del General Carlos Ibáñez del Campo", "county": "Coyhaique"}}, {"type": "Feature", "geometry": {"type": "Point", "coordinates": [-72.599566, -51.553415]}, "properties": {"name": "Cerro Benítez (Acceso controlado)", "category": "Confirmado", "codes": "FL", "n_records": 1, "n_observers": 1, "first_date": "2022-02-14", "last_date": "2022-02-14", "state": "Magallanes", "county": "Natales"}}, {"type": "Feature", "geometry": {"type": "Point", "coordinates": [-71.0517, -35.694595]}, "properties": {"name": "Armerillo", "category": "Probable", "codes": "P ", "n_records": 1, "n_observers": 1, "first_date": "2014-08-09", "last_date": "2014-08-09", "state": "Maule", "county": "San Clemente"}}, {"type": "Feature", "geometry": {"type": "Point", "coordinates": [-70.562757, -33.855916]}, "properties": {"name": "Paine, Región Metropolitana, CL (-33,856, -70,563)", "category": "Probable", "codes": "P ", "n_records": 1, "n_observers": 1, "first_date": "2021-06-27", "last_date": "2021-06-27", "state": "Región Metropolitana de Santiago", "county": "Paine"}}, {"type": "Feature", "geometry": {"type": "Point", "coordinates": [-70.290884, -33.358733]}, "properties": {"name": "CHL-Cam. Valle Nevado (Quebrada las Masas)", "category": "Confirmado", "codes": "ON", "n_records": 3, "n_observers": 3, "first_date": "2022-02-05", "last_date": "2022-02-05", "state": "Región Metropolitana de Santiago", "county": "Lo Barnechea"}}, {"type": "Feature", "geometry": {"type": "Point", "coordinates": [-70.482713, -54.44888]}, "properties": {"name": "Fiordo de Agostini--Bahía Águila", "category": "Confirmado", "codes": "FL,P ", "n_records": 3, "n_observers": 3, "first_date": "2024-01-14", "last_date": "2025-02-15", "state": "Magallanes", "county": "Timaukel"}}, {"type": "Feature", "geometry": {"type": "Point", "coordinates": [-70.230746, -33.502581]}, "properties": {"name": "Cerro El Durazno, El Alfalfal", "category": "Probable", "codes": "P ", "n_records": 1, "n_observers": 1, "first_date": "2013-01-01", "last_date": "2013-01-01", "state": "Región Metropolitana de Santiago", "county": "San José de Maipo"}}, {"type": "Feature", "geometry": {"type": "Point", "coordinates": [-72.621656, -51.56299]}, "properties": {"name": "Rupestre - Treking", "category": "Confirmado", "codes": "ON", "n_records": 1, "n_observers": 1, "first_date": "2025-09-20", "last_date": "2025-09-20", "state": "Magallanes", "county": "Natales"}}, {"type": "Feature", "geometry": {"type": "Point", "coordinates": [-70.497847, -33.543322]}, "properties": {"name": "Cumbre La Pirca", "category": "Confirmado", "codes": "FL", "n_records": 1, "n_observers": 1, "first_date": "2024-06-15", "last_date": "2024-06-15", "state": "Región Metropolitana de Santiago", "county": "La Florida"}}, {"type": "Feature", "geometry": {"type": "Point", "coordinates": [-73.130018, -51.123031]}, "properties": {"name": "PN Torres del Paine--Bosque Sendero a Playa Grey", "category": "Probable", "codes": "C ", "n_records": 1, "n_observers": 1, "first_date": "2023-11-07", "last_date": "2023-11-07", "state": "Magallanes", "county": "Torres del Paine"}}, {"type": "Feature", "geometry": {"type": "Point", "coordinates": [-70.502851, -33.434521]}, "properties": {"name": "Parque Aguas de Ramón", "category": "Confirmado", "codes": "FY,N ", "n_records": 4, "n_observers": 4, "first_date": "2017-01-15", "last_date": "2024-07-31", "state": "Región Metropolitana de Santiago", "county": "Las Condes"}}, {"type": "Feature", "geometry": {"type": "Point", "coordinates": [-71.40658, -36.640863]}, "properties": {"name": "San Fabián", "category": "Probable", "codes": "N ,P ", "n_records": 2, "n_observers": 1, "first_date": "2014-11-02", "last_date": "2014-12-07", "state": "Ñuble", "county": "San Fabián"}}, {"type": "Feature", "geometry": {"type": "Point", "coordinates": [-72.608728, -51.565547]}, "properties": {"name": "laguna sofia", "category": "Probable", "codes": "A ", "n_records": 1, "n_observers": 1, "first_date": "2022-09-24", "last_date": "2022-09-24", "state": "Magallanes", "county": "Natales"}}, {"type": "Feature", "geometry": {"type": "Point", "coordinates": [-70.557247, -35.991158]}, "properties": {"name": "Río Maule--Mirador Monjes Blancos", "category": "Confirmado", "codes": "ON", "n_records": 1, "n_observers": 1, "first_date": "2025-12-07", "last_date": "2025-12-07", "state": "Maule", "county": "San Clemente"}}, {"type": "Feature", "geometry": {"type": "Point", "coordinates": [-70.469012, -33.397626]}, "properties": {"name": "Morro del Guayacán", "category": "Probable", "codes": "C ", "n_records": 2, "n_observers": 2, "first_date": "2025-10-12", "last_date": "2025-10-12", "state": "Región Metropolitana de Santiago", "county": "Las Condes"}}, {"type": "Feature", "geometry": {"type": "Point", "coordinates": [-70.86525, -28.927641]}, "properties": {"name": "Cachiyuyo--Ruta 5", "category": "Probable", "codes": "A ", "n_records": 1, "n_observers": 1, "first_date": "2026-03-21", "last_date": "2026-03-21", "state": "Atacama", "county": "Vallenar"}}, {"type": "Feature", "geometry": {"type": "Point", "coordinates": [-70.112352, -33.709934]}, "properties": {"name": "Camino al Yeso (El Arriero), San José de Maipo CL-Metropolitana de Santiago", "category": "Probable", "codes": "P ", "n_records": 2, "n_observers": 2, "first_date": "2023-08-13", "last_date": "2023-08-13", "state": "Región Metropolitana de Santiago", "county": "San José de Maipo"}}, {"type": "Feature", "geometry": {"type": "Point", "coordinates": [-70.375618, -33.29294]}, "properties": {"name": "7710068, Lo Barnechea CL-Santiago -33.29294, -70.37562", "category": "Probable", "codes": "C ", "n_records": 1, "n_observers": 1, "first_date": "2023-08-31", "last_date": "2023-08-31", "state": "Región Metropolitana de Santiago", "county": "Lo Barnechea"}}, {"type": "Feature", "geometry": {"type": "Point", "coordinates": [-71.079027, -28.51991]}, "properties": {"name": "By Pass Freirina", "category": "Probable", "codes": "P ", "n_records": 2, "n_observers": 2, "first_date": "2025-10-20", "last_date": "2025-10-20", "state": "Atacama", "county": "Freirina"}}, {"type": "Feature", "geometry": {"type": "Point", "coordinates": [-70.872713, -31.687951]}, "properties": {"name": "Salamanca--Poza Azul", "category": "Probable", "codes": "C ", "n_records": 2, "n_observers": 2, "first_date": "2024-09-21", "last_date": "2024-09-21", "state": "Coquimbo", "county": "Salamanca"}}, {"type": "Feature", "geometry": {"type": "Point", "coordinates": [-73.114134, -51.06021]}, "properties": {"name": "Campamento Grey a Paine Grande, Torres del Paine CL-Magallanes and Antartica Chilena Region -51.06021, -73.11413", "category": "Confirmado", "codes": "UN", "n_records": 1, "n_observers": 1, "first_date": "2024-01-08", "last_date": "2024-01-08", "state": "Magallanes", "county": "Torres del Paine"}}, {"type": "Feature", "geometry": {"type": "Point", "coordinates": [-73.132408, -51.116141]}, "properties": {"name": "Torres de Paine, Magallanes y la Antártica Chilena, CL (-51.116, -73.132)", "category": "Probable", "codes": "N ", "n_records": 2, "n_observers": 2, "first_date": "2024-01-14", "last_date": "2024-01-14", "state": "Magallanes", "county": "Torres del Paine"}}, {"type": "Feature", "geometry": {"type": "Point", "coordinates": [-71.374146, -37.377539]}, "properties": {"name": "Sendero las Chilcas , PN Laguna el Laja", "category": "Confirmado", "codes": "ON", "n_records": 1, "n_observers": 1, "first_date": "2021-10-09", "last_date": "2021-10-09", "state": "Bío-Bío", "county": "Antuco"}}, {"type": "Feature", "geometry": {"type": "Point", "coordinates": [-70.493195, -33.399399]}, "properties": {"name": "Parque San Carlos de Apoquindo", "category": "Probable", "codes": "P ", "n_records": 1, "n_observers": 1, "first_date": "2014-09-14", "last_date": "2014-09-14", "state": "Región Metropolitana de Santiago", "county": "Las Condes"}}, {"type": "Feature", "geometry": {"type": "Point", "coordinates": [-70.701371, -29.475339]}, "properties": {"name": "Ruta D--115 Cuesta Panules", "category": "Probable", "codes": "P ", "n_records": 1, "n_observers": 1, "first_date": "2015-10-31", "last_date": "2015-10-31", "state": "Coquimbo", "county": "La Higuera"}}, {"type": "Feature", "geometry": {"type": "Point", "coordinates": [-71.139055, -28.965506]}, "properties": {"name": "C-500, Freirina, Atacama, CL (-28,966, -71,139)", "category": "Probable", "codes": "A ", "n_records": 4, "n_observers": 2, "first_date": "2025-04-20", "last_date": "2025-12-04", "state": "Atacama", "county": "Freirina"}}, {"type": "Feature", "geometry": {"type": "Point", "coordinates": [-70.397859, -33.556488]}, "properties": {"name": "Estero El Manzano", "category": "Probable", "codes": "P ", "n_records": 2, "n_observers": 2, "first_date": "2015-09-27", "last_date": "2015-09-27", "state": "Región Metropolitana de Santiago", "county": "San José de Maipo"}}, {"type": "Feature", "geometry": {"type": "Point", "coordinates": [-70.918619, -31.183195]}, "properties": {"name": "Rodeo Viejo", "category": "Probable", "codes": "P ", "n_records": 1, "n_observers": 1, "first_date": "2014-09-18", "last_date": "2014-09-18", "state": "Coquimbo", "county": "Combarbalá"}}, {"type": "Feature", "geometry": {"type": "Point", "coordinates": [-71.270769, -36.651262]}, "properties": {"name": "San Fabián", "category": "Probable", "codes": "P ", "n_records": 1, "n_observers": 1, "first_date": "2014-12-07", "last_date": "2014-12-07", "state": "Ñuble", "county": "San Fabián"}}, {"type": "Feature", "geometry": {"type": "Point", "coordinates": [-70.229588, -33.381754]}, "properties": {"name": "Alto del Cepo (valle del Cepo)", "category": "Probable", "codes": "P ", "n_records": 1, "n_observers": 1, "first_date": "2015-01-04", "last_date": "2015-01-04", "state": "Región Metropolitana de Santiago", "county": "Lo Barnechea"}}, {"type": "Feature", "geometry": {"type": "Point", "coordinates": [-71.360244, -52.710724]}, "properties": {"name": "Palomares Hill", "category": "Confirmado", "codes": "C ,NY", "n_records": 4, "n_observers": 3, "first_date": "2015-11-26", "last_date": "2019-11-07", "state": "Magallanes", "county": "Río Verde"}}, {"type": "Feature", "geometry": {"type": "Point", "coordinates": [-70.520519, -33.31518]}, "properties": {"name": "Cerro Huingalal", "category": "Probable", "codes": "P ", "n_records": 1, "n_observers": 1, "first_date": "2024-10-20", "last_date": "2024-10-20", "state": "Región Metropolitana de Santiago", "county": "Lo Barnechea"}}, {"type": "Feature", "geometry": {"type": "Point", "coordinates": [-71.189568, -28.551115]}, "properties": {"name": "C-480, El Pino, Atacama, CL (-28,551, -71,19)", "category": "Probable", "codes": "P ", "n_records": 4, "n_observers": 2, "first_date": "2025-10-19", "last_date": "2025-10-20", "state": "Atacama", "county": "Huasco"}}, {"type": "Feature", "geometry": {"type": "Point", "coordinates": [-70.319195, -30.83872]}, "properties": {"name": "SN Río Sasso--Nacimiento Río Mostazal", "category": "Probable", "codes": "P ", "n_records": 1, "n_observers": 1, "first_date": "2015-03-07", "last_date": "2015-03-07", "state": "Coquimbo", "county": "Monte Patria"}}, {"type": "Feature", "geometry": {"type": "Point", "coordinates": [-70.829007, -29.833115]}, "properties": {"name": "Quebrada de Marquesa--Norte", "category": "Probable", "codes": "P ", "n_records": 2, "n_observers": 2, "first_date": "2015-08-29", "last_date": "2015-08-29", "state": "Coquimbo", "county": "Vicuña"}}, {"type": "Feature", "geometry": {"type": "Point", "coordinates": [-70.39288, -33.444119]}, "properties": {"name": "Travesía La ermita-El Manzano", "category": "Probable", "codes": "P ", "n_records": 2, "n_observers": 2, "first_date": "2015-09-25", "last_date": "2015-09-25", "state": "Región Metropolitana de Santiago", "county": "Lo Barnechea"}}, {"type": "Feature", "geometry": {"type": "Point", "coordinates": [-70.391078, -33.481281]}, "properties": {"name": "Travesía La ermita-El Manzano II Los Azules", "category": "Probable", "codes": "P ", "n_records": 2, "n_observers": 2, "first_date": "2015-09-26", "last_date": "2015-09-26", "state": "Región Metropolitana de Santiago", "county": "Lo Barnechea"}}, {"type": "Feature", "geometry": {"type": "Point", "coordinates": [-70.386003, -33.495866]}, "properties": {"name": "Travesía La ermita-El Manzano II Ex Refugio Dav", "category": "Probable", "codes": "P ", "n_records": 2, "n_observers": 2, "first_date": "2015-09-26", "last_date": "2015-09-26", "state": "Región Metropolitana de Santiago", "county": "San José de Maipo"}}, {"type": "Feature", "geometry": {"type": "Point", "coordinates": [-71.079392, -28.962448]}, "properties": {"name": "C-500, Freirina, Atacama, CL (-28.962, -71.079)", "category": "Probable", "codes": "A ", "n_records": 1, "n_observers": 1, "first_date": "2025-02-05", "last_date": "2025-02-05", "state": "Atacama", "county": "Freirina"}}, {"type": "Feature", "geometry": {"type": "Point", "coordinates": [-70.000761, -29.913174]}, "properties": {"name": "Cuenca Vacas Heladas  Pastalito - Las Hediondas", "category": "Probable", "codes": "P ", "n_records": 1, "n_observers": 1, "first_date": "2019-12-27", "last_date": "2019-12-27", "state": "Coquimbo", "county": "Vicuña"}}, {"type": "Feature", "geometry": {"type": "Point", "coordinates": [-70.899943, -28.95587]}, "properties": {"name": "C-500, Vallenar, Atacama, CL (-28.956, -70.9)", "category": "Probable", "codes": "A ", "n_records": 1, "n_observers": 1, "first_date": "2026-03-21", "last_date": "2026-03-21", "state": "Atacama", "county": "Vallenar"}}, {"type": "Feature", "geometry": {"type": "Point", "coordinates": [-72.390578, -50.870543]}, "properties": {"name": "Cerro Guido", "category": "Confirmado", "codes": "UN", "n_records": 1, "n_observers": 1, "first_date": "2018-01-06", "last_date": "2018-01-06", "state": "Magallanes", "county": "Torres del Paine"}}, {"type": "Feature", "geometry": {"type": "Point", "coordinates": [-71.227002, -28.953628]}, "properties": {"name": "C-500, El Higirlo, Atacama, CL (-28.954, -71.227)", "category": "Probable", "codes": "A ", "n_records": 2, "n_observers": 2, "first_date": "2025-04-17", "last_date": "2025-04-17", "state": "Atacama", "county": "Freirina"}}, {"type": "Feature", "geometry": {"type": "Point", "coordinates": [-70.582808, -29.452039]}, "properties": {"name": "Vega Las Cuevas", "category": "Probable", "codes": "P ", "n_records": 1, "n_observers": 1, "first_date": "2012-09-26", "last_date": "2012-09-26", "state": "Coquimbo", "county": "La Higuera"}}, {"type": "Feature", "geometry": {"type": "Point", "coordinates": [-72.553711, -46.645665]}, "properties": {"name": "Lago General Carrera--Sector Puerto Sanchez", "category": "Probable", "codes": "P ", "n_records": 1, "n_observers": 1, "first_date": "2017-02-27", "last_date": "2017-02-27", "state": "Aisén del General Carlos Ibáñez del Campo", "county": "Río Ibáñez"}}, {"type": "Feature", "geometry": {"type": "Point", "coordinates": [-70.260673, -54.179596]}, "properties": {"name": "Islotes Tuckers", "category": "Confirmado", "codes": "FY", "n_records": 2, "n_observers": 2, "first_date": "2021-11-18", "last_date": "2021-11-18", "state": "Magallanes", "county": "Punta Arenas"}}, {"type": "Feature", "geometry": {"type": "Point", "coordinates": [-71.156335, -28.491661]}, "properties": {"name": "C-480, Huasco, Atacama, CL (-28.492, -71.156)", "category": "Probable", "codes": "A ", "n_records": 1, "n_observers": 1, "first_date": "2026-07-01", "last_date": "2026-07-01", "state": "Atacama", "county": "Huasco"}}, {"type": "Feature", "geometry": {"type": "Point", "coordinates": [-70.97012, -28.979045]}, "properties": {"name": "C-500, Vallenar, Atacama, CL (-28.979, -70.97)", "category": "Probable", "codes": "A ", "n_records": 2, "n_observers": 2, "first_date": "2025-10-09", "last_date": "2025-10-09", "state": "Atacama", "county": "Vallenar"}}, {"type": "Feature", "geometry": {"type": "Point", "coordinates": [-71.241885, -28.948758]}, "properties": {"name": "C-500, El Higirlo, Atacama, CL (-28.949, -71.242)", "category": "Probable", "codes": "A ", "n_records": 2, "n_observers": 2, "first_date": "2025-11-22", "last_date": "2025-11-22", "state": "Atacama", "county": "Freirina"}}, {"type": "Feature", "geometry": {"type": "Point", "coordinates": [-71.190433, -28.956322]}, "properties": {"name": "C-500, Freirina, Atacama, CL (-28.956, -71.19)", "category": "Probable", "codes": "A ", "n_records": 2, "n_observers": 2, "first_date": "2025-11-28", "last_date": "2025-11-28", "state": "Atacama", "county": "Freirina"}}, {"type": "Feature", "geometry": {"type": "Point", "coordinates": [-72.441647, -50.864464]}, "properties": {"name": "Portón Estancia Valle las Chinas", "category": "Probable", "codes": "N ", "n_records": 4, "n_observers": 4, "first_date": "2017-03-19", "last_date": "2017-03-19", "state": "Magallanes", "county": "Torres del Paine"}}, {"type": "Feature", "geometry": {"type": "Point", "coordinates": [-70.858788, -30.001558]}, "properties": {"name": "Quebrada El Chape", "category": "Confirmado", "codes": "ON", "n_records": 1, "n_observers": 1, "first_date": "2026-01-04", "last_date": "2026-01-04", "state": "Coquimbo", "county": "Vicuña"}}, {"type": "Feature", "geometry": {"type": "Point", "coordinates": [-70.300401, -32.926435]}, "properties": {"name": "E-767, Los Andes, Valparaíso, CL (-32.926, -70.3)", "category": "Probable", "codes": "C ", "n_records": 2, "n_observers": 2, "first_date": "2026-01-26", "last_date": "2026-01-26", "state": "Valparaíso", "county": "Los Andes"}}, {"type": "Feature", "geometry": {"type": "Point", "coordinates": [-70.465901, -34.265622]}, "properties": {"name": "RN Río de Los Cipreses--Entrada", "category": "Probable", "codes": "N ", "n_records": 1, "n_observers": 1, "first_date": "2023-08-13", "last_date": "2023-08-13", "state": "Libertador General Bernardo O'Higgins", "county": "Machalí"}}, {"type": "Feature", "geometry": {"type": "Point", "coordinates": [-72.191168, -40.784547]}, "properties": {"name": "Antillanca, PN Puyehue, Los Lagos, CL (-40.785, -72.191)", "category": "Probable", "codes": "P ", "n_records": 1, "n_observers": 1, "first_date": "2026-02-20", "last_date": "2026-02-20", "state": "Los Lagos", "county": "Puyehue"}}, {"type": "Feature", "geometry": {"type": "Point", "coordinates": [-70.025128, -33.625054]}, "properties": {"name": "Embalse El Yeso--Vegas superiores", "category": "Probable", "codes": "P ", "n_records": 4, "n_observers": 4, "first_date": "2015-02-04", "last_date": "2015-02-04", "state": "Región Metropolitana de Santiago", "county": "San José de Maipo"}}, {"type": "Feature", "geometry": {"type": "Point", "coordinates": [-70.618395, -33.342318]}, "properties": {"name": "Cerro Monte Gordo", "category": "Probable", "codes": "C ", "n_records": 1, "n_observers": 1, "first_date": "2026-05-09", "last_date": "2026-05-09", "state": "Región Metropolitana de Santiago", "county": "Huechuraba"}}, {"type": "Feature", "geometry": {"type": "Point", "coordinates": [-70.249082, -33.356413]}, "properties": {"name": "Valle Nevado", "category": "Confirmado", "codes": "FL,P ", "n_records": 7, "n_observers": 7, "first_date": "2012-01-30", "last_date": "2024-10-30", "state": "Región Metropolitana de Santiago", "county": "Lo Barnechea"}}, {"type": "Feature", "geometry": {"type": "Point", "coordinates": [-71.207135, -29.465643]}, "properties": {"name": "Panamericana Norte, La Higuera, Coquimbo, CL (-29,466, -71,207)", "category": "Probable", "codes": "A ", "n_records": 2, "n_observers": 2, "first_date": "2026-05-04", "last_date": "2026-05-04", "state": "Coquimbo", "county": "La Higuera"}}, {"type": "Feature", "geometry": {"type": "Point", "coordinates": [-71.118242, -28.96709]}, "properties": {"name": "C-500, Freirina, Atacama, CL (-28,967, -71,118)", "category": "Probable", "codes": "A ", "n_records": 2, "n_observers": 2, "first_date": "2026-06-10", "last_date": "2026-06-10", "state": "Atacama", "county": "Freirina"}}, {"type": "Feature", "geometry": {"type": "Point", "coordinates": [-70.48061, -33.53593]}, "properties": {"name": "Cerro Minillas--Cumbre", "category": "Probable", "codes": "P ", "n_records": 1, "n_observers": 1, "first_date": "2021-07-02", "last_date": "2021-07-02", "state": "Región Metropolitana de Santiago", "county": "La Florida"}}, {"type": "Feature", "geometry": {"type": "Point", "coordinates": [-71.255159, -29.901539]}, "properties": {"name": "Parque Pedro de Valdivia", "category": "Probable", "codes": "C ", "n_records": 1, "n_observers": 1, "first_date": "2018-07-29", "last_date": "2018-07-29", "state": "Coquimbo", "county": "La Serena"}}, {"type": "Feature", "geometry": {"type": "Point", "coordinates": [-70.097483, -33.680309]}, "properties": {"name": "Valle del Yeso (Cerca de las Ruinas)", "category": "Probable", "codes": "P ", "n_records": 4, "n_observers": 4, "first_date": "2014-11-08", "last_date": "2014-11-08", "state": "Región Metropolitana de Santiago", "county": "San José de Maipo"}}, {"type": "Feature", "geometry": {"type": "Point", "coordinates": [-69.97344, -54.738029]}, "properties": {"name": "PN Alberto de Agostini--Glaciar Garibaldi", "category": "Probable", "codes": "P ", "n_records": 1, "n_observers": 1, "first_date": "2022-11-02", "last_date": "2022-11-02", "state": "Magallanes", "county": "Cabo de Hornos"}}, {"type": "Feature", "geometry": {"type": "Point", "coordinates": [-71.357599, -37.374031]}, "properties": {"name": "PN Laguna del Laja [usar localidades específicas]", "category": "Confirmado", "codes": "N ,UN", "n_records": 2, "n_observers": 2, "first_date": "2012-11-04", "last_date": "2016-12-17", "state": "Bío-Bío", "county": "Antuco"}}, {"type": "Feature", "geometry": {"type": "Point", "coordinates": [-72.028458, -43.599848]}, "properties": {"name": "Río Malito--Sector El Malito (Palena)", "category": "Confirmado", "codes": "FL", "n_records": 2, "n_observers": 2, "first_date": "2019-02-10", "last_date": "2019-02-10", "state": "Los Lagos", "county": "Palena"}}, {"type": "Feature", "geometry": {"type": "Point", "coordinates": [-72.949732, -51.893815]}, "properties": {"name": "Angostura White--Puerto Pinto", "category": "Confirmado", "codes": "ON,UN", "n_records": 3, "n_observers": 3, "first_date": "2019-03-03", "last_date": "2024-03-23", "state": "Magallanes", "county": "Natales"}}, {"type": "Feature", "geometry": {"type": "Point", "coordinates": [-69.183483, -19.684475]}, "properties": {"name": "Chusmiza", "category": "Probable", "codes": "P ", "n_records": 4, "n_observers": 4, "first_date": "2021-10-09", "last_date": "2021-10-09", "state": "Tarapacá", "county": "Huara"}}, {"type": "Feature", "geometry": {"type": "Point", "coordinates": [-70.844953, -33.910665]}, "properties": {"name": "Paine, Región Metropolitana, CL (-33,911, -70,845)", "category": "Probable", "codes": "P ", "n_records": 1, "n_observers": 1, "first_date": "2019-06-02", "last_date": "2019-06-02", "state": "Región Metropolitana de Santiago", "county": "Paine"}}]}