{"type": "FeatureCollection", "features": [{"type": "Feature", "geometry": {"type": "Point", "coordinates": [-71.967774, -45.024819]}, "properties": {"nombre": "EL TOQUI", "propiedad": "EMPRESA ELECTRICA DE AYSEN S.A.", "potencia_mw": "1.400000000000000", "unidades": "6.000000000000000", "region": "AYSEN", "comuna": "COYHAIQUE", "estado": "EN OPERACION", "fecha_actualizacion": "2018-06-30"}}, {"type": "Feature", "geometry": {"type": "Point", "coordinates": [-72.106039, -45.526498]}, "properties": {"nombre": "ALTO BAGUALES", "propiedad": "EMPRESA ELECTRICA DE AYSEN S.A.", "potencia_mw": "1.980000000000000", "unidades": "3.000000000000000", "region": "AYSEN", "comuna": "COYHAIQUE", "estado": "EN OPERACION", "fecha_actualizacion": "2018-06-30"}}, {"type": "Feature", "geometry": {"type": "Point", "coordinates": [-72.103035, -45.525671]}, "properties": {"nombre": "ALTO BAGUALES 2", "propiedad": "EMPRESA ELECTRICA DE AYSEN S.A.", "potencia_mw": "1.800000000000000", "unidades": "2.000000000000000", "region": "AYSEN", "comuna": "COYHAIQUE", "estado": "EN OPERACION", "fecha_actualizacion": "2018-06-30"}}, {"type": "Feature", "geometry": {"type": "Point", "coordinates": [-70.829126, -52.949422]}, "properties": {"nombre": "CABO NEGRO", "propiedad": "METHANEX CHILE S.A.", "potencia_mw": "2.550000000000000", "unidades": "3.000000000000000", "region": "MAGALLANES", "comuna": "PUNTA ARENAS", "estado": "EN OPERACION", "fecha_actualizacion": "2018-06-30"}}, {"type": "Feature", "geometry": {"type": "Point", "coordinates": [-71.610685, -31.286692]}, "properties": {"nombre": "CANELA", "propiedad": "EMPRESA NACIONAL DE ELECTRICIDAD S.A.", "potencia_mw": "18.149999999999999", "unidades": "11.000000000000000", "region": "COQUIMBO", "comuna": "CANELA", "estado": "EN OPERACION", "fecha_actualizacion": "2018-06-30"}}, {"type": "Feature", "geometry": {"type": "Point", "coordinates": [-71.617825, -31.306378]}, "properties": {"nombre": "CANELA II", "propiedad": "CENTRAL EOLICA CANELA S.A.", "potencia_mw": "60.000000000000000", "unidades": "40.000000000000000", "region": "COQUIMBO", "comuna": "CANELA", "estado": "EN OPERACION", "fecha_actualizacion": "2018-06-30"}}, {"type": "Feature", "geometry": {"type": "Point", "coordinates": [-72.478971, -37.514068]}, "properties": {"nombre": "EOLICA CUEL", "propiedad": "AELA EOLICA NEGRETE SPA", "potencia_mw": "33.000000000000000", "unidades": "22.000000000000000", "region": "BIOBIO", "comuna": "LOS ANGELES", "estado": "EN OPERACION", "fecha_actualizacion": "2018-06-30"}}, {"type": "Feature", "geometry": {"type": "Point", "coordinates": [-71.701008, -30.583171]}, "properties": {"nombre": "EOLICA EL ARRAYAN", "propiedad": "PARQUE EOLICO EL ARRAYAN SPA", "potencia_mw": "115.000000000000000", "unidades": "50.000000000000000", "region": "COQUIMBO", "comuna": "OVALLE", "estado": "EN OPERACION", "fecha_actualizacion": "2018-06-30"}}, {"type": "Feature", "geometry": {"type": "Point", "coordinates": [-73.426328, -37.257159]}, "properties": {"nombre": "EOLICA LAS PENAS", "propiedad": "EOLICO LAS PENAS SPA", "potencia_mw": "8.400000000000000", "unidades": "4.000000000000000", "region": "BIOBIO", "comuna": "ARAUCO", "estado": "EN OPERACION", "fecha_actualizacion": "2018-06-30"}}, {"type": "Feature", "geometry": {"type": "Point", "coordinates": [-73.649115, -37.686113]}, "properties": {"nombre": "EOLICA LEBU", "propiedad": "PARQUE EOLICO LEBU-TORO SPA", "potencia_mw": "6.540000000000000", "unidades": "7.000000000000000", "region": "BIOBIO", "comuna": "LEBU", "estado": "EN OPERACION", "fecha_actualizacion": "2018-06-30"}}, {"type": "Feature", "geometry": {"type": "Point", "coordinates": [-73.644168, -37.682202]}, "properties": {"nombre": "EOLICA LEBU III", "propiedad": "PARQUE EOLICO LEBU-TORO SPA", "potencia_mw": "5.250000000000000", "unidades": "5.000000000000000", "region": "BIOBIO", "comuna": "LEBU", "estado": "EN OPERACION", "fecha_actualizacion": "2018-06-30"}}, {"type": "Feature", "geometry": {"type": "Point", "coordinates": [-72.508344, -37.539424]}, "properties": {"nombre": "EOLICA LOS BUENOS AIRES", "propiedad": "PARQUE EOLICO RENAICO S.P.A", "potencia_mw": "24.000000000000000", "unidades": "12.000000000000000", "region": "BIOBIO", "comuna": "LOS ANGELES", "estado": "EN OPERACION", "fecha_actualizacion": "2018-06-30"}}, {"type": "Feature", "geometry": {"type": "Point", "coordinates": [-71.632227, -31.029368]}, "properties": {"nombre": "EOLICA LOS CURUROS", "propiedad": "PARQUE EOLICO LOS CURUROS LTDA", "potencia_mw": "109.599999999999994", "unidades": "57.000000000000000", "region": "COQUIMBO", "comuna": "OVALLE", "estado": "EN OPERACION", "fecha_actualizacion": "2018-06-30"}}, {"type": "Feature", "geometry": {"type": "Point", "coordinates": [-71.040136, -29.367536]}, "properties": {"nombre": "EOLICA PUNTA COLORADA", "propiedad": "COMPANIA BARRICK CHILE GENERACION LTDA", "potencia_mw": "20.000000000000000", "unidades": "10.000000000000000", "region": "COQUIMBO", "comuna": "LA HIGUERA", "estado": "EN OPERACION", "fecha_actualizacion": "2018-06-30"}}, {"type": "Feature", "geometry": {"type": "Point", "coordinates": [-71.625076, -31.236031]}, "properties": {"nombre": "EOLICA PUNTA PALMERAS", "propiedad": "PUNTA PALMERAS S.A.", "potencia_mw": "45.000000000000000", "unidades": "15.000000000000000", "region": "COQUIMBO", "comuna": "CANELA", "estado": "EN OPERACION", "fecha_actualizacion": "2018-06-30"}}, {"type": "Feature", "geometry": {"type": "Point", "coordinates": [-71.468228, -28.881471]}, "properties": {"nombre": "EOLICA SAN JUAN", "propiedad": "ENERGY FOCUS S.A.", "potencia_mw": "193.199999999999989", "unidades": "56.000000000000000", "region": "ATACAMA", "comuna": "FREIRINA", "estado": "EN OPERACION", "fecha_actualizacion": "2018-06-30"}}, {"type": "Feature", "geometry": {"type": "Point", "coordinates": [-73.924112, -42.275408]}, "properties": {"nombre": "EOLICA SAN PEDRO", "propiedad": "ALBA S.A.", "potencia_mw": "36.000000000000000", "unidades": "18.000000000000000", "region": "LOS LAGOS", "comuna": "DALCAHUE", "estado": "EN OPERACION", "fecha_actualizacion": "2018-06-30"}}, {"type": "Feature", "geometry": {"type": "Point", "coordinates": [-73.918781, -42.281201]}, "properties": {"nombre": "EOLICA SAN PEDRO II", "propiedad": "RIO ALTO GENERACION S.A.", "potencia_mw": "65.000000000000000", "unidades": "13.000000000000000", "region": "LOS LAGOS", "comuna": "DALCAHUE", "estado": "EN OPERACION", "fecha_actualizacion": "2018-06-30"}}, {"type": "Feature", "geometry": {"type": "Point", "coordinates": [-71.569722, -30.84637]}, "properties": {"nombre": "EOLICA TALINAY ORIENTE", "propiedad": "PARQUE TALINAY ORIENTE S.A.", "potencia_mw": "90.000000000000000", "unidades": "45.000000000000000", "region": "COQUIMBO", "comuna": "OVALLE", "estado": "EN OPERACION", "fecha_actualizacion": "2018-06-30"}}, {"type": "Feature", "geometry": {"type": "Point", "coordinates": [-71.652973, -30.811158]}, "properties": {"nombre": "EOLICA TALINAY PONIENTE", "propiedad": "EMPRESA ELECTRICA PANGUIPULLI S.A.", "potencia_mw": "60.600000000000001", "unidades": "32.000000000000000", "region": "COQUIMBO", "comuna": "OVALLE", "estado": "EN OPERACION", "fecha_actualizacion": "2018-06-30"}}, {"type": "Feature", "geometry": {"type": "Point", "coordinates": [-69.857212, -25.080052]}, "properties": {"nombre": "EOLICA TALTAL", "propiedad": "PARQUE EOLICO TAL TAL S.A.", "potencia_mw": "99.000000000000000", "unidades": "33.000000000000000", "region": "ANTOFAGASTA", "comuna": "TALTAL", "estado": "EN OPERACION", "fecha_actualizacion": "2018-06-30"}}, {"type": "Feature", "geometry": {"type": "Point", "coordinates": [-71.601863, -31.348495]}, "properties": {"nombre": "EOLICA TOTORAL", "propiedad": "NORVIND S.A.", "potencia_mw": "46.000000000000000", "unidades": "23.000000000000000", "region": "COQUIMBO", "comuna": "CANELA", "estado": "EN OPERACION", "fecha_actualizacion": "2018-06-30"}}, {"type": "Feature", "geometry": {"type": "Point", "coordinates": [-73.568485, -37.746172]}, "properties": {"nombre": "HUAJACHE", "propiedad": "PROYECTO HUAJACHE SPA", "potencia_mw": "6.000000000000000", "unidades": "2.000000000000000", "region": "BIOBIO", "comuna": "LEBU", "estado": "EN OPERACION", "fecha_actualizacion": "2018-06-30"}}, {"type": "Feature", "geometry": {"type": "Point", "coordinates": [-71.637106, -31.072585]}, "properties": {"nombre": "MONTE REDONDO", "propiedad": "EOLICA MONTE REDONDO S.A.", "potencia_mw": "48.000000000000000", "unidades": "24.000000000000000", "region": "COQUIMBO", "comuna": "OVALLE", "estado": "EN OPERACION", "fecha_actualizacion": "2018-06-30"}}, {"type": "Feature", "geometry": {"type": "Point", "coordinates": [-72.534351, -37.605837]}, "properties": {"nombre": "PARQUE EOLICO LA ESPERANZA", "propiedad": "EOLICA LA ESPERANZA S.A.", "potencia_mw": "10.500000000000000", "unidades": "5.000000000000000", "region": "BIOBIO", "comuna": "NEGRETE", "estado": "EN OPERACION", "fecha_actualizacion": "2018-06-30"}}, {"type": "Feature", "geometry": {"type": "Point", "coordinates": [-72.581145, -37.72064]}, "properties": {"nombre": "PARQUE EOLICO RENAICO", "propiedad": "PARQUE EOLICO RENAICO S.P.A", "potencia_mw": "88.000000000000000", "unidades": "44.000000000000000", "region": "LA ARAUCANIA", "comuna": "RENAICO", "estado": "EN OPERACION", "fecha_actualizacion": "2018-06-30"}}, {"type": "Feature", "geometry": {"type": "Point", "coordinates": [-73.573405, -37.742828]}, "properties": {"nombre": "RAKI", "propiedad": "PROYECTO RAKI SPA", "potencia_mw": "9.000000000000000", "unidades": "3.000000000000000", "region": "BIOBIO", "comuna": "LEBU", "estado": "EN OPERACION", "fecha_actualizacion": "2018-06-30"}}, {"type": "Feature", "geometry": {"type": "Point", "coordinates": [-71.609813, -34.044211]}, "properties": {"nombre": "UCUQUER", "propiedad": "ENERGIAS UCUQUER S.A.", "potencia_mw": "7.200000000000000", "unidades": "4.000000000000000", "region": "O'HIGGINS", "comuna": "LITUECHE", "estado": "EN OPERACION", "fecha_actualizacion": "2018-06-30"}}, {"type": "Feature", "geometry": {"type": "Point", "coordinates": [-71.621387, -34.045154]}, "properties": {"nombre": "UCUQUER 2", "propiedad": "ENERGIAS UCUQUER S.A.", "potencia_mw": "10.750000000000000", "unidades": "5.000000000000000", "region": "O'HIGGINS", "comuna": "LITUECHE", "estado": "EN OPERACION", "fecha_actualizacion": "2018-06-30"}}, {"type": "Feature", "geometry": {"type": "Point", "coordinates": [-68.817108, -22.517832]}, "properties": {"nombre": "VALLE DE LOS VIENTOS", "propiedad": "PARQUE EOLICO VALLE DE LOS VIENTOS S.A.", "potencia_mw": "90.000000000000000", "unidades": "45.000000000000000", "region": "ANTOFAGASTA", "comuna": "CALAMA", "estado": "EN OPERACION", "fecha_actualizacion": "2018-06-30"}}]}